<!-- $Id$ -->
<!DOCTYPE HTML PUBLIC "-//W3C//DTD HTML 4.01 Transitional//EN">
<html>
<head>
  <title>Display metars</title>
  <meta http-equiv="Content-Type" content="text/html; charset=utf-8">
  <meta name="Author" content="G. Ballester">
  <meta name="GENERATOR" content="Quanta Plus">
  <meta name="robots" content="index,nofollow">
  <meta name="keywords" content="metar, speci, taf, weather reports">
  <meta name=viewport content="width=device-width, initial-scale=1">  
  <link rel="stylesheet" href="/ogimet.css">
  <link rel="stylesheet" type="text/css" href="//cdnjs.cloudflare.com/ajax/libs/cookieconsent2/3.0.3/cookieconsent.min.css" />
<script src="//cdnjs.cloudflare.com/ajax/libs/cookieconsent2/3.0.3/cookieconsent.min.js"></script>
<script>
window.addEventListener("load", function(){
window.cookieconsent.initialise({
  "palette": {
    "popup": {
      "background": "#eb6c44",
      "text": "#ffffff"
    },
    "button": {
      "background": "#f5d948"
    }
  },
  "theme": "classic",
  "position": "top",
  "content": {
    "message": "Las cookies de este sitio web se usan para personalizar el contenido y los anuncios, ofrecer funciones de redes sociales y analizar el tráfico. Ademas, compartimos el uso que haga del sitio web con nuestros partners de redes sociales, publicidad y análisis web, quienes pueden combinarla con otra información que les haya proporcionado o que hayan recopilado a partir del uso que haya hecho de sus servicios. Si continua navegando en estas páginas consideramos que acepta su uso. ",
    "dismiss": "Entendido",
    "link": "Saber más",
    "href": "/cookiespolicy.phtml"
  }
})});
</script>
</head>
<body>
<pre>
##########################################################
# Consulta realizada a 12/07/2020 13:38:27 UTC
# Periodo: desde 01/12/2019 00:00  a 31/12/2019 23:59  UTC
##########################################################

##########################################################
# MRLM, Puerto Limon (Costa Rica)
# Indicativo sinóptico: 78767
# Latitud 10-00N. Longitud 083-03W. Altitud 5 m.
##########################################################

###################################
#  METAR/SPECI de MRLM
###################################
201912010000 METAR MRLM 010000Z 00000KT CAVOK 26/23 A2983=
201912010100 METAR MRLM NIL=
201912010200 METAR MRLM NIL=
201912010300 METAR MRLM NIL=
201912010400 METAR MRLM NIL=
201912010500 METAR MRLM NIL=
201912010600 METAR MRLM NIL=
201912010700 METAR MRLM NIL=
201912010800 METAR MRLM NIL=
201912010900 METAR MRLM NIL=
201912011000 METAR MRLM NIL=
201912011100 METAR MRLM NIL=
201912011200 METAR MRLM 011200Z 26002KT CAVOK 22/21 A2985=
201912011300 METAR MRLM 011300Z 26003KT CAVOK 25/22 A2986=
201912011400 METAR MRLM 011400Z 00000KT CAVOK 26/23 A2988=
201912011500 METAR MRLM 011500Z 04003KT 9999 FEW025 BKN120 27/23 A2989=
201912011600 METAR MRLM 011600Z 05005KT CAVOK 28/23 A2989=
201912011700 METAR MRLM 011700Z 02005KT CAVOK 28/24 A2987=
201912011800 METAR MRLM 011800Z 04005KT CAVOK 28/23 A2985=
201912011900 METAR MRLM 011900Z 08003KT CAVOK 29/23 A2982=
201912012000 METAR MRLM 012000Z 04007KT CAVOK 29/22 A2981=
201912012100 METAR MRLM 012100Z 06004KT 9999 FEW025 SCT130 28/23 A2980=
201912012200 METAR MRLM 012200Z 06003KT 9999 FEW025TCU SCT130 28/23 A2980=
201912012300 METAR MRLM 012300Z 00000KT 9999 FEW020 BKN120 28/23 A2982=
201912020000 METAR MRLM 020000Z 23002KT 9999 FEW020 BKN120 26/24 A2983=
201912020100 METAR MRLM NIL=
201912020200 METAR MRLM NIL=
201912020300 METAR MRLM NIL=
201912020400 METAR MRLM NIL=
201912020500 METAR MRLM NIL=
201912020600 METAR MRLM NIL=
201912020700 METAR MRLM NIL=
201912020800 METAR MRLM NIL=
201912020900 METAR MRLM NIL=
201912021000 METAR MRLM NIL=
201912021100 METAR MRLM NIL=
201912021200 METAR MRLM 021200Z 24003KT 9999 VCSH FEW015 BKN100 22/21
                        A2990=
201912021300 METAR MRLM 021300Z 29002KT 9999 VCSH FEW015 BKN100 23/21
                        A2992=
201912021400 METAR MRLM 021400Z 30002KT 9999 FEW015 BKN100 24/22 A2995=
201912021500 METAR MRLM 021500Z 29004KT CAVOK 27/23 A2995=
201912021600 METAR MRLM 021600Z 28003KT CAVOK 28/23 A2994=
201912021700 METAR MRLM 021700Z 02008KT 9999 FEW030 SCT130 29/23 A2993=
201912021800 METAR MRLM 021800Z 36011KT 9999 FEW030 SCT130 28/24 A2990=
201912021900 METAR MRLM 021900Z 34007KT CAVOK 28/23 A2986=
201912022000 METAR MRLM 022000Z 01007KT CAVOK 29/23 A2985=
201912022100 METAR MRLM 022100Z 02007KT CAVOK 29/23 A2983=
201912022200 METAR MRLM 022200Z 35006KT 9999 VCSH FEW025TCU BKN120 28/23
                        A2986=
201912022300 METAR MRLM 022300Z 32004KT 9999 VCSH SCT020 BKN110 27/23
                        A2988=
201912030000 METAR MRLM 030000Z 16002KT 9999 VCSH SCT015 BKN100 25/24
                        A2989=
201912030100 METAR MRLM NIL=
201912030200 METAR MRLM NIL=
201912030300 METAR MRLM NIL=
201912030400 METAR MRLM NIL=
201912030500 METAR MRLM NIL=
201912030600 METAR MRLM NIL=
201912030700 METAR MRLM NIL=
201912030800 METAR MRLM NIL=
201912030900 METAR MRLM NIL=
201912031000 METAR MRLM NIL=
201912031100 METAR MRLM NIL=
201912031200 METAR MRLM 031200Z 28007KT 9999 FEW015 BKN110 23/22 A2992=
201912031300 METAR MRLM 031300Z 28008KT 9999 FEW015 BKN110 23/22 A2994=
201912031400 METAR MRLM 031400Z 27003KT 9999 DZ FEW020 BKN110 24/22 A2994=
201912031500 METAR MRLM 031500Z 29007KT 9999 FEW020 BKN110 25/23 A2995
                        REDZ=
201912031600 METAR MRLM 031600Z 28006KT CAVOK 26/23 A2994=
201912031700 METAR MRLM 031700Z 31006KT CAVOK 29/24 A2991=
201912031800 METAR MRLM 031800Z 31007KT 9999 FEW030 SCT130 29/23 A2989=
201912031900 METAR MRLM 031900Z 35012KT CAVOK 29/23 A2986=
201912032000 METAR MRLM 032000Z 33011KT CAVOK 28/23 A2984=
201912032100 METAR MRLM 032100Z 31006KT CAVOK 28/23 A2983=
201912032200 METAR MRLM 032200Z 32006KT CAVOK 27/23 A2984=
201912032300 METAR MRLM 032300Z 31006KT CAVOK 26/23 A2985=
201912040000 METAR MRLM 040000Z 29003KT CAVOK 25/24 A2987=
201912040100 METAR MRLM NIL=
201912040200 METAR MRLM NIL=
201912040300 METAR MRLM NIL=
201912040400 METAR MRLM NIL=
201912040500 METAR MRLM NIL=
201912040600 METAR MRLM NIL=
201912040700 METAR MRLM NIL=
201912040800 METAR MRLM NIL=
201912040900 METAR MRLM NIL=
201912041000 METAR MRLM NIL=
201912041100 METAR MRLM NIL=
201912041200 METAR MRLM 041200Z 25004KT CAVOK 22/21 A2988=
201912041300 METAR MRLM 041300Z 31006KT CAVOK 25/21 A2992=
201912041400 METAR MRLM 041400Z 28008KT CAVOK 26/22 A2993=
201912041500 METAR MRLM 041500Z 29007KT CAVOK 27/23 A2994=
201912041600 METAR MRLM 041600Z 30009KT 9999 FEW030 SCT140 BKN200 27/23
                        A2994=
201912041700 METAR MRLM 041700Z 32008KT 9999 FEW025 BKN130 28/23 A2992=
201912041800 METAR MRLM 041800Z 33010KT 9999 SCT020 BKN120 28/23 A2991=
201912041900 METAR MRLM 041900Z 35012KT 9999 FEW020 BKN120 27/22 A2989=
201912042000 METAR MRLM 042000Z 03010KT 4000 DZ BKN020 26/22 A2987=
201912042100 METAR MRLM 042100Z 04004KT 9999 FEW020 BKN120 25/23 A2987
                        REDZ=
201912042200 METAR MRLM 042200Z 33005KT 9999 FEW025 BKN130 26/23 A2986=
201912042300 METAR MRLM 042300Z 34005KT 9999 FEW020 BKN130 26/23 A2988=
201912050000 METAR MRLM 050000Z 34005KT 9999 FEW020 BKN130 26/23 A2988=
201912050100 METAR MRLM NIL=
201912050200 METAR MRLM NIL=
201912050300 METAR MRLM NIL=
201912050400 METAR MRLM NIL=
201912050500 METAR MRLM NIL=
201912050600 METAR MRLM NIL=
201912050700 METAR MRLM NIL=
201912050800 METAR MRLM NIL=
201912050900 METAR MRLM NIL=
201912051000 METAR MRLM NIL=
201912051100 METAR MRLM NIL=
201912051200 METAR MRLM 051200Z 27004KT 9999 VCSH FEW015 BKN100 23/22
                        A2993=
201912051300 METAR MRLM 051300Z 25004KT 9999 -DZ VCSH FEW015 OVC100 23/22
                        A2994=
201912051400 METAR MRLM 051400Z 25007KT 9999 FEW015 BKN100 24/22 A2994=
201912051500 METAR MRLM 051500Z 28006KT 9999 FEW020 BKN110 26/23 A2994=
201912051600 METAR MRLM 051600Z 29006KT 9999 FEW020 BKN120 28/23 A2994=
201912051700 METAR MRLM 051700Z 31005KT 8000 +DZ FEW015 OVC100 27/24 A2994=
201912051800 METAR MRLM 051800Z 36008KT 4000 RA FEW010 OVC080 25/24 A2993=
201912051900 METAR MRLM 051900Z 26003KT 9999 DZ FEW015 OVC090 23/22 A2990
                        RERA=
201912052000 METAR MRLM 052000Z 27004KT 9999 DZ FEW015 OVC090 24/23 A2988=
201912052100 METAR MRLM 052100Z 26003KT 9999 FEW015 OVC090 25/24 A2987
                        REDZ=
201912052200 METAR MRLM 052200Z 25003KT 9999 FEW015 OVC100 25/24 A2987=
201912052300 METAR MRLM 052300Z 29005KT 9999 DZ SCT015 OVC100 24/23 A2989=
201912060000 METAR MRLM 060000Z 29005KT 9999 SCT010 OVC080 24/23 A2989=
201912060100 METAR MRLM NIL=
201912060200 METAR MRLM NIL=
201912060300 METAR MRLM NIL=
201912060400 METAR MRLM NIL=
201912060500 METAR MRLM NIL=
201912060600 METAR MRLM NIL=
201912060700 METAR MRLM NIL=
201912060800 METAR MRLM NIL=
201912060900 METAR MRLM NIL=
201912061000 METAR MRLM NIL=
201912061100 METAR MRLM NIL=
201912061200 METAR MRLM 061200Z 30007KT 7000 +DZ FEW008 OVC070 23/23 A2993=
201912061300 METAR MRLM 061300Z 28008KT 6000 +DZ FEW008 OVC070 23/22 A2997=
201912061400 METAR MRLM 061400Z 26004KT 9999 DZ VCTS FEW008 OVC070 23/23
                        A3000=
201912061500 METAR MRLM 061500Z 19003KT 9999 DZ FEW008 OVC070 24/23 A3001=
201912061600 METAR MRLM 061600Z 22003KT 9999 -DZ FEW010 OVC090 24/23 A3001=
201912061700 METAR MRLM 061700Z 25005KT 9999 FEW010 BKN090 25/24 A2997
                        REDZ=
201912061800 METAR MRLM 061800Z 29004KT 9999 FEW020 BKN100 28/23 A2994=
201912061900 METAR MRLM 061900Z 13004KT 9999 FEW020 BKN100 28/23 A2992=
201912062000 METAR MRLM 062000Z 31004KT CAVOK 28/24 A2990=
201912062100 METAR MRLM 062100Z 32005KT CAVOK 28/24 A2989=
201912062200 METAR MRLM 062200Z 29004KT CAVOK 27/24 A2990=
201912062300 METAR MRLM 062300Z 30003KT CAVOK 26/23 A2992=
201912070000 METAR MRLM 070000Z 28002KT CAVOK 25/23 A2993=
201912070100 METAR MRLM NIL=
201912070200 METAR MRLM NIL=
201912070300 METAR MRLM NIL=
201912070400 METAR MRLM NIL=
201912070500 METAR MRLM NIL=
201912070600 METAR MRLM NIL=
201912070700 METAR MRLM NIL=
201912070800 METAR MRLM NIL=
201912070900 METAR MRLM NIL=
201912071000 METAR MRLM NIL=
201912071100 METAR MRLM NIL=
201912071200 METAR MRLM 071200Z 25003KT 9999 FEW020 BKN130 23/22 A2996=
201912071300 METAR MRLM 071300Z 00000KT CAVOK 23/22 A2999=
201912071400 METAR MRLM 071400Z 00000KT CAVOK 25/23 A3000=
201912071500 METAR MRLM 071500Z 04003KT 9999 -DZ SCT020 BKN110 26/23 A3001=
201912071600 METAR MRLM 071600Z 29004KT 9999 SCT020 BKN110 25/24 A3001
                        RERA=
201912071700 METAR MRLM 071700Z 20003KT 9999 SCT020 BKN110 26/24 A2999=
201912071800 METAR MRLM 071800Z 21005KT 9999 FEW025 BKN130 27/23 A2995=
201912071900 METAR MRLM 071900Z 19003KT CAVOK 29/23 A2991=
201912072000 METAR MRLM 072000Z 04004KT CAVOK 28/24 A2989=
201912072100 METAR MRLM 072100Z 36008KT CAVOK 28/25 A2989=
201912072200 METAR MRLM 072200Z 34007KT CAVOK 27/24 A2991=
201912072300 METAR MRLM 072300Z 33008KT CAVOK 26/24 A2993=
201912080000 METAR MRLM 080000Z 33006KT CAVOK 26/24 A2994=
201912080100 METAR MRLM NIL=
201912080200 METAR MRLM NIL=
201912080300 METAR MRLM NIL=
201912080400 METAR MRLM NIL=
201912080500 METAR MRLM NIL=
201912080600 METAR MRLM NIL=
201912080700 METAR MRLM NIL=
201912080800 METAR MRLM NIL=
201912080900 METAR MRLM NIL=
201912081000 METAR MRLM NIL=
201912081100 METAR MRLM NIL=
201912081200 METAR MRLM NIL=
201912081300 METAR MRLM NIL=
201912081400 METAR MRLM NIL=
201912081500 METAR MRLM NIL=
201912081600 METAR MRLM NIL=
201912081700 METAR MRLM NIL=
201912081800 METAR MRLM NIL=
201912081900 METAR MRLM NIL=
201912082000 METAR MRLM NIL=
201912082100 METAR MRLM NIL=
201912082200 METAR MRLM NIL=
201912082300 METAR MRLM NIL=
201912090000 METAR MRLM NIL=
201912090100 METAR MRLM NIL=
201912090200 METAR MRLM NIL=
201912090300 METAR MRLM NIL=
201912090400 METAR MRLM NIL=
201912090500 METAR MRLM NIL=
201912090600 METAR MRLM NIL=
201912090700 METAR MRLM NIL=
201912090800 METAR MRLM NIL=
201912090900 METAR MRLM NIL=
201912091000 METAR MRLM NIL=
201912091100 METAR MRLM NIL=
201912091200 METAR MRLM 091200Z 24004KT 9999 VCSH FEW015 OVC100 22/21
                        A2990=
201912091300 METAR MRLM 091300Z 26004KT 9999 FEW015 BKN100 22/21 A2992=
201912091400 METAR MRLM 091400Z 23006KT 9999 FEW020 SCT100 25/22 A2993=
201912091500 METAR MRLM 091500Z 23004KT CAVOK 28/22 A2992=
201912091600 METAR MRLM 091600Z 03005KT CAVOK 28/22 A2992=
201912091700 METAR MRLM 091700Z 05004KT 9999 FEW025 BKN120 28/22 A2990=
201912091800 METAR MRLM 091800Z 05007KT 9999 FEW025 SCT130 29/23 A2986=
201912091900 METAR MRLM 091900Z 03007KT 9999 FEW025 SCT130 28/23 A2983=
201912092000 METAR MRLM 092000Z 02006KT 9999 FEW025 SCT130 29/24 A2981=
201912092100 METAR MRLM 092100Z 04006KT CAVOK 29/24 A2980=
201912092200 METAR MRLM 092200Z 04007KT CAVOK 28/24 A2980=
201912092300 METAR MRLM 092300Z 01007KT CAVOK 28/24 A2981=
201912100000 METAR MRLM 100000Z 36007KT CAVOK 28/23 A2983=
201912100100 METAR MRLM NIL=
201912100200 METAR MRLM NIL=
201912100300 METAR MRLM NIL=
201912100400 METAR MRLM NIL=
201912100500 METAR MRLM NIL=
201912100600 METAR MRLM NIL=
201912100700 METAR MRLM NIL=
201912100800 METAR MRLM NIL=
201912100900 METAR MRLM NIL=
201912101000 METAR MRLM NIL=
201912101100 METAR MRLM NIL=
201912101200 METAR MRLM 101200Z 24004KT 9999 FEW015 SCT200 23/22 A2987=
201912101300 METAR MRLM 101300Z 21005KT 9999 FEW015 SCT120 24/23 A2989=
201912101400 METAR MRLM 101400Z 21002KT 9999 FEW020 BKN120 26/23 A2991=
201912101500 METAR MRLM 101500Z 09003KT 9999 FEW020 SCT120 28/23 A2991=
201912101600 METAR MRLM 101600Z 09004KT 9999 FEW025 SCT120 28/23 A2991=
201912101700 METAR MRLM 101700Z 07004KT 9999 FEW025 SCT240 28/24 A2989=
201912101800 METAR MRLM 101800Z 05006KT CAVOK 29/25 A2986=
201912101900 METAR MRLM 101900Z 05005KT CAVOK 29/24 A2983=
201912102000 METAR MRLM 102000Z 06007KT CAVOK 29/24 A2981=
201912102100 METAR MRLM 102100Z 05010KT CAVOK 29/24 A2980=
201912102200 METAR MRLM 102200Z 05008KT CAVOK 29/23 A2980=
201912102300 METAR MRLM 102300Z 04004KT CAVOK 28/23 A2982=
201912110000 METAR MRLM 110000Z 23002KT CAVOK 25/24 A2983=
201912110100 METAR MRLM NIL=
201912110200 METAR MRLM NIL=
201912110300 METAR MRLM NIL=
201912110400 METAR MRLM NIL=
201912110500 METAR MRLM NIL=
201912110600 METAR MRLM NIL=
201912110700 METAR MRLM NIL=
201912110800 METAR MRLM NIL=
201912110900 METAR MRLM NIL=
201912111000 METAR MRLM NIL=
201912111100 METAR MRLM NIL=
201912111200 METAR MRLM 111200Z 22005KT 9999 FEW015 BKN100 22/21 A2988=
201912111300 METAR MRLM 111300Z 25005KT 9999 FEW020 BKN110 23/21 A2990=
201912111400 METAR MRLM 111400Z 26004KT CAVOK 25/23 A2993=
201912111500 METAR MRLM 111500Z 25003KT CAVOK 28/23 A2994=
201912111600 METAR MRLM 111600Z 25004KT CAVOK 29/23 A2992=
201912111700 METAR MRLM 111700Z 34007KT 9999 VCSH FEW020 BKN130 28/23
                        A2991=
201912111800 METAR MRLM 111800Z 35011KT 9999 FEW020 BKN130 27/24 A2990=
201912111900 METAR MRLM 111900Z 33006KT CAVOK 29/22 A2987=
201912112000 METAR MRLM 112000Z 35009KT CAVOK 28/24 A2985=
201912112100 METAR MRLM 112100Z 30003KT 9999 FEW020 BKN130 27/23 A2984=
201912112200 METAR MRLM 112200Z 00000KT 9999 SCT020 BKN110 27/23 A2986=
201912112300 METAR MRLM 112300Z 36009KT 9999 4000 N DZ SCT015 BKN100 25/23
                        A2987=
201912120000 METAR MRLM 120000Z 26007KT 9999 DZ FEW015 BKN100 24/23 A2987=
201912120100 METAR MRLM NIL=
201912120200 METAR MRLM NIL=
201912120300 METAR MRLM NIL=
201912120400 METAR MRLM NIL=
201912120500 METAR MRLM NIL=
201912120600 METAR MRLM NIL=
201912120700 METAR MRLM NIL=
201912120800 METAR MRLM NIL=
201912120900 METAR MRLM NIL=
201912121000 METAR MRLM NIL=
201912121100 METAR MRLM NIL=
201912121200 METAR MRLM 121200Z 23005KT 9999 FEW015 SCT130 23/22 A2989=
201912121300 METAR MRLM 121300Z 22005KT 9999 FEW012 SCT130 23/22 A2990=
201912121400 METAR MRLM 121400Z 20003KT 9999 4000NE RA SCT015 BKN120 24/23
                        A2993=
201912121500 METAR MRLM 121500Z 05003KT 9999 DZ SCT020 BKN120 24/22 A2995
                        RERA=
201912121600 METAR MRLM 121600Z 00000KT 9999 FEW025 BKN130 26/23 A2994
                        REDZ=
201912121700 METAR MRLM 121700Z 19004KT 9999 FEW030 BKN250 27/23 A2992=
201912121800 METAR MRLM 121800Z 23002KT CAVOK 30/24 A2988=
201912121900 METAR MRLM 121900Z 05005KT 9999 FEW030 BKN250 29/24 A2986=
201912122000 METAR MRLM 122000Z 05007KT CAVOK 29/24 A2984=
201912122100 METAR MRLM 122100Z 04008KT CAVOK 28/24 A2983=
201912122200 METAR MRLM 122200Z 03009KT CAVOK 28/24 A2983=
201912122300 METAR MRLM 122300Z 06007KT 9999 FEW025 BKN120 28/23 A2985=
201912130000 METAR MRLM 130000Z 21005KT 9999 FEW020 BKN110 27/23 A2986=
201912130100 METAR MRLM NIL=
201912130200 METAR MRLM NIL=
201912130300 METAR MRLM NIL=
201912130400 METAR MRLM NIL=
201912130500 METAR MRLM NIL=
201912130600 METAR MRLM NIL=
201912130700 METAR MRLM NIL=
201912130800 METAR MRLM NIL=
201912130900 METAR MRLM NIL=
201912131000 METAR MRLM NIL=
201912131100 METAR MRLM NIL=
201912131200 METAR MRLM 131200Z 23005KT CAVOK 21/20 A2987=
201912131300 METAR MRLM 131300Z 22004KT CAVOK 23/21 A2988=
201912131400 METAR MRLM 131400Z 22002KT CAVOK 27/22 A2990=
201912131500 METAR MRLM 131500Z 00000KT CAVOK 29/23 A2990=
201912131600 METAR MRLM 131600Z 06003KT CAVOK 29/23 A2990=
201912131700 METAR MRLM 131700Z 05004KT CAVOK 28/23 A2988=
201912131800 METAR MRLM 131800Z 05004KT CAVOK 28/23 A2986=
201912131900 METAR MRLM 131900Z 04003KT CAVOK 28/23 A2983=
201912132000 METAR MRLM 132000Z 01004KT CAVOK 28/23 A2980=
201912132100 METAR MRLM 132100Z 04004KT CAVOK 28/23 A2979=
201912132200 METAR MRLM 132200Z 36003KT 9999 FEW025 BKN200 28/23 A2979=
201912132300 METAR MRLM 132300Z 30002KT 9999 FEW025 BKN200 26/24 A2981=
201912140000 METAR MRLM 140000Z 29002KT 9999 FEW020 BKN200 25/23 A2982=
201912140100 METAR MRLM NIL=
201912140200 METAR MRLM NIL=
201912140300 METAR MRLM NIL=
201912140400 METAR MRLM NIL=
201912140500 METAR MRLM NIL=
201912140600 METAR MRLM NIL=
201912140700 METAR MRLM NIL=
201912140800 METAR MRLM NIL=
201912140900 METAR MRLM NIL=
201912141000 METAR MRLM NIL=
201912141100 METAR MRLM NIL=
201912141200 METAR MRLM 141200Z 24004KT CAVOK 20/19 A2986=
201912141300 METAR MRLM 141300Z 24004KT CAVOK 22/20 A2989=
201912141400 METAR MRLM 141400Z 22003KT CAVOK 26/21 A2990=
201912141500 METAR MRLM 141500Z 25002KT CAVOK 29/22 A2990=
201912141600 METAR MRLM 141600Z 06004KT 9999 FEW025 SCT220 27/22 A2991=
201912141700 METAR MRLM 141700Z 04007KT CAVOK 28/22 A2988=
201912141800 METAR MRLM 141800Z 02008KT CAVOK 29/23 A2986=
201912141900 METAR MRLM 141900Z 02008KT CAVOK 28/23 A2984=
201912142000 METAR MRLM 142000Z 02008KT CAVOK 28/23 A2982=
201912142100 METAR MRLM 142100Z 01006KT 9999 FEW025 28/23 A2981=
201912142200 METAR MRLM 142200Z 01005KT 9999 FEW025 27/23 A2981=
201912142300 METAR MRLM 142300Z 32002KT 9999 SCT020 SCT220 27/23 A2983=
201912150000 METAR MRLM 150000Z 23003KT 9999 SCT020 SCT200 24/23 A2984=
201912150100 METAR MRLM NIL=
201912150200 METAR MRLM NIL=
201912150300 METAR MRLM NIL=
201912150400 METAR MRLM NIL=
201912150500 METAR MRLM NIL=
201912150600 METAR MRLM NIL=
201912150700 METAR MRLM NIL=
201912150800 METAR MRLM NIL=
201912150900 METAR MRLM NIL=
201912151000 METAR MRLM NIL=
201912151100 METAR MRLM NIL=
201912151200 METAR MRLM 151200Z 22005KT CAVOK 20/19 A2990=
201912151300 METAR MRLM 151300Z 22004KT CAVOK 23/20 A2992=
201912151400 METAR MRLM 151400Z 22004KT CAVOK 26/22 A2993=
201912151500 METAR MRLM 151500Z 08003KT CAVOK 28/22 A2994=
201912151600 METAR MRLM 151600Z 08004KT CAVOK 28/22 A2994=
201912151700 METAR MRLM 151700Z 08005KT CAVOK 29/23 A2991=
201912151800 METAR MRLM 151800Z 06006KT CAVOK 29/23 A2989=
201912151900 METAR MRLM 151900Z 06006KT CAVOK 29/23 A2986=
201912152000 METAR MRLM 152000Z 07006KT CAVOK 29/23 A2985=
201912152100 METAR MRLM 152100Z 06005KT CAVOK 29/23 A2983=
201912152200 METAR MRLM 152200Z 07004KT 9999 FEW030 28/23 A2983=
201912152300 METAR MRLM 152300Z 10003KT 9999 SCT025 28/23 A2984=
201912160000 METAR MRLM 160000Z 00000KT 9999 BKN025 23/22 A2989=
201912160100 METAR MRLM NIL=
201912160200 METAR MRLM NIL=
201912160300 METAR MRLM NIL=
201912160400 METAR MRLM NIL=
201912160500 METAR MRLM NIL=
201912160600 METAR MRLM NIL=
201912160700 METAR MRLM NIL=
201912160800 METAR MRLM NIL=
201912160900 METAR MRLM NIL=
201912161000 METAR MRLM NIL=
201912161100 METAR MRLM NIL=
201912161200 METAR MRLM NIL=
201912161300 METAR MRLM NIL=
201912161400 METAR MRLM NIL=
201912161500 METAR MRLM NIL=
201912161600 METAR MRLM NIL=
201912161700 METAR MRLM NIL=
201912161800 METAR MRLM NIL=
201912161900 METAR MRLM NIL=
201912162000 METAR MRLM NIL=
201912162100 METAR MRLM NIL=
201912162200 METAR MRLM NIL=
201912162300 METAR MRLM NIL=
201912170000 METAR MRLM NIL=
201912170100 METAR MRLM NIL=
201912170200 METAR MRLM NIL=
201912170300 METAR MRLM NIL=
201912170400 METAR MRLM NIL=
201912170500 METAR MRLM NIL=
201912170600 METAR MRLM NIL=
201912170700 METAR MRLM NIL=
201912170800 METAR MRLM NIL=
201912170900 METAR MRLM NIL=
201912171000 METAR MRLM NIL=
201912171100 METAR MRLM NIL=
201912171200 METAR MRLM 171200Z 15002KT 9999 DZ FEW010 OVC090 24/23 A2985=
201912171300 METAR MRLM 171300Z 17002KT 9999 DZ FEW010 OVC090 24/23 A2987=
201912171400 METAR MRLM 171400Z 22003KT 9999 -DZ FEW010 BKN090 24/24 A2986=
201912171500 METAR MRLM 171500Z 29003KT 9999 -DZ FEW015 BKN090 25/24 A2985=
201912171600 METAR MRLM 171600Z 08002KT 9999 -DZ FEW015 BKN100 26/24 A2985=
201912171700 METAR MRLM 171700Z 01005KT 9999 -DZ FEW015 BKN100 27/24 A2983=
201912171800 METAR MRLM 171800Z 08002KT CAVOK 28/23 A2980=
201912171900 METAR MRLM 171900Z 01004KT CAVOK 28/23 A2976=
201912172000 METAR MRLM 172000Z 02005KT CAVOK 28/24 A2974=
201912172100 METAR MRLM 172100Z 02005KT CAVOK 28/23 A2973=
201912172200 METAR MRLM 172200Z 32003KT CAVOK 27/24 A2974=
201912172300 METAR MRLM 172300Z 00000KT 9999 FEW020 SCT120 BKN220 26/24
                        A2976=
201912180000 METAR MRLM 180000Z 22002KT 9999 FEW015 OVC200 25/24 A2978=
201912180100 METAR MRLM NIL=
201912180200 METAR MRLM NIL=
201912180300 METAR MRLM NIL=
201912180400 METAR MRLM NIL=
201912180500 METAR MRLM NIL=
201912180600 METAR MRLM NIL=
201912180700 METAR MRLM NIL=
201912180800 METAR MRLM NIL=
201912180900 METAR MRLM NIL=
201912181000 METAR MRLM NIL=
201912181100 METAR MRLM NIL=
201912181200 METAR MRLM 181200Z 21002KT CAVOK 22/22 A2980=
201912181300 METAR MRLM 181300Z 23002KT CAVOK 23/22 A2983=
201912181400 METAR MRLM 181400Z 22003KT CAVOK 25/23 A2985=
201912181500 METAR MRLM 181500Z 28002KT CAVOK 28/24 A2986=
201912181600 METAR MRLM 181600Z 09003KT CAVOK 28/24 A2985=
201912181700 METAR MRLM 181700Z 36008KT CAVOK 29/23 A2983=
201912181800 METAR MRLM 181800Z 36009KT CAVOK 29/23 A2980=
201912181900 METAR MRLM 181900Z 35009KT 9999 FEW020 BKN220 29/25 A2977=
201912182000 METAR MRLM 182000Z 35010KT 9999 FEW020 BKN220 29/25 A2975=
201912182100 METAR MRLM 182100Z 36009KT CAVOK 28/24 A2975=
201912182200 METAR MRLM 182200Z 34005KT 9999 FEW020 BKN220 28/25 A2977=
201912182300 METAR MRLM 182300Z 32005KT 9999 FEW015 BKN200 27/24 A2978=
201912190000 METAR MRLM 190000Z 26003KT 9999 FEW015 BKN200 26/24 A2979=
201912190100 METAR MRLM NIL=
201912190200 METAR MRLM NIL=
201912190300 METAR MRLM NIL=
201912190400 METAR MRLM NIL=
201912190500 METAR MRLM NIL=
201912190600 METAR MRLM NIL=
201912190700 METAR MRLM NIL=
201912190800 METAR MRLM NIL=
201912190900 METAR MRLM NIL=
201912191000 METAR MRLM NIL=
201912191100 METAR MRLM NIL=
201912191200 METAR MRLM 191200Z 24004KT 8000 DZ BKN015 23/22 A2982=
201912191300 METAR MRLM 191300Z 15005KT 9999 DZ BKN020 23/22 A2985=
201912191400 METAR MRLM 191400Z 13003KT 5000 DZ BKN020 23/22 A2990=
201912191500 METAR MRLM 191500Z 23008KT 9999 DZ SCT020 BKN110 24/23 A2989=
201912191600 METAR MRLM 191600Z 24004KT 9999 -DZ FEW025 BKN120 26/24 A2986=
201912191700 METAR MRLM 191700Z 04007KT 9999 BKN025 27/24 A2985=
201912191800 METAR MRLM 191800Z 10004KT 9999 5000N DZ BKN020 27/23 A2984=
201912191900 METAR MRLM 191900Z 13005KT 9999 SCT020 BKN110 27/24 A2981
                        REDZ=
201912192000 METAR MRLM 192000Z 30004KT 9999 FEW030 BKN130 27/24 A2979=
201912192100 METAR MRLM 192100Z 31004KT CAVOK 28/23 A2979=
201912192200 METAR MRLM 192200Z 30005KT CAVOK 27/24 A2978=
201912192300 METAR MRLM 192300Z 00000KT CAVOK 27/25 A2979=
201912200000 METAR MRLM 200000Z 27003KT CAVOK 26/23 A2983=
201912200100 METAR MRLM NIL=
201912200200 METAR MRLM NIL=
201912200300 METAR MRLM NIL=
201912200400 METAR MRLM NIL=
201912200500 METAR MRLM NIL=
201912200600 METAR MRLM NIL=
201912200700 METAR MRLM NIL=
201912200800 METAR MRLM NIL=
201912200900 METAR MRLM NIL=
201912201000 METAR MRLM NIL=
201912201100 METAR MRLM NIL=
201912201200 METAR MRLM 201200Z 22005KT 9999 FEW015 BKN110 23/23 A2986=
201912201300 METAR MRLM 201300KT 00000KT 9999 FEW015 BKN110 24/23 A2987=
201912201400 METAR MRLM 201400KT 26003KT 9999 FEW015 BKN130 26/24 A2990=
201912201500 METAR MRLM 201500KT 29005KT 9999 FEW020 BKN130 27/24 A2990=
201912201600 METAR MRLM 201600KT 26004KT CAVOK 27/24 A2988=
201912201700 METAR MRLM 201700Z 02006KT CAVOK 29/24 A2985=
201912201800 METAR MRLM 201800Z 01008KT CAVOK 29/25 A2981=
201912201900 METAR MRLM 201900Z 01008KT CAVOK 29/24 A2980=
201912202000 METAR MRLM 202000Z 01005KT 9999 FEW025 SCT130 29/24 A2979=
201912202100 METAR MRLM 202100Z 33009KT 9999 FEW020 SCT120 29/24 A2979=
201912202200 METAR MRLM 202200Z 31005KT 9999 SCT020 SCT120 27/25 A2980=
201912202300 METAR MRLM 202300Z 31003KT 9999 VCSH SCT020 SCT120 27/25
                        A2981=
201912210000 METAR MRLM 210000Z 18002KT 9999 VCSH SCT015TCU SCT110 26/25
                        A2982=
201912210100 METAR MRLM NIL=
201912210200 METAR MRLM NIL=
201912210300 METAR MRLM NIL=
201912210400 METAR MRLM NIL=
201912210500 METAR MRLM NIL=
201912210600 METAR MRLM NIL=
201912210700 METAR MRLM NIL=
201912210800 METAR MRLM NIL=
201912210900 METAR MRLM NIL=
201912211000 METAR MRLM NIL=
201912211100 METAR MRLM NIL=
201912211200 METAR MRLM 211200Z 24002KT 9999 VCSH FEW015 BKN090 23/23
                        A2986=
201912211300 METAR MRLM 211300Z 24002KT 9999 VCSH FEW015 BKN090 23/23
                        A2987=
201912211400 METAR MRLM 211400Z 31004KT 9999 VCSH SCT015 BKN090 25/23
                        A2988=
201912211500 METAR MRLM 211500Z 28004KT 9999 SCT015 BKN090 25/24 A2989=
201912211600 METAR MRLM 211600Z 30002KT 9999 DZ FEW015 OVC090 26/24 A2990=
201912211700 METAR MRLM 211700Z 31007KT 9999 -DZ FEW020 OVC100 26/24 A2988=
201912211800 METAR MRLM 211800Z 32006KT 9999 -DZ FEW020 BKN100 27/24 A2986=
201912211900 METAR MRLM 211900Z 32008KT 9999 FEW020 BKN100 27/24 A2981
                        REDZ=
201912212000 METAR MRLM 212000Z 32009KT 9999 FEW020 BKN110 27/24 A2980=
201912212100 METAR MRLM 212100Z 31005KT 9999 FEW020 BKN110 27/24 A2979=
201912212200 METAR MRLM 212200Z 31006KT 9999 FEW020 BKN110 26/24 A2979=
201912212300 METAR MRLM 212300Z 31005KT 9999 FEW020 BKN110 26/24 A2980=
201912220000 METAR MRLM 220000Z 31005KT 9999 FEW015 BKN100 26/24 A2980=
201912220100 METAR MRLM NIL=
201912220200 METAR MRLM NIL=
201912220300 METAR MRLM NIL=
201912220400 METAR MRLM NIL=
201912220500 METAR MRLM NIL=
201912220600 METAR MRLM NIL=
201912220700 METAR MRLM NIL=
201912220800 METAR MRLM NIL=
201912220900 METAR MRLM NIL=
201912221000 METAR MRLM NIL=
201912221100 METAR MRLM NIL=
201912221200 METAR MRLM 221200Z 27007KT 8000 DZ SCT010 OVC080 24/23 A2986=
201912221300 METAR MRLM 221300Z 26006KT 8000 +DZ SCT010 OVC080 24/23 A2989=
201912221400 METAR MRLM 221400Z 23006KT 9999 SCT010 BKN080 23/22 A2990
                        REDZ=
201912221500 METAR MRLM 221500Z 24005KT 9999 VCSH FEW015 OVC090 25/23
                        A2990=
201912221600 METAR MRLM 221600Z 25005KT 9999 FEW015 BKN090 27/24 A2987=
201912221700 METAR MRLM 221700Z 33003KT 9999 FEW015 BKN090 28/24 A2985=
201912221800 METAR MRLM 221800Z 07002KT 9999 SCT020 BKN100 28/24 A2984=
201912221900 METAR MRLM 221900Z 34007KT 7000 DZ VCSH SCT010 OVC080 26/24
                        A2983=
201912222000 METAR MRLM 222000Z 29006KT 5000 +DZ FEW015 OVC070 24/23 A2981=
201912222100 METAR MRLM 222100Z 24005KT 9999 DZ FEW015 OVC080 23/23 A2978=
201912222200 METAR MRLM 222200Z 27003KT 9999 -DZ FEW015 OVC080 24/23 A2980=
201912222300 METAR MRLM 222300Z 25003KT 9999 FEW015 BKN080 24/23 A2982=
201912230000 METAR MRLM 230000Z 28003KT 9999 SCT010 BKN070 24/23 A2984=
201912230100 METAR MRLM NIL=
201912230200 METAR MRLM NIL=
201912230300 METAR MRLM NIL=
201912230400 METAR MRLM NIL=
201912230500 METAR MRLM NIL=
201912230600 METAR MRLM NIL=
201912230700 METAR MRLM NIL=
201912230800 METAR MRLM NIL=
201912230900 METAR MRLM NIL=
201912231000 METAR MRLM NIL=
201912231100 METAR MRLM NIL=
201912231200 METAR MRLM 231200Z 23004KT 9999 VCSH FEW015 BKN110 23/22
                        A2985=
201912231300 METAR MRLM 231300Z 00000KT 9999 FEW020 BKN130 24/23 A2988=
201912231400 METAR MRLM 231400Z 23004KT 9999 FEW020 BKN130 27/23 A2990=
201912231500 METAR MRLM 231500Z 31005KT 9999 BKN020 26/23 A2991=
201912231600 METAR MRLM 231600Z 31005KT 8000 +DZ SCT020 BKN100 24/23 A2992=
201912231700 METAR MRLM 231700Z 29004KT 9999 DZ BKN020 24/24 A2991=
201912231800 METAR MRLM 231800Z 26005KT 8000 +DZ SCT015 BKN090 24/24 A2989=
201912231900 METAR MRLM 231900Z 04004KT 2000 RA BKN015 24/23 A2987=
201912232000 METAR MRLM 232000Z 20003KT 5000 +DZ SCT020 BKN100 24/23 A2985
                        RERA=
201912232100 METAR MRLM 232100Z 27005KT 9999 DZ SCT020 BKN110 24/23 A2984=
201912232200 METAR MRLM 232200Z 25004KT 9999 -DZ FEW020 BKN120 24/23 A2983=
201912232300 METAR MRLM 232300Z 25004KT 9999 -DZ SCT020 BKN100 24/23 A2982=
201912240000 METAR MRLM 240000Z 22003KT 9999 FEW020 BKN100 24/23 A2985=
201912240100 METAR MRLM NIL=
201912240200 METAR MRLM NIL=
201912240300 METAR MRLM NIL=
201912240400 METAR MRLM NIL=
201912240500 METAR MRLM NIL=
201912240600 METAR MRLM NIL=
201912240700 METAR MRLM NIL=
201912240800 METAR MRLM NIL=
201912240900 METAR MRLM NIL=
201912241000 METAR MRLM NIL=
201912241100 METAR MRLM NIL=
201912241200 METAR MRLM 241200Z 28003KT 9999 -DZ FEW020 BKN100 23/22 A2986=
201912241300 METAR MRLM 241300Z 26006KT 9999 CAVOK 23/22 A2987=
201912241400 METAR MRLM 241400Z 27006KT CAVOK 26/23 A2990=
201912241500 METAR MRLM 241500Z 29007KT CAVOK 27/23 A2989=
201912241600 METAR MRLM 241600Z 30009KT CAVOK 28/23 A2989=
201912241700 METAR MRLM 241700Z 30008KT 9999 -DZ SCT020 BKN120 27/24 A2988=
201912241800 METAR MRLM 241800Z 31009KT 9999 BKN025 27/24 A2985=
201912241900 METAR MRLM 241900Z 29010KT 9999 SCT025 BKN130 26/23 A2982=
201912242000 METAR MRLM 242000Z 27009KT 9999 SCT02 BKN120 26/23 A2980=
201912242100 METAR MRLM 242100Z 29008KT 9999 SCT020 BKN130 27/23 A2979=
201912242200 METAR MRLM 242200Z 29006KT 9999 DZ SCT020 BKN130 26/23 A2980=
201912242300 METAR MRLM 242300Z 28007KT 9999 DZ BKN020 25/23 A2981=
201912250000 METAR MRLM 250000Z 28007KT 6000 DZ BKN015 24/23 A2984=
201912250100 METAR MRLM NIL=
201912250200 METAR MRLM NIL=
201912250300 METAR MRLM NIL=
201912250400 METAR MRLM NIL=
201912250500 METAR MRLM NIL=
201912250600 METAR MRLM NIL=
201912250700 METAR MRLM NIL=
201912250800 METAR MRLM NIL=
201912250900 METAR MRLM NIL=
201912251000 METAR MRLM NIL=
201912251100 METAR MRLM NIL=
201912251200 METAR MRLM 251200Z 26005KT 8000 DZ FEW006 OVC070 23/22 A2984=
201912251300 METAR MRLM 251300Z 25005KT 8000 DZ FEW006 OVC070 23/22 A2986=
201912251400 METAR MRLM 251400Z 27008KT 8000 DZ FEW006 OVC070 23/22 A2989=
201912251500 METAR MRLM 251500Z 28008KT 9999 -DZ FEW006 OVC070 23/22 A2991=
201912251600 METAR MRLM 251600Z 27008KT 9999 -DZ SCT010 OVC080 23/22 A2992=
201912251700 METAR MRLM 251700Z 26007KT 9999 -DZ SCT010 OVC080 23/22 A2990=
201912251800 METAR MRLM 251800Z 27007KT 9999 SCT010 OVC080 24/22 A2990
                        REDZ=
201912251900 METAR MRLM 251900Z 27007KT 9999 SCT010 OVC080 25/23 A2984=
201912252000 METAR MRLM 252000Z 27006KT 9999 SCT015 OVC090 25/22 A2982=
201912252100 METAR MRLM 252100Z 27005KT 9999 SCT015 OVC090 25/23 A2980=
201912252200 METAR MRLM 252200Z 29003KT 9999 SCT015 OVC090 25/23 A2980=
201912252300 METAR MRLM 252300Z 26003KT 9999 SCT015 OVC090 24/23 A2980=
201912260000 METAR MRLM 260000Z 26002KT 9999 SCT015 OVC100 24/23 A2982=
201912260100 METAR MRLM NIL=
201912260200 METAR MRLM NIL=
201912260300 METAR MRLM NIL=
201912260400 METAR MRLM NIL=
201912260500 METAR MRLM NIL=
201912260600 METAR MRLM NIL=
201912260700 METAR MRLM NIL=
201912260800 METAR MRLM NIL=
201912260900 METAR MRLM NIL=
201912261000 METAR MRLM NIL=
201912261100 METAR MRLM NIL=
201912261200 METAR MRLM 261200Z 26005KT 4000 +DZ OVC015 23/22 A2982=
201912261300 METAR MRLM 261300Z 27004KT 4000 +DZ OVC015 23/23 A2985=
201912261400 METAR MRLM 261400Z 25006KT 9999 -DZ SCT015 OVC070 23/23 A2988=
201912261500 METAR MRLM 261500Z 23006KT 6000 DZ FEW015 OVC070 24/23 A2989=
201912261600 METAR MRLM 261600Z 34004KT 8000 DZ FEW015 OVC070 24/23 A2991=
201912261700 METAR MRLM 261700Z 27003KT 9999 -DZ VCSH SCT015 OVC080 24/24
                        A2991=
201912261800 METAR MRLM 261800Z 28006KT 9999 VCSH SCT015 BKN080 25/23
                        A2987 REDZ=
201912261900 METAR MRLM 261900Z 28006KT 9999 FEW015 BKN080 26/24 A2982=
201912262000 METAR MRLM 262000Z 28006KT 9999 VCSH FEW015 BKN090 26/24
                        A2981=
201912262100 METAR MRLM 262100Z 27005KT 9999 FEW015 BKN090 26/24 A2980=
201912262200 METAR MRLM 262200Z 30003KT 9999 SCT015 BKN090 26/23 A2980=
201912262300 METAR MRLM 262300Z 29003KT 9999 SCT015 OVC090 26/24 A2982=
201912270000 METAR MRLM 270000Z 23003KT 9999 SCT010 OVC090 25/24 A2983=
201912270100 METAR MRLM NIL=
201912270200 METAR MRLM NIL=
201912270300 METAR MRLM NIL=
201912270400 METAR MRLM NIL=
201912270500 METAR MRLM NIL=
201912270600 METAR MRLM NIL=
201912270700 METAR MRLM NIL=
201912270800 METAR MRLM NIL=
201912270900 METAR MRLM NIL=
201912271000 METAR MRLM NIL=
201912271100 METAR MRLM NIL=
201912271200 METAR MRLM 271200Z 22005KT CAVOK 23/21 A2987=
201912271300 METAR MRLM 271300Z 23005KT CAVOK 24/21 A2989=
201912271400 METAR MRLM 271400Z 23006KT CAVOK 26/21 A2991=
201912271500 METAR MRLM 271500Z 10003KT CAVOK 28/23 A2990=
201912271600 METAR MRLM 271600Z 03006KT CAVOK 28/24 A2991=
201912271700 METAR MRLM 271700Z 36008KT CAVOK 28/22 A2990=
201912271800 METAR MRLM 271800Z 36009KT 9999 DZ BKN020 27/24 A2989=
201912271900 METAR MRLM 271900Z 05009KT 9999 DZ SCT020 BKN110 26/23 A2986=
201912272000 METAR MRLM 272000Z 12004KT 9999 FEW020 BKN120 26/23 A2983
                        REDZ=
201912272100 METAR MRLM 272100Z 18003KT 9999 FEW025 BKN130 27/23 A2983=
201912272200 METAR MRLM 272200Z 00000KT CAVOK 27/23 A2983=
201912272300 METAR MRLM 272300Z 04004KT 9999 FEW015 SCT130 26/23 A2984=
201912280000 METAR MRLM 280000Z 06003KT 9999 FEW015 SCT120 26/23 A2987=
201912280100 METAR MRLM NIL=
201912280200 METAR MRLM NIL=
201912280300 METAR MRLM NIL=
201912280400 METAR MRLM NIL=
201912280500 METAR MRLM NIL=
201912280600 METAR MRLM NIL=
201912280700 METAR MRLM NIL=
201912280800 METAR MRLM NIL=
201912280900 METAR MRLM NIL=
201912281000 METAR MRLM NIL=
201912281100 METAR MRLM NIL=
201912281200 METAR MRLM 281200Z 00000KT 2000 RA BKN015 23/23 A2987=
201912281300 METAR MRLM 281300Z 26007KT 2000 TSRA FEW015CB BKN080 23/23
                        A2989=
201912281400 METAR MRLM 281400Z 24004KT 3000 RA VCTS SCT020 BKN080 23/23
                        A2991=
201912281500 METAR MRLM 281500Z 24305KT 7000 DZ SCT020 BKN090 23/23 A2992
                        RERA=
201912281600 METAR MRLM 281600Z 22007KT 7000 +DZ BKN015 24/23 A2992=
201912281700 METAR MRLM 281700Z 22005KT 9999 -DZ BKN020 25/23 A2990=
201912281800 METAR MRLM 281800Z 23003KT 9999 DZ BKN020 25/23 A2988=
201912281900 METAR MRLM 281900Z 22003KT 9999 SCT020 BKN100 26/24 A2983
                        REDZ=
201912282000 METAR MRLM 282000Z 00000KT 9999 FEW025 BKN120 26/24 A2981=
201912282100 METAR MRLM 282100Z 07003KT 9999 FEW020 BKN110 26/24 A2980=
201912282200 METAR MRLM 282200Z 12002KT CAVOK 26/24 A2981=
201912282300 METAR MRLM 282300Z 22002KT CAVOK 26/25 A2982=
201912290000 METAR MRLM 290000Z 20002KT CAVOK 25/24 A2985=
201912290100 METAR MRLM NIL=
201912290200 METAR MRLM NIL=
201912290300 METAR MRLM NIL=
201912290400 METAR MRLM NIL=
201912290500 METAR MRLM NIL=
201912290600 METAR MRLM NIL=
201912290700 METAR MRLM NIL=
201912290800 METAR MRLM NIL=
201912290900 METAR MRLM NIL=
201912291000 METAR MRLM NIL=
201912291100 METAR MRLM NIL=
201912291200 METAR MRLM 291200Z 20003KT 9999 SCT020 BKN100 23/22 A2984=
201912291300 METAR MRLM 291300Z 00000KT 9999 4000N DZ SCT020 OVC100 23/22
                        A2986=
201912291400 METAR MRLM 291400Z 21008KT 9999 -DZ SCT020 OVC100 23/22 A2987=
201912291500 METAR MRLM 291500Z 24005KT CAVOK 24/23 A2988=
201912291600 METAR MRLM 291600Z 22006KT 9999 FEW030 BKN130 25/23 A2988=
201912291700 METAR MRLM 291700Z 22005KT CAVOK 26/24 A2987=
201912291800 METAR MRLM 291800Z 23004KT CAVOK 28/24 A2986=
201912291900 METAR MRLM 291900Z 08002KT 9999 FEW025 BKN140 30/23 A2982=
201912292000 METAR MRLM 292000Z 04005KT 9999 FEW025 SCT140 29/23 A2981=
201912292100 METAR MRLM 292100Z 01004KT 9999 FEW030 BKN140 28/23 A2990=
201912292200 METAR MRLM 292200Z 04003KT 9999 FEW030 BKN130 29/23 A2980=
201912292300 METAR MRLM 292300Z 00000KT CAVOK 28/23 A2981=
201912300000 METAR MRLM 300000Z 00000KT CAVOK 26/23 A2984=
201912300100 METAR MRLM NIL=
201912300200 METAR MRLM NIL=
201912300300 METAR MRLM NIL=
201912300400 METAR MRLM NIL=
201912300500 METAR MRLM NIL=
201912300600 METAR MRLM NIL=
201912300700 METAR MRLM NIL=
201912300800 METAR MRLM NIL=
201912300900 METAR MRLM NIL=
201912301000 METAR MRLM NIL=
201912301100 METAR MRLM NIL=
201912301200 METAR MRLM 301200Z 23005KT CAVOK 22/21 A2985=
201912301300 METAR MRLM 301300Z 23004KT CAVOK 23/22 A2987=
201912301400 METAR MRLM 301400Z 24002KT CAVOK 26/24 A2989=
201912301500 METAR MRLM 301500Z 00000KT 9999 FEW025TCU BKN220 28/23 A2991=
201912301600 METAR MRLM 301600Z 06003KT 9999 FEW025TCU BKN220 28/24 A2991=
201912301700 METAR MRLM 301700Z 03005KT 9999 FEW025 SCT120 BKN220 29/24
                        A2989=
201912301800 METAR MRLM 301800Z 02007KT CAVOK 28/24 A2988=
201912301900 METAR MRLM 301900Z 02005KT CAVOK 28/24 A2985=
201912302000 METAR MRLM 302000Z 03002KT CAVOK 28/24 A2982=
201912302100 METAR MRLM 302100Z 06003KT CAVOK 28/24 A2982=
201912302200 METAR MRLM 302200Z 06003KT CAVOK 27/24 A2982=
201912302300 METAR MRLM 302300Z 08002KT CAVOK 27/24 A2983=
201912310000 METAR MRLM 310000Z 21002KT CAVOK 25/24 A2984=
201912310100 METAR MRLM NIL=
201912310200 METAR MRLM NIL=
201912310300 METAR MRLM NIL=
201912310400 METAR MRLM NIL=
201912310500 METAR MRLM NIL=
201912310600 METAR MRLM NIL=
201912310700 METAR MRLM NIL=
201912310800 METAR MRLM NIL=
201912310900 METAR MRLM NIL=
201912311000 METAR MRLM NIL=
201912311100 METAR MRLM NIL=
201912311200 METAR MRLM 311200Z 24005KT CAVOK 22/21 A2989=
201912311300 METAR MRLM 311300Z 23005KT CAVOK 23/22 A2991=
201912311400 METAR MRLM 311400Z 23004KT CAVOK 26/23 A2994=
201912311500 METAR MRLM 311500Z 23004KT CAVOK 28/23 A2986=
201912311600 METAR MRLM 311600Z 20003KT 9999 SCT020 BKN130 28/23 A2998=
201912311700 METAR MRLM 311700Z 21003KT 9999 FEW020 BKN230 29/23 A2996=
201912311800 METAR MRLM 311800Z 11004KT 9999 FEW020 SCT140 28/23 A2993=
201912311900 METAR MRLM 311900Z 06004KT 9999 FEW020 SCT140 BKN230 29/23
                        A2991=
201912312000 METAR MRLM 312000Z 02006KT 9999 FEW020 BKN140 29/24 A2987=
201912312100 METAR MRLM 312100Z 03005KT CAVOK 28/24 A2986=
201912312200 METAR MRLM 312200Z 03004KT CAVOK 28/23 A2986=
201912312300 METAR MRLM 312300Z 04004KT CAVOK 27/23 A2987=

</pre>

</body>
</html>
