<!-- $Id$ -->
<!DOCTYPE HTML PUBLIC "-//W3C//DTD HTML 4.01 Transitional//EN">
<html>
<head>
  <title>Display metars</title>
  <meta http-equiv="Content-Type" content="text/html; charset=utf-8">
  <meta name="Author" content="G. Ballester">
  <meta name="GENERATOR" content="Quanta Plus">
  <meta name="robots" content="index,nofollow">
  <meta name="keywords" content="metar, speci, taf, weather reports">
  <meta name=viewport content="width=device-width, initial-scale=1">  
  <link rel="stylesheet" href="/ogimet.css">
  <link rel="stylesheet" type="text/css" href="//cdnjs.cloudflare.com/ajax/libs/cookieconsent2/3.0.3/cookieconsent.min.css" />
<script src="//cdnjs.cloudflare.com/ajax/libs/cookieconsent2/3.0.3/cookieconsent.min.js"></script>
<script>
window.addEventListener("load", function(){
window.cookieconsent.initialise({
  "palette": {
    "popup": {
      "background": "#eb6c44",
      "text": "#ffffff"
    },
    "button": {
      "background": "#f5d948"
    }
  },
  "theme": "classic",
  "position": "top",
  "content": {
    "message": "Las cookies de este sitio web se usan para personalizar el contenido y los anuncios, ofrecer funciones de redes sociales y analizar el tráfico. Ademas, compartimos el uso que haga del sitio web con nuestros partners de redes sociales, publicidad y análisis web, quienes pueden combinarla con otra información que les haya proporcionado o que hayan recopilado a partir del uso que haya hecho de sus servicios. Si continua navegando en estas páginas consideramos que acepta su uso. ",
    "dismiss": "Entendido",
    "link": "Saber más",
    "href": "/cookiespolicy.phtml"
  }
})});
</script>
</head>
<body>
<pre>
##########################################################
# Consulta realizada a 10/07/2020 23:37:53 UTC
# Periodo: desde 01/02/2006 00:00  a 28/02/2006 23:59  UTC
##########################################################

##########################################################
# MRLB, Liberia (Costa Rica)
# Indicativo sinóptico: 78774
# Latitud 10-37N. Longitud 085-26W. Altitud 80 m.
##########################################################

###################################
#  METAR/SPECI de MRLB
###################################
200602010000 METAR MRLB 010000Z 07015KT 9999 SCT030 BKN130 28720 A2979=
200602011200 METAR MRLB NIL=
200602011300 METAR MRLB 011300Z 05010KT 9999 FEW035 OVC250 26/18 A2980=
200602011400 METAR MRLB 011400Z 08014KT 9999 FEW035 OVC240 27/17 A2980=
200602011500 METAR MRLB 011500Z 09013KT 9999 FEW035 OVC240 28/17 A2982=
200602011600 METAR MRLB 011600Z 09014KT 9999 FEW040 OVC240 29/16 A2982=
200602011700 METAR MRLB 011700Z 05010KT CAVOK 31/17 A2981=
200602012000 METAR MRLB 012000Z 07015KT CAVOK 33/17 A2973=
200602012100 METAR MRLB 012100Z 07013KT CAVOK 32/16 A2972=
200602012200 METAR MRLB 012200Z 06015KT CAVOK 32/16 A2972=
200602012300 METAR MRLB 012300Z 07012KT CAVOK 31/16 A2973=
200602020000 METAR MRLB 020000Z 07009KT CAVOK 28/17 A2975=
200602020100 METAR MRLB 020100Z 07008KT CAVOK 27/17 A2976=
200602021200 METAR MRLB 021200Z=
200602021300 METAR MRLB 021300Z 00000KT CAVOK 22/19 A2983 RMK 8CI250=
200602021400 METAR MRLB 021400Z 00000KT CAVOK 26/19 A2984=
200602021500 METAR MRLB 021500Z 05003KT CAVOK 28/19 A2985=
200602021600 METAR MRLB 021600Z 10006KT CAVOK 31/19 A2984=
200602021700 METAR MRLB 021700Z 18004KT CAVOK 31/19 A2982=
200602021800 METAR MRLB 021800Z 14006KT 9999 FEW040 OVC250 33/19 A2980=
200602021900 METAR MRLB 021900Z 33005KT 9999 SCT040 SCT130 32/19 A2977=
200602022000 METAR MRLB 022000Z 27007KT 9999 SCT035 SCT130 32/19 A2974=
200602022100 METAR MRLB 022100Z 28010KT 9999 BKN035 SCT250 32/20 A2973=
200602022200 METAR MRLB 022200Z 29010KT 9999 BKN035 SCT250 30/19 A2972=
200602022300 METAR MRLB 022300Z 26009KT 9999 BKN035 29/19 A2974=
200602030000 METAR MRLB NIL=
200602030800 METAR MRLB NIL=
200602031300 METAR MRLB 031300Z 04005KT 9999 OVC025 23/21 A2981 RN DST
                        N=
200602031400 METAR MRLB 031400Z 04004KT 9999 SCT025 BKN130 25/22 A2983=
200602031500 METAR MRLB 031500Z 00000KT 9999 FEW025 OVC130 27/22 A2985=
200602031600 METAR MRLB 031600Z 34003KT 9999 SCT030 BKN130 30/20 A2985=
200602031700 METAR MRLB 031700Z 27004KT 9999 SCT030 BKN130 29/21 A2983=
200602031800 METAR MRLB 031800Z 29006KT 9999 SCT030 BKN250 30/21 A2982=
200602031900 METAR MRLB 031900Z 27008KT 9999 FEW035 OVC250 29/21 A2979=
200602032000 METAR MRLB 032000Z 27011KT 9999 FEW030 SCT130 BKN250 29/21
                        A2976 RN DST N TCU NE=
200602032100 METAR MRLB 032100Z 27010KT 9999 FEW030 BKN120 28/21 A2976
                        RN DST NE E=
200602032200 METAR MRLB 032200Z 26011KT 9999 FEW030 BKN120 27/22 A2975
                        RN DST E SE=
200602032300 METAR MRLB 032300Z 27009KT 9999 SCT025 BKN120 26/22 A2977
                        RN DST N E=
200602040000 METAR MRLB 040000Z 27004KT 9999 FEW025 OVC120 26/22 A2978
                        RN DST NE E=
200602041300 METAR MRLB 041300Z 00000KT 6000 VCFG FEW002 SCT010 BKN120
                        24/23 A2986=
200602041400 METAR MRLB 041400Z 32003KT 5000 DZ SCT008 BKN020 23/23 A2988=
200602041500 METAR MRLB 041500Z 24003KT 9999 SCT015 OVC120 24/23 A2990
                        RN DST N NE=
200602041600 METAR MRLB 041600Z 00000KT 9999 SCT020 OVC130 25/23 A2990
                        RN DST S=
200602041700 METAR MRLB 041700Z 26004KT 9999 SCT030 OVC130 26/24 A2989=
200602041800 METAR MRLB 041800Z 28009KT 9999 SCT035 OVC130 27/22 A2985
                        RN DST E=
200602041900 METAR MRLB 041900Z 29003KT 9999 SCT035 OVC120 25/22 A2983
                        RN DST E=
200602042000 METAR MRLB 042000Z 26003KT 9999 FEW035 BKN120 26/21 A2981=
200602042100 METAR MRLB 042100Z 26004KT 9999 FEW035 BKN130 27/21 A2979=
200602042200 METAR MRLB 042200Z 24005KT 9999 FEW035 OVC130 26/22 A2979=
200602042300 METAR MRLB 042300Z 29004KT 9999 FEW035 BKN130 26/22 A2980=
200602050000 METAR MRLB 050000Z 00000KT 9999 FEW030 OVC130 26/22 A2982=
200602050100 METAR MRLB 050100Z 00000KT 9999 FEW030 OVC130 25/23 A2983=
200602051300 METAR MRLB 051300Z 11004KT 9999 FEW030 BKN130 25/19 A2982=
200602051400 METAR MRLB 051400Z 35005KT 9999 FEW035 BKN130 26/20 A2984=
200602051600 METAR MRLB 051600Z 09011KT 9999 FEW040 SCT140 31/19 A2988=
200602051700 METAR MRLB 051700Z 08018KT 9999 FEW040 SCT250 31/18 A2986=
200602051800 METAR MRLB 051800Z 08017KT 9999 FEW040 SCT250 32/19 A2984=
200602051900 METAR MRLB 051900Z 09016KT 9999 SCT040 SCT250 33/18 A2981=
200602052000 METAR MRLB 052000Z 08018KT 9999 SCT040 SCT250 33/17 A2978=
200602052200 METAR MRLB 052200Z 08017KT 9999 FEW035 SCT140 31/19 A2978=
200602052300 METAR MRLB 052300Z 08012KT 9999 SCT035 SCT140 31/18 A2977=
200602060000 METAR MRLB 060000Z 08011KT 9999 SCT035 SCT250 27/19 A2981=
200602060100 METAR MRLB 060100Z 07013KT 9999 SCT035 BKN250 27/19 A2981=
200602061300 METAR MRLB 061300Z 28003KT CAVOK 22/20 A2984=
200602061400 METAR MRLB 061400Z 32004KT CAVOK 26/20 A2987=
200602061500 METAR MRLB 061500Z 27006KT CAVOK 28/20 A2988=
200602061600 METAR MRLB 061600Z NIL=
200602061700 METAR MRLB 061700Z 23008KT 9999 SCT035 31/20 A2985=
200602061800 METAR MRLB 061800Z 09013KT 9999 FEW035 SCT140 31/18 A2985=
200602061900 METAR MRLB 061900Z 10012KT 9999 FEW040 SCT140 32/19 A2983=
200602062000 METAR MRLB 062000Z 07015KT 9999 FEW040 BKN130 32/19 A2981=
200602062100 METAR MRLB 062100Z 09013KT 9999 FEW035 BKN130 30/20 A2979=
200602062200 METAR MRLB 062200Z 10014KT 9999 FEW040 BKN120 29/20 A2979=
200602062300 METAR MRLB 062300Z 08014KT 9999 FEW035 BKN120 28/20 A2980
                        RMK RN DST N=
200602070000 METAR MRLB 070000Z 07012KT 9999 FEW035 BKN120 27/19 A2981=
200602070100 METAR MRLB 070100Z 08014KT 9999 FEW035 BKN120 26/20 A2983=
200602071200 METAR MRLB 071200Z NIL=
200602071300 METAR MRLB 071300Z 06006KT 9999 SKC 24/17 A2985=
200602071400 METAR MRLB 071400Z 34004KT 9999 SKC 26/18 A2988=
200602071500 METAR MRLB 071500Z 04007KT 9999 SKC 29/19 A2989=
200602071600 METAR MRLB 071600Z 07006KT 9999 SKC 30/19 A2989=
200602071700 METAR MRLB 071700Z 10014KT CAVOK 31/17 A2988=
200602071800 METAR MRLB 071800Z 08013KT 9999 SKC 32/17 A2985=
200602071900 METAR MRLB 071900Z 08012KT 9999 SKC 32/16 A2982=
200602072000 METAR MRLB 072000Z 07013KT 9999 SKC 32/16 A2979=
200602072100 METAR MRLB 072100Z 08014KT CAVOK 33/14 A2978=
200602072200 METAR MRLB 072200Z 05015KT CAVOK 32/17 A2979=
200602072300 METAR MRLB 072300Z 05014KT 9999 FEW045 31/18 A2980=
200602080000 METAR MRLB 080000Z 03012KT 9999 FEW040 BKN250 29/19 A2981=
200602080100 METAR MRLB 080100Z 05011KT 9999 FEW040 BKN250 28/19 A2984=
200602081300 METAR MRLB 081300Z 07014KT 9999 SCT030 25/19 A2986=
200602081400 METAR MRLB 081400Z 06014KT 9999 BKN035 26/19 A2989 RN DST
                        NE=
200602081500 METAR MRLB 081500Z 06015KT 9999 SCT035 BKN130 27/19 A2990
                        RN DST NE=
200602081600 METAR MRLB 081600Z 06016KT 9999 SCT035 SCT130 28/18 A2989=
200602081700 METAR MRLB 081700Z 05017KT 9999 SCT035 29/18 A2987=
200602081800 METAR MRLB 081800Z 08014KT 9999 SCT035 31/17 A2984=
200602081900 METAR MRLB 081900Z 05013KT 9999 SCT35 31/18 A2982=
200602082000 METAR MRLB 082000Z 04015KT 9999 FEW035 SCT250 30/18 A2979=
200602082100 METAR MRLB 082100Z 05018KT 9999 SCT035 SCT250 30/17 A2977=
200602082200 METAR MRLB 082200Z 05020KT 9999 SCT035 BKN250 30/18 A2977=
200602082300 METAR MRLB 082300Z 06017KT 9999 SCT035 BKN250 30/18 A2979=
200602090000 METAR MRLB 090000Z 05016KT 9999 FEW035 SCT250 27/18 A2982=
200602090100 METAR MRLB 090100Z 07009KT 9999 SCT035 SCT250 25/18 A2983=
200602091300 METAR MRLB 091300Z 08014KT 9999 SCT035 25/18 A2989=
200602091400 METAR MRLB 091400Z 08016KT 9999 SCT035 27/18 A2991=
200602091500 METAR MRLB 091500Z 08021KT 9999 SCT035 28/18 A2992=
200602091600 METAR MRLB 091600Z 08022KT 9999 FEW035 29/18 A2991=
200602091700 METAR MRLB 091700Z 07022KT 9999 FEW035 31/18 A2990=
200602091800 METAR MRLB 091800Z 07020KT 9999 SCT035 31/18 A2987=
200602091900 METAR MRLB 091900Z 06021KT 9999 FEW035 32/18 A2985=
200602092000 METAR MRLB 092000Z 06020KT 9999 FEW035 32/19 A2982=
200602092100 METAR MRLB 092100Z 06021KT 9999 FEW035 30/19 A2981=
200602092200 METAR MRLB 092200Z 07019KT 9999 FEW035 30/18 A2980=
200602092300 METAR MRLB 092300Z 06019KT 9999 FEW040 29/19 A2981=
200602100000 METAR MRLB 100000Z 07015KT 9999 FEW040 SCT250 27/18 A2982=
200602100100 METAR MRLB 100100Z 08018KT 9999 FEW040 SCT250 26/18 A2984=
200602100500 METAR MRLB NIL=
200602101200 METAR MRLB 101200Z NIL=
200602101300 METAR MRLB 101300Z 08017KT CAVOK 26/17 A2988=
200602101400 METAR MRLB 101400Z 08016KT CAVOK 28/17 A2990=
200602101500 METAR MRLB 101500Z 07014KT CAVOK 30/17 A2991=
200602101600 METAR MRLB 101600Z 06018KT CAVOK 30/17 A2991=
200602101700 METAR MRLB 101700Z 07015KT CAVOK 32/16 A2989=
200602101800 METAR MRLB 101800Z 06014KT CAOK 33/16 A2987=
200602101900 METAR MRLB 101900Z 06017KT CAVOK 33/17 A2984=
200602102000 METAR MRLB 102000Z 06018KT 9999 FEW040 34/17 A2981=
200602102100 METAR MRLB 102100Z 06018KT 9999 FEW040 33/17 A2980=
200602102200 METAR MRLB 102200Z 06020KT 9999 FEW040 32/17 A2979=
200602102300 METAR MRLB 102300Z 07016KT CAVOK 31/16 A2980=
200602110000 METAR MRLB 110000Z 08012KT CAVOK 29/15 A2982=
200602110100 METAR MRLB 110100Z 08013KT CAVOK 27/16 A2983=
200602111300 METAR MRLB 111300Z 00000KT 9999 SKC 19/17 A2989=
200602111400 METAR MRLB 111400Z 00000KT 9999 SKC 23/18 A2991=
200602111500 METAR MRLB 111500Z 27004KT 9999 SKC 27/18 A2993=
200602111800 METAR MRLB 111800Z 11006KT CAVOK 33/13 A2988=
200602112000 METAR MRLB 112000Z 07009KT CAVOK 34/15 A2983=
200602112100 METAR MRLB 112100Z 08012KT CAVOK 34/15 A2981=
200602112200 METAR MRLB 112200Z 08011KT CAVOK 33/14 A2981=
200602112300 METAR MRLB 112300Z 06012KT 9999 SKC 31/14 A2982=
200602120000 METAR MRLB 120000Z 07010KT 9999 SKC 29/16 A2983=
200602120100 METAR MRLB 120100Z 08010KT 9999 SKC 28/17 A2986=
200602121300 METAR MRLB 121300Z 16004KT CAVOK 22/18 A2987=
200602121400 METAR MRLB 121400Z 03004KT CAVOK 23/18 A2990=
200602121500 METAR MRLB 121500Z 26006KT CAVOK 28/18 A2992=
200602121600 METAR MRLB 121600Z 25005KT CAVOK 31/17 A2991=
200602121700 METAR MRLB 121700Z 07014KT CAVOK 33/16 A2988=
200602121800 METAR MRLB 121800Z 08012KT CAVOK 34/16 2985=
200602121900 METAR MRLB 121900Z 07017KT CAVOK 34/15 A2982=
200602122000 METAR MRLB 122000Z 07018KT CAVOK 33/16 A2979=
200602122100 METAR MRLB 122100Z 08020KT CAVOK 34/17 A2978=
200602122200 METAR MRLB 122200Z 07018KT CAVOK 32/18 A2979=
200602122300 METAR MRLB 122300Z 07018KT CAVOK 30/19 A2981=
200602130000 METAR MRLB 130000Z 07017KT CAVOK 29/16 A2984=
200602130100 METAR MRLB 130100Z 08017KT CAVOK 28/18 A2985=
200602131300 METAR MRLB 131300Z 16005KT 9999 FEW035 SCT250 26/18 A2990=
200602131400 METAR MRLB 131400Z 25012KT 9999 FEW035 SCT250 27/18 A2991=
200602131500 METAR MRLB 131500Z 27011KT 9999 FEW035 BKN250 29/18 A2991=
200602131600 METAR MRLB 131600Z 30008KT 9999 FEW035 BKN250 31/17 A2990=
200602131700 METAR MRLB 131700Z 12017KT 9999 FEW035 SCT250 31/17 A2988=
200602131800 METAR MRLB 131800Z 06020KT 9999 FEW035 BKN250 30/17 A2989=
200602131900 METAR MRLB 131900Z 08019KT 9999 FEW040 SCT250 31/17 A2985=
200602132000 METAR MRLB 132000Z 09019KT 9999 FEW040 SCT250 31/17 A2982=
200602132100 METAR MRLB 132100Z 09020KT 9999 FEW040 SCT250 30/17 A2990=
200602132200 METAR MRLB 132200Z 09020KT 9999 FEW040 SCT250 29/17 A2979=
200602132300 METAR MRLB 132300Z 09009KT 9999 FEW035 28/16 A2983=
200602140000 METAR MRLB 140000Z 07016KT 9999 FEW035 SCT250 25/16 A2986=
200602140100 METAR MRLB 140100Z 13010KT 9999 FEW035 SCT250 25/16 A2987=
200602141300 METAR MRLB 141300Z 21008KT CAVOK 22/15 A2988=
200602141400 METAR MRLB 141400Z 20010KT CAVOK 26/16 A2989=
200602141500 METAR MRLB 141500Z 26010KT CAVOK 27/16 A2991=
200602141600 METAR MRLB 141600Z 28012KT CAVOK 29/16 A2990=
200602141700 METAR MRLB 141700Z 08019G30KT CAVOK 31/16 A2987=
200602141800 METAR MRLB 141800Z 08021KT CAVOK 31/16 A2986=
200602141900 METAR MRLB 141900Z 06020KT CAVOK 31/16 A2983=
200602142000 METAR MRLB 142000Z 08020KT CAVOK 31/16 A2982=
200602142100 METAR MRLB 142100Z 07018KT CAVOK 30/17 A2980=
200602142200 METAR MRLB 142200Z 07021G31KT CAVOK 29/17 A2981=
200602142300 METAR MRLB 142300Z 07020KT CAVOK 28/17 A2981=
200602150000 METAR MRLB 150000Z 09014KT 9999 SKC 26/17 A2981=
200602150100 METAR MRLB 150100Z 10013KT 9999 SKC 26/17 A2982=
200602151200 METAR MRLB 151200Z NIL=
200602151300 METAR MRLB 151300Z 29005KT CAVOK 23/18 A2984=
200602151400 METAR MRLB 151400Z 20008KT CAVOK 27/18 A2984=
200602151600 METAR MRLB 151600Z 09018KT CAVOK 31/18 A2983=
200602151700 METAR MRLB 151700Z 09018KT CAVOK 31/18 A2983=
200602151900 METAR MRLB 151900Z 09023KT CAVOK 32/17 A2977=
200602152000 METAR MRLB 152000Z 08022KT CAVOK 32/17 A2975=
200602152100 METAR MRLB 152100Z 08015KT CAVOK 32/17 A2973=
200602152200 METAR MRLB 152200Z 07023G36KT CAVOK 31/18 A2973=
200602152300 METAR MRLB 152300Z 08024KT CAVOK 29/18 A2975=
200602160000 METAR MRLB 160000Z 07017KT CAVOK 27/18 A2977=
200602160100 METAR MRLB 160100Z 08020G33KT CAVOK 27/19 A2978=
200602161200 METAR MRLB 161200Z NIL=
200602161300 METAR MRLB 161300Z 07017KT CAVOK 26/18 A2984=
200602161400 METAR MRLB 161400Z 07014KT CAVOK 28/18 A2986=
200602161500 METAR MRLB 161500Z 07015KT CAVOK 29/17 A2987=
200602161600 METAR MRLB 161600Z 06017KT 9999 FEW035 31/18 A2986=
200602161700 METAR MRLB 161700Z 05015KT 9999 SCT035 31/19 A2985=
200602161800 METAR MRLB 161800Z 06016KT 9999 SCT035 31/18 A2983=
200602161900 METAR MRLB 161900Z 05019KT 9999 SCT040 32/18 A2979=
200602162000 METAR MRLB 162000Z 07016KT 9999 SCT040 32/18 A2979=
200602162100 METAR MRLB 162100Z 06016KT 9999 SCT040 32/19 A2975=
200602162200 METAR MRLB 162200Z 07016KT 9999 FEW040 31/19 A2974=
200602162300 METAR MRLB 162300Z 08007KT 9999 FEW040 30/18 A2975=
200602170000 METAR MRLB 170000Z 08018KT CAVOK 28/19 A2976 RMK 2CI260=
200602171300 METAR MRLB 171300Z 08017KT CAVOK 27/18 A2982=
200602171400 METAR MRLB 171400Z 08016KT CAVOK 29/18 A2984=
200602171500 METAR MRLB 171500Z 07017KT CAVOK 30/18 A2985=
200602171600 METAR MRLB 171600Z 07022KT CAVOK 31/18 A2985=
200602171700 METAR MRLB 171700Z 06023KT CAVOK 32/18 A2984=
200602171800 METAR MRLB 171800Z 07020KT CAVOK 33/17 A2982=
200602171900 METAR MRLB 171900Z 08017KT CAVOK 33/18 A2980=
200602172000 METAR MRLB 172000Z 07019KT CAVOK 33/17 A2978=
200602172100 METAR MRLB 172100Z 08018KT CAVOK 32/18 A2976=
200602172200 METAR MRLB 172200Z 08019KT CAVOK 31/17 A2976=
200602172300 METAR MRLB 172300Z 08021KT CAVOK 31/18 A2976=
200602180000 METAR MRLB 180000Z 08016KT CAVOK 28/18 A2978=
200602180100 METAR MRLB 180100Z 07020KT CAVOK 27/18 A2979 RMX 3CI250=
200602181300 METAR MRLB 181300Z 03008KT 9999 SKC 25/17 A2986=
200602181400 METAR MRLB 181400Z 08016KT CAVOK 29/17 A2980=
200602181500 METAR MRLB 181500Z 08017KT CAVOK 30/18 A2987=
200602181600 METAR MRLB 181600Z 07023KT 9999 FEW040 30/19 A2987=
200602181700 METAR MRLB 181700Z 07025KT CAVOK 32/18 A2986=
200602181800 METAR MRLB 181800Z 07023KT CAVOK 32/18 A2983=
200602181900 METAR MRLB 181900Z 07024G35KT CAVOK 32/18 A2998=
200602182000 METAR MRLB 182000Z 08022KT CAVOK 32/17 A2977=
200602182100 METAR MRLB 182100Z 08021KT 9999 SKC 32/17 A2976=
200602182200 METAR MRLB 182200Z 07023KT 9999 SKC 31/19 2975=
200602182300 METAR MRLB 182300Z 08019KT 9999 SKC 29/18 A2976=
200602190000 METAR MRLB 190000Z 08022KT CAVOK 28/18 A2977=
200602190200 METAR MRLB 190200Z 07022G32KT CAVOK 27/19 A2979=
200602191300 METAR MRLB 191300Z 08005KT CAVOK 26/17 A2986=
200602191400 METAR MRLB 191400Z 06017KT CAVOK 28/18 A2988=
200602191500 METAR MRLB 191500Z 07028KT 9999 FEW035 29/19 A2987=
200602191600 METAR MRLB 191600Z 08026KT CAVOK 31/16 A2989=
200602191700 METAR MRLB 191700Z 07025G35KT 9999 SKC 31/17 A2989=
200602191800 METAR MRLB 191800Z 07029KT 9999 SKC 32/16 A2985=
200602191900 METAR MRLB 191900Z 06030KT 9999 FEW040 32/16A2983=
200602192000 METAR MRLB 192000Z 06028KT CAVOK 33/16 A2981=
200602192100 METAR MRLB 192100Z 0630KT CAVOK 32/13 A2980=
200602192200 METAR MRLB 192200Z 07025KT 9999 SKC 31/14 A2979=
200602192300 METAR MRLB 192300Z 06025KT 9999 SKC 30/15 A2980=
200602200000 METAR MRLB 200000Z 07021KT 9999 SKC 28/14 A2982=
200602201200 METAR MRLB 201200Z NIL=
200602201300 METAR MRLB 201300Z 08018KT CAVOK 26/16 A2985=
200602201400 METAR MRLB 201400Z 08017KT CAVOK 28/16 A2987=
200602201500 METAR MRLB 201500Z 08019KT CAVOK 30/15 A2988=
200602201600 METAR MRLB 201600Z 08018KT CAVOK 31/15 A2988=
200602201700 METAR MRLB 201700Z 07020KT CAVOK 32/14 A2986=
200602201800 METAR MRLB 201800Z 06021KT CAVOK 33/14 A2984=
200602201900 METAR MRLB 201900Z 06020KT CAVOK 33/15 A2982=
200602202000 METAR MRLB 202000Z 06018KT CAVOK 34/14 A2979=
200602202100 METAR MRLB 202100Z 06022KT CAVOK 33/15 A2977=
200602202200 METAR MRLB 202200Z 07020KT CAVOK 32/15 A2977=
200602202300 METAR MRLB 202300Z 06018KT CAVOK 30/15 A2978=
200602210000 METAR MRLB 210000Z 06017KT CAVOK 28/16 A2978=
200602210100 METAR MRLB 210100Z 07019KT CAVOK 27/17 A29/80=
200602211200 METAR MRLB 211200Z NIL=
200602211300 METAR MRLB 211300Z 08016KT CAVOK 08016KT 26/18 A2984=
200602211400 METAR MRLB 211400Z 08022KT CAVOK 27/18 A2986=
200602211500 METAR MRLB 211500Z 08020KT CAVOK 28/17 A2987=
200602211600 METAR MRLB 211600Z 08022KT CAVOK 30/16 A2988=
200602211700 METAR MRLB 211700Z 07021KT CAVOK 31/15 A2987=
200602211800 METAR MRLB 211800Z 08019KT CAVOK 32/14 A2984=
200602211900 METAR MRLB 211900Z 07021KT CAVOK 33/16 A2981=
200602212000 METAR MRLB 21200Z 07019KT CAVOK 32/15 A2978=
200602221200 METAR MRLB 221200Z NIL=
200602221300 METAR MRLB 221300Z 00000KT 9999 SKC 23/16 A2984=
200602221400 METAR MRLB 221400Z 13005KT CAVOK 28/18 A2986=
200602221500 METAR MRLB 221500Z 05010KT 9999 FEW040 30/18 A2987=
200602221600 METAR MRLB 221600Z 06016KT 9999 SCT040 31/18 A2987=
200602221700 METAR MRLB 221700Z 06015KT 9999 SCT040 32/18 A2986=
200602221800 METAR MRLB 221800Z 05020KT 9999 SCT040 33/18 A2983=
200602221900 METAR MRLB 221900Z 06018KT 9999 SCT040 33/18 A2980=
200602222000 METAR MRLB 222000Z 06020KT 9999 FEW040 33/17 A2977=
200602222100 METAR MRLB 222100Z 06020KT 9999 FEW040 33/17 A2976=
200602222200 METAR MRLB 222200Z 06021KT CAVOK 32/18 A2975=
200602222300 METAR MRLB 222300Z 06020KT 9999 SKC 31/14 A2994=
200602230000 METAR MRLB 230000Z 07012KT 9999 SKC 29/18 A2977=
200602230100 METAR MRLB 230100Z 07012KT 9999 SKC 28/18 A2978=
200602231300 METAR MRLB 231300Z 35007KT CAVOK 26/18 A2980=
200602231400 METAR MRLB 231400Z 09013KT CAVOK 29/17 A2980=
200602231500 METAR MRLB 231500Z 05014KT CAVOK 31/17 A2982=
200602231600 METAR MRLB 231600Z 08020KT CAVOK 31/17 A2983=
200602231700 METAR MRLB 231700Z 08022KT CAVOK CAVOK 32/17 A2982=
200602231800 METAR MRLB 231800Z 07018KT CAVOK 32/17 A2980=
200602231900 METAR MRLB 231900Z 08020KT CAVOK 34/17 A2977=
200602232000 METAR MRLB 232000Z 06018KT 9999 FEW030 BKN300 34/17 A2975=
200602232100 METAR MRLB 232100Z 09016KT CAVOK 34/16 A2973=
200602232200 METAR MRLB 232200Z 08017KT CAVOK 32/18 A2972=
200602232300 METAR MRLB 232300Z 08016KT CAVOK 31/17 A2973=
200602240000 METAR MRLB 240000Z 08014KT CAVOK 29/17 A2974=
200602240100 METAR MRLB 240100Z 09016KT CAVOK 28/19 A2976=
200602241300 METAR MRLB 241300Z 04008KT 9999 FEW030 24/19 A2981=
200602241400 METAR MRLB 241400Z 06014KT 9999 FEW035 28/19 A2983=
200602241500 METAR MRLB 241500Z 05009KT 9999 FEW035 31/19 A2984=
200602241600 METAR MRLB 241600Z 07019KT 9999 FEW035 SCT130 31/18 A2983=
200602241700 METAR MRLB 241700Z 08019KT 9999 FEW035 BKN130 31/18 A2983=
200602241900 METAR MRLB 241900Z 09022KT 9999 FEW035 SCT140 32/20 A2978=
200602242000 METAR MRLB 242000Z 08016KT 9999 FEW035 SCT140 32/19 A2976=
200602242100 METAR MRLB 242100Z 08022KT 9999 FEW035 SCT140 31/19 A2973=
200602242200 METAR MRLB 242200Z 07021KT 9999 FEW035 SCT140 30/19 A2974=
200602242300 METAR MRLB 242300Z 08019KT 9999 FEW035 BKN130 29/18 A2974=
200602250000 METAR MRLB 250000Z 08014KT 9999 FEW035 SCT130 28/18 A2976=
200602250100 METAR MRLB 250100Z 07019KT 9999 FEW035 SCT130 28/17 A2977=
200602251200 METAR MRLB 251200Z NIL=
200602251300 METAR MRLB 251300Z 07004KT CAVOK 27/18 A2982=
200602251400 METAR MRLB 251400Z 04009KT CAVOK 28/18 A2985=
200602251500 METAR MRLB 251500Z 09016KT CAVOK 29/18 A2983=
200602251600 METAR MRLB 251600Z 07020KT CAVOK 31/16 A2984=
200602251700 METAR MRLB 251700Z 08020KT CAVOK 32/16 A2983=
200602251800 METAR MRLB 251800Z 08022KT CAVOK 31/17 A2981=
200602251900 METAR MRLB 251900Z 07022KT CAVOK 32/15 A2979=
200602252000 METAR MRLB 252000Z 07021KT CAVOK 33/15 A2978=
200602252100 METAR MRLB 252100Z 07022KT CAVOK 32/15 A2976=
200602252200 METAR MRLB 252200Z 06021KT CAVOK 32/15 A2976=
200602252300 METAR MRLB 252300Z 08017KT CAVOK 30/17 A2976=
200602260000 METAR MRLB 260000Z 07016KT CAVOK 27/16 A2977=
200602260100 METAR MRLB 260100Z 08017KT CAVOK 27/15 A2978=
200602261200 METAR MRLB 261200Z NIL=
200602261300 METAR MRLB 261300Z 00000KT 9999 SKC 20/15 A2987=
200602261400 METAR MRLB 261400Z 00000KT 9999 SKC 23/16 A2989=
200602261500 METAR MRLB 261500Z 22004KT 9999 SKC 28/16 A2990=
200602261600 METAR MRLB 261600Z NIL=
200602261700 METAR MRLB 261700Z 10008KT 9999 SKC 33/14 A2987=
200602261800 METAR MRLB 261800Z 09011KT 9999 CAVOK 33/14 A2984=
200602261900 METAR MRLB 261900Z 09011KT 9999 FEW040 33/15 A2982=
200602262000 METAR MRLB 262000Z 08013KT 9999 FEW040 34/15 A2979=
200602262100 METAR MRLB 262100Z 07014KT 9999 FEW040 34/16 A2977=
200602262300 METAR MRLB 262300Z 07017KT CAVOK 31/18 A2979=
200602271100 METAR MRLB 271100 NIL=
200602271200 METAR MRLB 271200Z NIL=
200602271300 METAR MRLB 271300Z 03009KT CAVOK 25/17 A2988=
200602271400 METAR MRLB 271400Z 06013KT CAVOK 28/17 A2988=
200602271500 METAR MRLB 271500Z 06013KT CAVOK 30/16 A2988=
200602271600 METAR MRLB 271600Z 07022KT CAVOK 31/15 A2988 RMK 3AC130=
200602271700 METAR MRLB 271700Z 07023G34KT CAVOK 31/16 A2987=
200602271800 METAR MRLB 271800Z 06023KT 9999 FEW040 32/17 A2985=
200602271900 METAR MRLB 271900Z 07022KT 9999 FEW040 33/17 A2983=
200602272000 METAR MRLB 272000Z 06022KT 9999 FEW040 33/16 A2983=
200602272100 METAR MRLB 272100Z 07021KT CAVOK 32/17 A2980=
200602272200 METAR MRLB 272200Z 07019KT CAVOK 32/15 A2979=
200602272300 METAR MRLB 272300Z 07020KT CAVOK 30/16 A2979=
200602280000 METAR MRLB 280000Z 08012KT CAVOK 28/17 A2980=
200602281225 METAR MRLB 281225Z 09017KT CAVOK 26/17 A2983=
200602281300 METAR MRLB 281300Z 09016KT CAVOK 26/18 A2984=
200602281400 METAR MRLB 281400Z 08016KT CAVOK 28/16 A2985=
200602281500 METAR MRLB 281500Z 07020KT CAVOK 30/16 A2986=
200602281600 METAR MRLB 281600Z 08020KT CAVOK 31/17 A2986=
200602281700 METAR MRLB 281700Z 08020KT CAVOK 31/17 A2984=
200602281800 METAR MRLB 281800Z 08021KT CAVOK 31/17 A2981=
200602281900 METAR MRLB 281900Z 08016KT CAVOK 32/16 A2979=
200602282000 METAR MRLB 282000Z 07022KT CAVOK 33/15 A2977=
200602282100 METAR MRLB 282100Z 08017KT CAVOK 32/16 A2975=
200602282200 METAR MRLB 282200Z 08019KT CAVOK 31/14 A2975=
200602282300 METAR MRLB 282300Z 08017KT CAVOK 30/14 A2975=

</pre>

</body>
</html>
