<!-- $Id$ -->
<!DOCTYPE HTML PUBLIC "-//W3C//DTD HTML 4.01 Transitional//EN">
<html>
<head>
  <title>Display metars</title>
  <meta http-equiv="Content-Type" content="text/html; charset=utf-8">
  <meta name="Author" content="G. Ballester">
  <meta name="GENERATOR" content="Quanta Plus">
  <meta name="robots" content="index,nofollow">
  <meta name="keywords" content="metar, speci, taf, weather reports">
  <meta name=viewport content="width=device-width, initial-scale=1">  
  <link rel="stylesheet" href="/ogimet.css">
  <link rel="stylesheet" type="text/css" href="//cdnjs.cloudflare.com/ajax/libs/cookieconsent2/3.0.3/cookieconsent.min.css" />
<script src="//cdnjs.cloudflare.com/ajax/libs/cookieconsent2/3.0.3/cookieconsent.min.js"></script>
<script>
window.addEventListener("load", function(){
window.cookieconsent.initialise({
  "palette": {
    "popup": {
      "background": "#eb6c44",
      "text": "#ffffff"
    },
    "button": {
      "background": "#f5d948"
    }
  },
  "theme": "classic",
  "position": "top",
  "content": {
    "message": "Las cookies de este sitio web se usan para personalizar el contenido y los anuncios, ofrecer funciones de redes sociales y analizar el tráfico. Ademas, compartimos el uso que haga del sitio web con nuestros partners de redes sociales, publicidad y análisis web, quienes pueden combinarla con otra información que les haya proporcionado o que hayan recopilado a partir del uso que haya hecho de sus servicios. Si continua navegando en estas páginas consideramos que acepta su uso. ",
    "dismiss": "Entendido",
    "link": "Saber más",
    "href": "/cookiespolicy.phtml"
  }
})});
</script>
</head>
<body>
<pre>
##########################################################
# Consulta realizada a 24/07/2020 07:27:48 UTC
# Periodo: desde 01/04/2005 00:00  a 30/04/2005 23:59  UTC
##########################################################

##########################################################
# MROC, Alajuela / Juan Santamaria Int. Airport (Costa Rica)
# Indicativo sinóptico: 78762
# Latitud 10-00N. Longitud 084-13W. Altitud 920 m.
##########################################################

###################################
#  METAR/SPECI de MROC
###################################
200504010000 METAR MROC 010000Z 23004KT 9999 4000SW BR FEW005 BKN015 22/21
                        A2993 TEMPO 4000=
200504010100 METAR MROC 010100Z 240004KT 9999 FEW010 BKN020 22/21 A2995/
                        REMARK VIS SW 8KM DUE LOW ST/=
200504010200 METAR MROC 010200Z 23004KT 6000 BR FEW005 BKN012 21/20 A2998=
200504010300 METAR MROC 010300Z 26006KT 5000 BR FEW003 BKN012 21/19 A3000=
200504010400 METAR MROC 010400Z 00000KT 8000 FEW004 BKN015 21/19 A3001=
200504010500 METAR MROC 010500Z 00000KT 8000 FEW004 SCT015 21/19 A2999=
200504010600 METAR MROC 010600Z 00000KT 9999 SCT030 20/19 A2998=
200504010700 METAR MROC 010700Z 00000KT 9999 SCT030 20/19 A2997=
200504010800 METAR MROC 010800Z 00000KT 9999 20/18 A2994=
200504010900 METAR MROC 010900Z 07006KT CAVOK 20/17 A2993=
200504011000 METAR MROC 011000Z 10004KT CAVOK 20/18 A2994=
200504011100 METAR MROC 011100Z 09004KT CAVOK 20/17 A2995=
200504011200 METAR MROC 011200Z 09006KT 9999 SCT045 21/17 A2996=
200504011300 METAR MROC 011300Z 10007KT 9999 FEW040 SCT100 23/17 A2998
                        NOSIG=
200504011400 METAR MROC 011400Z 11012KT CAVOK 25/17 A3000 NOSIG=
200504011500 METAR MROC 011500Z 11007KT CAVOK 28/17 A3000 NOSIG=
200504011600 METAR MROC 011600Z 09004KT 9999 FEW040 BKN250 29/17 A2999
                        NOSIG=
200504011700 METAR MROC 011700Z 23007KT 9999 SCT040 SCT250 29/19 A2998
                        NOSIG=
200504011800 METAR MROC 011800Z 25012KT 9999 FEW030TCU SCT040 27/20 A2996
                        NOSIG=
200504011900 METAR MROC 011900Z 24012KT 9999 FEW025TCU SCT035 28/20 A2994
                        NOSIG=
200504012000 METAR MROC 012000Z 25012KT 9999 FEW025 SCT035 27/20 A2991
                        NOSIG=
200504012100 METAR MROC 012100Z 25012KT 9999 SCT025TCU SCT035 28/21 A2990=
200504012200 METAR MROC 012200Z 21007KT 9999 SCT015CB BKN025TCU 26/21
                        A2990 NOSIG=
200504012300 METAR MROC 012300Z 34004KT 9999 -DZ FEW025 BKN035 23/20 A2991
                        4000 DZVR FEW001 SCT008=
200504020000 METAR MROC 020000Z 21003KT 9999 SCT030 BKN100 23/21 A2993
                        NOSIG=
200504020100 METAR MROC 020100Z 30003KT 9999 FEW030 BKN100 22/21 A2994
                        TEMPO CAVOK=
200504020200 METAR MROC 020200Z 29003KT 9999 FEW035 BKN120 22/21 A2996
                        NOSIG=
200504020300 METAR MROC 020300Z 08006KT 9999 FEW015 SCT035 22/19 A2997=
200504020400 METAR MROC 020400Z 08004KT 9999 FEW035 21/18 A2997=
200504020500 METAR MROC 020500Z 04007KT 9999 FEW035 22/18 A2997=
200504020600 METAR MROC 020600Z 06006KT 9999 FEW035 20/17 A2996=
200504020700 METAR MROC 020700Z 05009KT 9999 FEW035 21/17 A2995=
200504020800 METAR MROC 020800Z 06009KT 9999 FEW035 SCT090 20/17 A2995=
200504020900 METAR MROC 020900Z 07007KT CAVOK 20/17 A2994=
200504021000 METAR MROC 021000Z 07009KT CAVOK 20/17 A2995=
200504021100 METAR MROC 021100Z 06009KT CAVOK 20/17 A2995=
200504021200 METAR MROC 021200Z 09006KT CAVOK 20/17 A2997=
200504021300 METAR MROC 021300Z 06007KT 9999 FEW040 BKN250 23/17 A2998
                        NOSIG=
200504021400 METAR MROC 021400Z 11011KT 9999 FEW035 BKN250 26/17 A3001
                        NOSIG=
200504021500 METAR MROC 021500Z 11010KT 9999 FEW035 SCT250 27/18 A3001
                        NOSIG=
200504021600 METAR MROC 021600Z 09007KT 9999 FEW035 BKN100 29/17 A3001
                        NOSIG=
200504021700 METAR MROC 021700Z 10006KT 9999 FEW035 SCT100 BKN250 31/16
                        A2999 NOSIG=
200504021800 METAR MROC 021800Z 06014KT 9999 FEW035 SCT100 32/14 A2997
                        NOSIG=
200504021900 METAR MROC 021900Z 06010KT 9999 SCT040 SCT250 31/14 A2993
                        NOSIG=
200504022000 METAR MROC 022000Z 24010KT 9999 SCT035 BKN250 28/21 A2992
                        NOSIG=
200504022100 METAR MROC 022100Z 27008KT 9999 FEW030 BKN280 31/17 A2988
                        NOSIG=
200504022200 METAR MROC 022200Z 26014KT 9999 FEW030 SCT040 BKN280 27/19
                        A2990 NOSIG=
200504022300 METAR MROC 022300Z 26004KT 9999 SCT030 BKN250 27/17 A2991
                        N0SIG=
200504030000 METAR MROC 030000Z 25007KT 9999 FEW030 SCT280 24/21 A2994
                        NOSIG=
200504030100 METAR MROC 030100Z 09008KT CAVOK 24/16 A2997 NOSIG=
200504030200 METAR MROC 030200Z 11011KT CAVOK 23/16 A2998=
200504030300 METAR MROC 030300Z 10010KT CAVOK 22/17 A3001 NOSIG=
200504030400 METAR MROC 030400Z 09008KT CAVOK 22/17 A3002 NOSIG=
200504030500 METAR MROC 030500Z 10011KT CAVOK 22/14 A3001 NOSIG=
200504030600 METAR MROC 030600Z 09009KT CAVOK 22/14 A2999 NOSIG=
200504030700 METAR MROC 030700Z 12010KT CAVOK 21/14 A2998=
200504030800 METAR MROC 030800Z 11012KT CAVOK 22/14 A2995=
200504030900 METAR MROC 030900Z 11016KT CAVOK 22/14 A2994=
200504031000 METAR MROC 031000Z 10015KT CAVOK 22/14 A2995=
200504031100 METAR MROC 031100Z 11015KT CAVOK 22/15 A2996=
200504031200 METAR MROC 031200Z 11018KT CAVOK 22/14 A2999=
200504031300 METAR MROC 031300Z 12016KT CAVOK 23/15 A3002 RMK HZ E=
200504031400 METAR MROC 031400Z 09013KT CAVOK 25/14 A3004 NOSIG=
200504031500 METAR MROC 031500Z 09015KT CAVOK 26/13 A3006 NOSIG=
200504031600 METAR MROC 031600Z 08018KT CAVOK 27/13 A3004 NOSIG=
200504031700 METAR MROC 031700Z 06023KT CAVOK 29/13 A3003 NOSIG=
200504031800 METAR MROC 031800Z 06024KT CAVOK 29/12 A3000 NOSIG=
200504031900 METAR MROC 031900Z 07020KT CAVOK 30/11 A2998 NOSIG=
200504032000 METAR MROC 032000Z 07018KT CAVOK 29/12 A2996=
200504032100 METAR MROC 032100Z 08015KT CAVOK 29/13 A2994=
200504032200 METAR MROC 032200Z 05018KT CAVOK 28/12 A2993=
200504032300 METAR MROC 032300Z 08015KT CAVOK 26/23 A2994=
200504040000 METAR MROC 040000Z 08011KT CAVOK 24/14 A2996=
200504040100 METAR MROC 040100Z 07012KT CAVOK 23/15 A2997/ NO SIG=
200504040200 METAR MROC 040200Z 11012KT CAVOK 22/16 A2999/ NO SIG=
200504040300 METAR MROC 040300Z 10013KT CAVOK 22/15 A2999 NOSIG=
200504040400 METAR MROC 040400Z 09016KT CAVOK 22/14 A2999 NOSIG=
200504040500 METAR MROC 040500Z 10014KT CAVOK 22/15 A2998 NOSIG=
200504040600 METAR MROC 040600Z 11019KT CAVOK 21/15 A2996 NOSIG=
200504040700 METAR MROC 040700Z 11013KT CAVOK 21/15 A2994 NOSIG=
200504040800 METAR MROC 040800Z 11014KT CAVOK 20/15 A2994 NOSIG=
200504040900 METAR MROC 040900Z 12015KT CAVOK 20/15 A2993 NOSIG=
200504041000 METAR MROC 041000Z 10012KT CAVOK 20/15 A2996 NOSIG=
200504041100 METAR MROC 041100Z 11015KT CAVOK 20/15 A2996 NOSIG=
200504041200 METAR MROC 041200Z 11016KT 9999 FEW040 21/15 A2996 NOSIG=
200504041300 METAR MROC 041300Z 11012KT CAVOK 22/16 A2999=
200504041400 METAR MROC 041400Z 10014KT CAVOK 25/15 A3000=
200504041600 METAR MROC 041600Z 09013KT CAVOK 28/15 A2999=
200504041700 METAR MROC 041700Z 10010G20KT CAVOK 29/15 A2999=
200504041800 METAR MROC 041800Z 10012KT 9999 FEW035 29/15 A2996=
200504041900 METAR MROC 041900Z 09013KT 9999 FEW035 29/15 A2994=
200504042000 METAR MROC 042000Z 10015KT 9999 FEW040 28/15 A2990=
200504042100 METAR MROC 042100Z 10010KT 9999 FEW035 27/16 A2990=
200504042200 METAR MROC 042200Z 09010KT 9999 FEW030 27/15 A2990=
200504042300 METAR MROC 042300Z 11014KT 9999 SCT028 25/16 A2990=
200504050000 METAR MROC 050000Z 10011KT 9999 SCT025 23/15 A2992=
200504050100 METAR MROC 050100Z 11013KT 9999 FEW035 22/14 A2994 TEMPO
                        CAVOK=
200504050200 METAR MROC 050200Z 11015KT CAVOK 22/15 A2995 NOSIG=
200504050300 METAR MROC 050300Z 10020KT CAVOK 21/14 A2996 NOSIG=
200504050400 METAR MROC 050400Z 10015KT CAVOK 22/14 A2996 NOSIG=
200504050500 METAR MROC 050500Z 10010KT CAVOK 22/16 A2995 NOSIG=
200504050600 METAR MROC 050600Z 11013KT CAVOK 22/16 A2994 NOSIG=
200504050900 METAR MROC 050900Z 10007KT CAVOK 20/17 A2991 NOSIG=
200504051000 METAR MROC 051000Z 12014KT 9999 FEW030 21/17 A2991 NOSIG=
200504051100 METAR MROC 051100Z 11017KT 9999 FEW025 BKN080 21/16 A2991
                        NOSIG=
200504051200 METAR MROC 051200Z 10015KT 9999 FEW025 BKN080 21/16 A2994
                        NOSIG=
200504051300 METAR MROC 051300Z 10012KT 9999 FEW025 BKN070 22/14 A2996=
200504051400 METAR MROC 051400Z 11017KT 9999 FEW025 BKN080 23/15 A2998=
200504051500 METAR MROC 051500Z 09014KT 9999 SCT025 BKN080 25/14 A2998=
200504051600 METAR MROC 051600Z 11018KT 9999 SCT025 BKN080 25/15 A2999=
200504051700 METAR MROC 051700Z 09016KT 9999 SCT025 BKN080 26/15 A3000=
200504051800 METAR MROC 051800Z 09014KT 9999 FEW030 SCT090 BKN250 25/15
                        A2997=
200504051900 METAR MROC 051900Z 11017KT 9999 FEW030 SCT100 BKN250 27/16
                        A2992=
200504052000 METAR MROC 052000Z 11014KT 9999 SCT030 BKN250 27/17 A2991=
200504052100 METAR MROC 052100Z 10012KT 9999 FEW030 BKN250 27/17 A2988
                        NOSIG=
200504052200 METAR MROC 052200Z 10015KT 9999 FEW030 OVC250 25/17 A2987
                        NOSIG=
200504052300 METAR MROC 052300Z 11012KT 9999 FEW025 OVC250 25/17 A2989
                        NOSIG=
200504060000 METAR MROC 060000Z 10012KT 9999 FEW025 BKN250 23/17 A2992
                        NOSIG=
200504060100 METAR MROC 060100Z 07009KT 9999 FEW030 BKN250 22/18 A2995
                        NOSIG=
200504060200 METAR MROC 060200Z 10009KT CAVOK 22/18 A2997=
200504060300 METAR MROC 060300Z 10017KT CAVOK 22/18 A2997=
200504060400 METAR MROC 060400Z 11013KT CAVOK 22/17 A2997=
200504060500 METAR MROC 060500Z 12016KT CAVOK 22/17 A2996=
200504060600 METAR MROC 060600Z 11017KT CAVOK 22/16 A2996=
200504060700 METAR MROC 060700Z 110113KT CAVOK 22/16 A2995=
200504060800 METAR MROC 060800Z 10015KT CAVOK 21/17 A2991=
200504061200 METAR MROC 061200Z 11014KT 9999 FEW025 SCT250 21/15 A2993=
200504061400 METAR MROC NIL=
200504061500 METAR MROC 061500Z 10019G29KT 9999 FEW030 SCT250 25/16 A2999
                        NOSIG=
200504061600 METAR MROC 061600Z 11019KT 9999 FEW030 SCT250 26/16 A2999
                        NOSIG=
200504061700 METAR MROC 061700Z 11020KT 9999 FEW035 BKN250 28/15 A2997
                        NOSIG=
200504061800 METAR MROC 061800Z 09015G25KT 9999 FEW030 BKN250 28/16 A2997
                        NOSIG=
200504061900 METAR MROC 061900Z 10015KT 9999 FEW035 BKN250 28/15 A2995
                        NOSIG=
200504062000 METAR MROC 062000Z 10013KT 9999 FEW035 BKN250 28/16 A2992=
200504062100 METAR MROC 062100Z 11014KT 9999 FEW035 BKN250 27/16 A2991=
200504062200 METAR MROC 062200Z 12014KT 9999 FEW035 BKN250 25/16 A2991
                        NOSIG=
200504062300 METAR MROC 062300Z 11011KT 9999 FEW035 OVC250 24/18 A2993
                        NOSIG=
200504070000 METAR MROC 070000Z 11014KT 9999 SCT035 OVC250 23/16 A2995
                        NOSIG=
200504070100 METAR MROC 070100Z 10012KT 9999 FEW040 OVC250 23/15 A2998=
200504070200 METAR MROC 070200Z 10012KT CAVOK 23/16 A2998=
200504070300 METAR MROC 070300Z 09014KT CAVOK 22/16 A3000=
200504070400 METAR MROC 070400Z 09014KT CAVOK 22/17 A3000=
200504070500 METAR MROC 070500Z 09007KT CAVOK 22/17 A3001=
200504070600 METAR MROC 070600Z 09006KT CAVOK 22/17 A2999=
200504070700 METAR MROC 070700Z 08004KT CAVOK 21/17 A2996=
200504070800 METAR MROC 070800Z 08007KT CAVOK 22/17 A2995=
200504070900 METAR MROC 070900Z 07008KT CAVOK 22/18 A2993=
200504071000 METAR MROC 071000Z 11012KT CAVOK 22/18 A2992=
200504071100 METAR MROC 071100Z 09004KT 9999 GFEW040 SCT100 21/17 A2995=
200504071200 METAR MROC 071200Z 10006KT 9999 FEW030 SCT100 BKN250 21/17
                        A2997=
200504071300 METAR MROC 071300Z 00000KT 9999 FEW030 SCT100 BKN250 24/17
                        A2999 RMK CB DST S NOSIG=
200504071400 METAR MROC 071400Z 11011KT 9999 FEW035 BKN250 26/18 A3001
                        NOSIG=
200504071500 METAR MROC 071500Z 12012KT 9999 FEW030 BKN250 27/18 A3001
                        NOSIG=
200504071600 METAR MROC 071600Z 11016KT 9999 FEW035 BKN250 28/18 A3000
                        NOSIG=
200504071700 METAR MROC 071700Z 11017KT 9999 FEW035 BKN250 28/18 A2999
                        NOSIG=
200504071800 METAR MROC 071800Z 11014KT 9999 FEW040 SCT100 BKN250 29/18
                        A2997 NOSIG=
200504071900 METAR MROC 071900Z 12016KT 9999 FEW035 SCT100 BKN250 30/17
                        A2993 NOSIG=
200504072000 METAR MROC 072000Z 09012KT 9999 SCT035 BKN100 28/18 A2992
                        NOSIG=
200504072100 METAR MROC 072100Z 11013KT 9999 FEW035 SCT120 BKN280 28/17
                        A2989 NOSIG=
200504072200 METAR MROC 072200Z 11012KT 9999 FEW030 SCT120 BKN280 27/18
                        A2988 NOSIG=
200504072300 METAR MROC 072300Z 10010KT 9999 FEW030 SCT130 BKN280 24/18
                        A2990 NOSIG=
200504080000 METAR MROC 080000Z 14005KT 9999 FEW020 SCT040 BKN280 24/18
                        A2992 TEMPO 24006KT=
200504080100 METAR MROC 080100Z 14006KT 9999 FEW035 BKN280 23/18 A2994
                        TEMPO CAVOK=
200504080200 METAR MROC 080200Z 08005KT 9999 FEW035 23/18 A2995 NOSIG=
200504080300 METAR MROC 080300Z 12012KT CAVOK 23/18 A2997 NOSIG=
200504080400 METAR MROC 080400Z 11016KT CAVOK 23/17 A2996 NOSIG=
200504080500 METAR MROC 080500Z 1011KT CAVOK 23/17 A2996 NOSIG=
200504080600 METAR MROC 080600Z 02004KT CAVOK 23/17 A2993 NOSIG=
200504080700 METAR MROC 080700Z 10007KT CAVOK 23/17 A2990 NOSIG=
200504080800 METAR MROC 080800Z 08005KT CAVOK 22/17 A2989=
200504080900 METAR MROC 080900Z 09003KT CAVOK 22/17 A2988=
200504081000 METAR MROC 081000Z 11011KT CAVOK 22/17 A2990 RMK LTNG DIST
                        S SSW=
200504081100 METAR MROC 081100Z 07006KT CAVOK 22/17 A2992 RMK LTNG DIST
                        S SSW=
200504081200 METAR MROC 081200Z 04008KT CAVOK 22/17 A2993=
200504081300 METAR MROC 081300Z 07005KT 9999 FEW030 OVC150 23/17 A2995
                        NOSIG=
200504081400 METAR MROC 081400Z 11011KT CAVOK 23/17 A2996 NOSIG=
200504081500 METAR MROC 081500Z 11011KT 9999 FEW040 BKN150 25/18 A2997
                        NOSIG=
200504081600 METAR MROC 081600Z 12008KT 9999 BKN040 SCTT250 26/18 A2997
                        NOSIG=
200504081700 METAR MROC 081700Z 10007KT 9999 BKN040 SCT250 27/18 A2997
                        NOSIG=
200504081800 METAR MROC 081800Z 13004KT 9999 BKN040 SCT150 27/18 A2995
                        NOSIG=
200504081900 METAR MROC 081900Z 25006KT 9999 FEW020 BKN040 26/20 A2994
                        NOSIG=
200504082000 METAR MROC 082000Z 28004KT 9999 BKN035 SCT150 26/19 A2992
                        NOSIG=
200504082100 METAR MROC 082100Z 29003KT 9999 SCT030 BKN150 24/19 A2990=
200504082200 METAR MROC 082200Z 32005KT 9000 FEW020TCU SCT100 BKN220 24/20
                        A2989 TCU SW=
200504082300 METAR MROC 082300Z 28004KT 9999 SCT035 BKN220 23/21 A2990=
200504090000 METAR MROC 090000Z 11004KT 9999 FEW025 SCT150 23/18 A2991=
200504090100 METAR MROC 090100Z 32003KT 9999 FEW020 SCT150 23/21 A2992=
200504090200 METAR MROC 090200Z 00000KT 9999 FEW030 SCT150 22/19 A2993=
200504090300 METAR MROC 090300Z 07005KT 9999 FEW030 22/18 A2994 NOSIG=
200504090400 METAR MROC 090400Z 00000KT 9999 FEW035 23/18 A2996 NOSIG=
200504090500 METAR MROC 090500Z 05009KT 9999 FEW035 22/18 A2996 NOSIG=
200504090600 METAR MROC 090600Z 07009KT CAVOK 22/18 A2994 NOSIG=
200504090700 METAR MROC 090700Z 06004KT CAVOK 22/17 A2992 NOSIG=
200504090800 METAR MROC 090800Z 08007KT CAVOK 22/18 A2990 NOSIG=
200504090900 METAR MROC 090900Z 07010KT CAVOK 22/18 A2988 NOSIG=
200504091000 METAR MROC 091000Z 07008KT CAVOK 22/17 A2989 NOSIG=
200504091100 METAR MROC 091100Z 08005KT CAVOK 22/18 A2990 NOSIG=
200504091200 METAR MROC 091200Z 06008KT CAVOK 21/18 A2992 NOSIG=
200504091300 METAR MROC 091300Z 09012KT 9999 FEW035 BKN150 23/18 A2994=
200504091400 METAR MROC 091400Z 11014KT CAVOK 26/18 A2996=
200504091500 METAR MROC 091500Z 11010KT 9999 FEW040 BKN170 27/18 A2997
                        TEMPO 24008KT=
200504091600 METAR MROC 091600Z 11012KT 9999 FEW040 BKN220 27/18 A2997=
200504091700 METAR MROC 091700Z 10014KT 9999 FEW035 SCT150 BKN250 27/18
                        A2995=
200504091800 METAR MROC 091800Z 12017KT 9999 SCT030TCU SCT120 28/18 A2993=
200504091900 METAR MROC 091900Z 11015KT 9999 SCT030CB SCT100 27/17 A2990
                        TEMPO 4000 TSRA=
200504092000 METAR MROC 092000Z 12010KT 9999 -DZ SCT030CB SCT100 26/16
                        A2988=
200504092100 METAR MROC 092100Z 09008KT 9999 SCT030 BKN130 25/18 A2987=
200504092200 METAR MROC 092200Z 11006KT 9999 SCT030 BKN130 24/18 A2988=
200504092300 METAR MROC 092300Z 11008KT 9999 SCT030 BKN130 23/18 A2990=
200504100000 METAR MROC 100000Z 11006KT 9999 SCT030 BKN130 23/17 A2991=
200504100100 METAR MROC 100100Z 08005KT 9999 FEW030 BKN130 22/17 A2983=
200504100200 METAR MROC 100200Z 10006KT CAVOK 22/17 A2994=
200504100300 METAR MROC 100300Z 10007KT CAVOK 22/16 A2994=
200504100400 METAR MROC 100400Z 06005KT CAVOK 21/16 A2995 NOSIG=
200504100500 METAR MROC 100500Z 09005KT CAVOK 21/16 A2995 NOSIG=
200504100700 METAR MROC 100700Z 10005KT CAVOK 21/16 A2990 NOSIG=
200504100800 METAR MROC 100800Z 07007KT CAVOK 20/15 A2990 NOSIG=
200504100900 METAR MROC 100900Z 07007KT CAVOK 20/15 A2989 NOSIG=
200504101000 METAR MROC 101000Z 07003KT CAVOK 19/15 A2990 NOSIG=
200504101100 METAR MROC 101100Z 07003KT CAVOK 19/15 A2991 NOSIG=
200504101200 METAR MROC 101200Z 05005KT CAVOK 19/15 A2994 NOSIG=
200504101300 METAR MROC 101300Z 04005KT CAVOK 23/15 A2996=
200504101400 METAR MROC 101400Z 04005KT CAVOK 27/15 A2997=
200504101500 METAR MROC 101500Z 29006KT CAVOK 28/16 A2997=
200504101600 METAR MROC 101600Z 22005KT 9999 FEW035 BKN250 29/15 A2995=
200504101700 METAR MROC 101700Z 26010KT 9999 FEW035 BKN250 30/18 A2994=
200504101800 METAR MROC 101800Z 25009KT 9999 SCT030 BKN250 29/19 A2992=
200504101900 METAR MROC 101900Z 25006KT 9999 SCT025TCU BKN250 30/18 A2988
                        BECMG 6000 VCSH=
200504102000 METAR MROC 102000Z 23008KT 7000 VCSH SCT020 BKN250 27/19
                        A2987 TEMPO 6000 -SHRA=
200504102100 METAR MROC 102100Z 10010KT 2000 TSRA SCT015CB BKN030 21/20
                        A2987 TEMPO 7000=
200504102200 METAR MROC 102200Z VRB03KT 9999 -RA FEW020 SCT030 BKN100
                        21/20 A2988 RETS NOSIG RMK VIS 8KMS
                        N NNW=
200504102300 METAR MROC 102300Z 02003KT 9999 FEW030 SCT045 BKN100 21/21
                        A2990 NOSIG=
200504110000 METAR MROC 110000Z 30003KT 9999 FEW025 OVC120 22/21 A2991
                        NOSIG=
200504110100 METAR MROC 110100Z 00000KT 9999 FEW035 BKN120 21/20 A2992
                        TEMPO CAVOK=
200504110200 METAR MROC 110200Z 01005KT 9999 FEW035 BKN150 22/20 A2992=
200504110300 METAR MROC 110300Z 00000KT CAVOK 22/20 A2993 BR ARND=
200504110400 METAR MROC 110400Z 00000KT 3000SW BR FEW001 SCT050 21/20
                        A2994=
200504110500 METAR MROC 110500Z 00000KT 9999 FEW005 SCT060 20/20 A2994
                        BR SW=
200504110600 METAR MROC 110600Z 04005KT CAVOK 21/19 A2993=
200504110700 METAR MROC 110700Z 00000KT 9999 FEW002 SCT100 20/19 A2992
                        BR ARND=
200504110800 METAR MROC 110800Z 00000KT 9999 FEW005 SCT100 20/19 A2991
                        BR SW=
200504111000 METAR MROC 111000Z 03003KT CAVOK 19/18 A2989=
200504111100 METAR MROC 111100Z 00000KT CAVOK 19/18 A2991=
200504111200 METAR MROC 111200Z 00000KT 9999 FEW035 BKN200 19/18 A2992=
200504111300 METAR MROC 111300Z 04004KT 9999 FEW035 BKN180 21/19 A2993
                        NOSIG=
200504111400 METAR MROC 111400Z 10004KT 9999 FEW030 BKN180 24/19 A2995
                        NOSIG=
200504111500 METAR MROC 111500Z 11008KT 9999 FEW025 SCT180 BKN250 25/19
                        A2996 BECMG 24008KT=
200504111600 METAR MROC 111600Z 11011KT 9999 FEW030 BKN220 26/19 A2995
                        BECMG 24008KT=
200504111700 METAR MROC 111700Z 13008KT 9999 SCT030 BKN220 27/18 A2994
                        NOSIG=
200504111800 METAR MROC 111800Z 25015KT 9999 FEW025TCU SCT035 BKN220 25/21
                        A2992 TEMPO 5000 VCSH=
200504111900 METAR MROC 111900Z 26010KT 9999 FEW020TCU SCT030 BKN230 25/21
                        A2990 NOSIG=
200504112000 METAR MROC 112000Z 24006KT 9999 FEW015TCU SCT025 BKN250 26/21
                        A2987 NOSIG=
200504112100 METAR MROC 112100Z 22005KT 9999 FEW025TCU SCT100 BKN250 27/21
                        A2986 HZ ARND NOSIG=
200504112200 METAR MROC 112200Z 20005KT 9999 FEW025 SCT100 BKN250 26/21
                        A2986 RMK HZ ARND NOSIG=
200504112300 METAR MROC 112300Z 25008KT 9999 FEW025 SCT030 BKN250 25/22
                        A2986 NOSIG=
200504120000 METAR MROC 120000Z 25005KT 9999 FEW006 SCT015 BKN030 23/22
                        A2988 NOSIG RMK HZ ARND=
200504120100 METAR MROC 120100Z 27004KT 9999 FEW015 SCT025 BKN100 22/21
                        A2990 NOSIG RMK HZ ARND=
200504120200 METAR MROC 120200Z 28004KT 8000 FEW005 SCT010 BKN025 22/21
                        A2991 NOSIG=
200504120300 METAR MROC 120300Z 00000KT 6000 VCFG SCT020 BKN250 22/21
                        A2994 NOSIG=
200504120400 METAR MROC 120400Z 00000KT 6000 VCFG FEW007 SCT020 BKN250
                        22/21 A2994 BECMG 10005KT 8000=
200504120500 METAR MROC 120500Z 00000KT 9999 SCT025 BKN250 22/21 A2994
                        NOSIG=
200504120600 METAR MROC 120600Z 00000KT 5000 BR FEW004 SCT020 BKN250 22/21
                        A2993 NOSIG=
200504120700 METAR MROC 120700Z 00000KT 6000 VCFG FEW005 SCT020 SCT250
                        22/22 A2991=
200504120800 METAR MROC 120800Z 00000KT 3000SW BR FEW002 SCT020 SCT250
                        22/21 A2990=
200504120900 METAR MROC 120900Z 00000KT 4000 BR FEW003 SCT020 SCT250 22/21
                        A2988=
200504121000 METAR MROC 121000Z 00000KT 5000 BR FEW004 SCT015 SCT250 22/21
                        A2989=
200504121100 METAR MROC 121100Z 00000KT 3000SW BR FEW002 BKN015 21/21
                        A2990=
200504121200 METAR MROC 121200Z 02004KT 7000 VCFG FEW002 BKN250 21/19
                        A2991=
200504121300 METAR MROC 121300Z 06005KT 9999 FEW040 OVC250 22/19 A2992
                        NOSIG=
200504121400 METAR MROC 121400Z 04005KT CAVOK 25/19 A2993 NOSIG RMK OVC250=
200504121500 METAR MROC 121500Z 12010KT 9999 FEW040 OVC250 27/19 A2993
                        NOSIG=
200504121600 METAR MROC 121600Z 11010KT 9999 FEW040 BKN250 29/17 A2992
                        24008 SCT020TCU=
200504121700 METAR MROC 121700Z 24011KT 9999 SCT040 BKN100 27/21 A2991
                        RMK HZ ARND=
200504121800 METAR MROC 121800Z 24008KT 9999 FEW025TCU SCT035 BKN250 27/21
                        A2990 NOSIG RMK HZ ARND=
200504121900 METAR MROC 1910Z 10012KT 9999 FEW015TCU SCT030 BKN250 28/17
                        A2992=
200504121910 METAR MROC 1910Z 10012KT 9999 FEW015TCU SCT030 BKN250 28/17
                        A2992=
200504122000 METAR MROC 122000Z 22006KT 9999 -RA FEW025TCU SCT035 BKN250
                        29/22 A2986 RMK HZ ARND=
200504122100 METAR MROC 122100Z 26007KT 7000 VCSH FEW020 SCT035 BKN250
                        26/22 A2984 NOSIG=
200504122200 METAR MROC 122200Z 34004KT 9999 SCT025 BKN250 24/21 A2984
                        NOSIG=
200504122300 METAR MROC 122300Z 27004KT 7000 VCFG FEW012 OVC250 23/22
                        A2986 NOSIG=
200504130000 METAR MROC 130000Z 23004KT 6000 VCFG BKN010 SCT250 23/22
                        A2987 NOSIG=
200504130100 METAR MROC 130100Z 28004KT 5000 2000NE VCFG SCT010 SCT030
                        23/22 A2990=
200504130200 METAR MROC 130200Z 23503KT 4000 2000NE VCFG SCT008 BKN015
                        22/21 A2991=
200504130300 METAR MROC 130300Z 00000KT 6000 VCFG SCT010 SCT020 22/21
                        A2992=
200504130400 METAR MROC 130400Z 08006KT 9999 FEW020 22/18 A2992 NOSIG=
200504130500 METAR MROC 130500Z 06006KT 9999 FEW030 21/18 A2992 NOSIG=
200504130600 METAR MROC 130600Z 08005KT 9999 FEW035 SCT250 21/17 A2992
                        NOSIG=
200504130700 METAR MROC 130700Z 10010KT 9999 FEW035 SCT250 21/17 A2990
                        NOSIG=
200504130800 METAR MROC 130800Z 07009KT 9999 FEW035 SCT250 21/17 A2989=
200504130900 METAR MROC 130900Z 05008KT 9999 FEW035 SCT250 20/17 A2988=
200504131000 METAR MROC 131000Z 08006KT CAVOK 20/17 A2989=
200504131100 METAR MROC 131100Z 02007KT CAVOK 21/17 A2990=
200504131200 METAR MROC 131200Z 09006KT CAVOK 21/17 A2991=
200504131300 METAR MROC 131300Z 03006KT CAVOK 23/17 A2994 NOSIG=
200504131400 METAR MROC 131400Z 10007KT CAVOK 26/17 A2995 NOSIG=
200504131500 METAR MROC 131500Z 11010KT 9999 FEW045 SCT300 28/17 A2995
                        NOSIG=
200504131600 METAR MROC 131600Z 10011KT 9999 FEW045 30/16 A2993 NOSIG=
200504131700 METAR MROC 131700Z 09003KT 9999 FEW040 SCT300 31/16 A2991=
200504131800 METAR MROC 131800Z 13008KT 9999 FEW040 30/15 A2988 NOSIG=
200504131900 METAR MROC 131900Z 08007KT 9999 FEW040 31/15 A2986 NOSIG=
200504132000 METAR MROC 132000Z 08007KT 9999 FEW040 32/14 A2983=
200504132100 METAR MROC 132100Z 12010KT 9999 FEW035 30/16 A2982=
200504132200 METAR MROC 132200Z 23010KT 9999 FEW025 SCT250 28/22 A2981=
200504132300 METAR MROC 132300Z 23009KT 9999 SCT025 SCT180 26/21 A2984=
200504140000 METAR MROC 140000Z 25005KT 9999 SCT025 SCT250 24/22 A2985=
200504140100 METAR MROC 140100Z 30004KT 9999 FEW035 SCT250 24/22 A2989
                        TEMPO CAVOK=
200504140200 METAR MROC 140200Z 31004KT 9999 FEW035 SCT250 23/22 A2991
                        NOSIG=
200504140300 METAR MROC 140300Z 08006KT 9999 FEW035 SCT250 22/20 A2992
                        NOSIG=
200504140400 METAR MROC 140400Z 10004KT 9999 FEW035 22/19 A2992 NOSIG=
200504140500 METAR MROC 140500Z 10007KT 9999 FEW035 22/18 A2993 NOSIG=
200504140600 METAR MROC 140600Z 09004KT 9999 FEW035 SCT120 22/19 A2992
                        NOSIG=
200504140700 METAR MROC 140700Z 00000KT 9999 FEW035 SCT120 22/19 A2991
                        NOSIG=
200504140800 METAR MROC 140800Z 05004KT 9999 FEW035 21/18 A2989 NOSIG=
200504140900 METAR MROC 140900Z 09007KT 9999 FEW035 22/18 A2989 NOSIG=
200504141000 METAR MROC 141000Z 02506KT 9999 FEW035 22/18 A2990 NOSIG=
200504141100 METAR MROC 141100Z 09004KT 9999 FEW035 21/18 A2991 NOSIG=
200504141200 METAR MROC 141200Z 06004KT 9999 FEW035 SCT250 22/18 A2992
                        NOSIG=
200504141400 METAR MROC 141400Z 10006KT 9999 FEW030 SCT250 24/18 A2994=
200504141500 METAR MROC 141500Z 10010KT 9999 FEW025 SCT250 27/18 A2994=
200504141600 METAR MROC 141600Z 11017KT 9999 FEW025 SCT250 27/18 A2993=
200504141700 METAR MROC 141700Z 11015G25KT 9999 SCT025 SCT250 26/17 A2993=
200504141900 METAR MROC 141900Z 13014KT 9999 SCT025 SCT100 28/18 A2988=
200504142000 METAR MROC 142000Z 10014KT 9999 SCT030 SCT150 29/18 A2986=
200504142100 METAR MROC 142100Z 10010KT 9999 SCT030 SCT110 28/18 A2984=
200504142200 METAR MROC 142200Z 11012KT 9999 SCT030 SCT110 27/18 A2985=
200504142300 METAR MROC 142300Z 11014KT 9999 FEW035 SCT250 25/15 A2986=
200504150000 METAR MROC 150000Z 11014KT 9999 FEW035 SCT250 24/15 A2987=
200504150100 METAR MROC 150100Z 11011KT 9999 FEW035 23/15 A2990=
200504150200 METAR MROC 150200Z 10013KT 9999 FEW035 23/15 A2991=
200504150300 METAR MROC 150300Z 10012KT CAVOK 23/16 A2993 NOSIG=
200504150400 METAR MROC 150400Z 11011KT CAVOK 22/16 A2994 NOSIG=
200504150500 METAR MROC 150500Z 07010KT CAVOK 22/16 A2993 NOSIG=
200504150600 METAR MROC 150600Z 07005KT CAVOK 22/14 A2992 NOSIG=
200504150700 METAR MROC 150700Z 04006KT CAVOK 21/14 A2989 NOSIG=
200504150800 METAR MROC 150800Z 05006KT CAVOK 22/13 A2988 NOSIG=
200504150900 METAR MROC 150900Z 05007KT CAVOK 21/13 A2987 NOSIG=
200504151000 METAR MROC 151000Z 08006KT CAVOK 21/14 A2987 NOSIG=
200504151100 METAR MROC 151100Z 06010KT CAVOK 21/12 A2989 NOSIG=
200504151200 METAR MROC 151200Z 06007KT CAVOK 21/13 A2990 NOSIG=
200504151300 METAR MROC 151300Z 11012KT CAVOK 23/14 A2991=
200504151400 METAR MROC 151400Z 11014KT CAVOK 25/14 A2994=
200504151500 METAR MROC 151500Z 11014KT CAVOK 27/14 A2995=
200504151600 METAR MROC 151600Z 09015KT CAVOK 28/12 A2994=
200504151700 METAR MROC 151700Z 09010KT CAVOK 29/13 A2994=
200504151800 METAR MROC 151800Z 09012KT CAVOK 30/13 A2991=
200504151900 METAR MROC 151900Z 08013KT CAVOK 30/15 A2988=
200504152000 METAR MROC 152000Z 10013KT 9999 FEW035 30/15 A2985=
200504152100 METAR MROC 152100Z 09016KT 9999 FEW040 SCT250 29/15 A2986
                        NOSIG=
200504152200 METAR MROC 152200Z 10012KT 9999 FEW035 SCT120 BKN250 27/16
                        A2987 NOSIG=
200504152300 METAR MROC 152300Z 11015KT 9999 FEW035 SCT120 BKN250 25/18
                        A2989 NOSIG=
200504160000 METAR MROC 160000Z 08010KT 9999 FEW030 SCT100 BKN250 25/18
                        A2991 NOSIG=
200504160100 METAR MROC 160100Z 12013KT 9999 FEW030 SCT250 23/17 A2992/
                        NO SIG=
200504160200 METAR MROC 160200Z 11012KT 9999 FEW035 23/17 A2993/ NO SIG=
200504160300 METAR MROC 160300Z 10014KT 9999 FEW035 SCT140 23/17 A2994/
                        NO SIG=
200504160400 METAR MROC 160400Z 11015KT 9999 FEW035 SCT140 23/17 A2993=
200504160500 METAR MROC 160500Z 11013KT 9999 FEW035 22/18 A2993=
200504160600 METAR MROC 160600Z 11016KT 9999 FEW035 23/17 A2992=
200504160700 METAR MROC 160700Z 11014KT 9999 FEW035 22/17 A2990=
200504160800 METAR MROC 160800Z 10015KT 9999 FEW035 22/17 A2987=
200504160900 METAR MROC 160900Z 11018KT 9999 FEW035 22/17 A2985=
200504161000 METAR MROC 161000Z 11023KT 9999 FEW035 22/17 A2987=
200504161100 METAR MROC 161100Z 11020KT 9999 FEW035 22/17 A2990=
200504161200 METAR MROC 161200Z 10020KT 9999 FEW030 SCT090 22/18 A2990=
200504161300 METAR MROC 161300Z 10014KT 9999 FEW025 BKN080 23/17 A2994
                        NOSIG=
200504161400 METAR MROC 161400Z 10011KT 9999 FEW025 BKN080 25/17 A2998
                        NOSIG=
200504161500 METAR MROC 161500Z 10016KT 9999 FEW025 BKN080 24/17 A2998
                        NOSIG=
200504161600 METAR MROC 161600Z 11020G30KT 9999 FEW030 BKN080 25/17 A2995
                        NOSIG=
200504161700 METAR MROC 161700Z 09018G28KT 9999 FEW030 BKN100 27/17 A2995
                        NOSIG=
200504161800 METAR MROC 161800Z 09019G29KT 9999 FEW030 BKN100 27/17 A2993
                        NOSIG=
200504161900 METAR MROC 161900Z 09020KT 9999 FEW030 BKN080 27/17 A2990
                        NOSIG=
200504162000 METAR MROC 162000Z 09017G27KT 9999 FEW030 BKN100 25/17 A2988
                        NOSIG=
200504162100 METAR MROC 162100Z 10018KT 9999 FEW035 BKN100 26/17 A2989
                        RMK DZ DST N/NE=
200504162200 METAR MROC 162200Z 09019KT 9999 SCT030 BKN100 25/17 A2987
                        RMK DZ DST N/NE=
200504162300 METAR MROC 162300Z 08017KT 9999 SCT030 BKN100 24/17 A2989
                        RMK RN DST N=
200504170000 METAR MROC 170000Z 10019KT 9999 SCT030 BKN100 24/16 A2992
                        RMK RN DST N/NE=
200504170100 METAR MROC 170100Z 08015KT CAVOK 24/17 A2995=
200504170200 METAR MROC 170200Z 10013KT CAVOK 23/17 A2996=
200504170300 METAR MROC 170300Z 10018KT CAVOK 23/17 A2998=
200504170400 METAR MROC 170400Z 10020G30KT CAVOK 22/18 A2998=
200504170500 METAR MROC 170500Z 10017KT CAVOK 23/18 A2998=
200504170600 METAR MROC 170600Z 10013KT CAVOK 22/17 A2998=
200504170700 METAR MROC 170700Z 10015G25KT CAVOK 21/16 A2996=
200504170800 METAR MROC 170800Z 10019KT CAVOK 21/16 A2993=
200504171000 METAR MROC 171000Z 04012KT CAVOK 22/17 A2996=
200504171115 METAR MROC 271115Z 06005KT 9999 FEW025 SCT120 19/17 A3001=
200504171200 METAR MROC 171200Z 10016KT 9999 FEW020 BKN180 22/17 A2994=
200504171300 METAR MROC 171300Z 10016KT 9999 FEW030 BKN250 22/17 A2995
                        RMK DZ DST N/NE=
200504171400 METAR MROC 171400Z 10013KT 9999 SCT030 BKN250 24/17 A2998
                        RMK RN DST N/NE=
200504171500 METAR MROC 171500Z 11019KT 9999 FEW030 BKN250 24/18 A2999
                        RMK DZ DST N/NE=
200504171600 METAR MROC 171600Z 09017KT 9999 FEW030 SCT100 BKN250 25/17
                        A2997 RMK RN DST N/NE=
200504171700 METAR MROC 171700Z 10016KT 9999 FEW030 SCT100 BKN250 26/18
                        A2997 RMK RN DST N/NE=
200504171800 METAR MROC 171800Z 11015KT 9999 SCT030 BKN250 28/18 A2996
                        RMK RN DST N/NE=
200504171900 METAR MROC 171900Z 10010KT 9999 SCT030 BKN100 28/18 A2991
                        RMK RN DST N/NE=
200504172000 METAR MROC 172000Z 11016KT 9999 SCT030 BKN100 28/18 A2989
                        RMK RN DST N/NE=
200504172100 METAR MROC 172100Z 11015KT 9999 FEW035 SCT090 26/18 A2988
                        NOSIG=
200504172200 METAR MROC 172200Z 10018KT 9999 FEW035 SCT090 24/17 A2988
                        NOSIG=
200504172300 METAR MROC 172300Z 11018KT 9999 FEW030 BKN090 24/17 A2992
                        NOSIG=
200504180000 METAR MROC 180000Z 10016KT 9999 FEW025 SCT090 23/17 A2995
                        NOSIG=
200504180100 METAR MROC 180100Z 10016KT 9999 FEW025 SCT090 22/17 A2998
                        NOSIG=
200504180200 METAR MROC 180200Z 11016KT 9999 FEW030 SCT100 23/18 A2998
                        NOSIG=
200504180300 METAR MROC 180300Z 11016KT 9999 FEW025 BKN080 23/18 A3000
                        NOSIG=
200504180400 METAR MROC 180400Z 11014KT 9999 FEW025 BKN080 23/18 A3000
                        NOSIG=
200504180500 METAR MROC 180500Z VRB03KT 9999 FEW025 BKN080 22/18 A2999
                        NOSIG=
200504180600 METAR MROC 180600Z 08005KT 9999 FEW030 BKN100 22/17 A2997
                        NOSIG=
200504180700 METAR MROC 180700Z 08012KT 9999 FEW030 SCT100 23/17 A2993
                        NOSIG=
200504180800 METAR MROC 180800Z 11014KT 9999 FEW025 SCT120 23/18 A2991=
200504180900 METAR MROC 180900Z 10014KT 9999 FEW025 SCT120 22/18 A2990=
200504181000 METAR MROC 181000Z 11014KT 9999 FEW025 SCT120 22/18 A2990=
200504181100 METAR MROC 181100Z 10012KT 9999 FEW025 SCT250 22/18 A2991=
200504181200 METAR MROC 181200Z 08010KT 9999 FEW025 BKN250 22/18 A2992=
200504181300 METAR MROC 181300Z 11007KT 9999 FEW025 BKN250 23/18 A2995
                        NOSIG=
200504181400 METAR MROC 181400Z 10008KT 9999 FEW025 BKN280 25/18 A2997
                        NOSIG=
200504181500 METAR MROC 181500Z 10010KT 9999 FEW025 BKN250 28/18 A2998
                        NOSIG=
200504181600 METAR MROC 181600Z 11013KT 9999 FEW025 SCT280 28/18 A2997
                        NOSIG=
200504181700 METAR MROC 181700Z 13014KT 9999 FEW025 SCT280 29/18 A2997=
200504181800 METAR MROC 181800Z 11015KT 9999 FEW025 BKN050 27/18 A2996=
200504181900 METAR MROC 181900Z 12014KT 9999 FEW025 SCT050 29/18 A2992
                        TEMPO 24008=
200504182000 METAR MROC 182000Z 11015KT 9999 FEW025 SCT050 BKN280 29/19
                        A2991 NOSIG=
200504182100 METAR MROC 182100Z 11016KT 9999 BKN030 26/18 A2990=
200504182200 METAR MROC 182200Z 10007KT 9999 SCT030 SCT150 26/18 A2990=
200504182300 METAR MROC 182300Z 08007KT 9000 DZ FEW010 SCT025 SCT100 23/20
                        A2992=
200504190000 METAR MROC 190000Z 11010KT 9999 SCT025 SCT200 22/19 A2992
                        RERA=
200504190100 METAR MROC 190100Z 10006KT 9999 SCT030 SCT250 22/18 A2993=
200504190200 METAR MROC 190200Z 11012KT 9999 FEW035 SCT250 22/18 A2994=
200504190300 METAR MROC 190300Z 00000KT 9999 FEW025 SCT250 22/18 A2995
                        NOSIG=
200504190400 METAR MROC 190400Z 08006KT 9999 FEW030 SCT250 22/18 A2995
                        NOSIG=
200504190500 METAR MROC 190500Z 10009KT 9999 FEW035 23/18 A2995 NOSIG=
200504190600 METAR MROC 190600Z 09007KT 9999 FEW030 SCT250 22/18 A2993
                        NOSIG=
200504190700 METAR MROC 190700Z 09006KT 9999 FEW030 SCT250 22/18 A2991
                        NOSIG=
200504190800 METAR MROC 190800Z 06005KT 9999 FEW030 SCT250 22/18 A2990
                        NOSIG=
200504190900 METAR MROC 190900Z 11007KT 9999 FEW030 SCT250 22/18 A2990
                        NOSIG=
200504191000 METAR MROC 191000Z 10004KT 9999 FEW030 21/18 A2991 NOSIG=
200504191100 METAR MROC 191100Z 12008KT 9999 FEW030 21/17 A2991 NOSIG=
200504191200 METAR MROC 191200Z 13010KT 9999 SCT030 BKN250 22/17 A2993
                        RMK DZ DST N/NE=
200504191300 METAR MROC 191300Z VRB03KT 9999 SCT025 BKN250 23/18 A2995=
200504191400 METAR MROC 191400Z 05004KT 9999 FEW025 SCT200 25/18 A2996=
200504191500 METAR MROC 191500Z 10010KT 9999 FEW025 SCT150 26/19 A2996=
200504191600 METAR MROC 191600Z 10013KT 9999 SCT025 SCT100 26/17 A2997=
200504191700 METAR MROC 191700Z 10015KT 9999 FEW030 BKN150 28/17 A2997=
200504191800 METAR MROC 191800Z 10013KT 9999 FEW030 BKN170 29/17 A2995=
200504191900 METAR MROC 191900Z 11018KT 9999 FEW035 SCT200 29/17 A2993=
200504192000 METAR MROC 192000Z 11009KT 9999 FEW035 SCT200 30/17 A2991=
200504192100 METAR MROC 192100Z 11010KT 9999 FEW030 SCT250 28/17 A2990=
200504192200 METAR MROC 192200Z 13010KT 9999 SCT030TCU SCT250 28/17 A2989=
200504192300 METAR MROC 192300Z 12007KT 9999 FEW025TCU SCT250 26/17 A2991
                        TEMPO 24008KT=
200504200000 METAR MROC 200000Z 15004KT 9999 SCT025TCU 24/17 A2993 TCU
                        DST SW=
200504200100 METAR MROC 200100Z 10004KT 9999 FEW035 23/17 A2995 RMK TS
                        DIST S/SW=
200504200200 METAR MROC 200200Z 10010KT CAVOK 22/17 A2998 RMK TS DIST
                        SW=
200504200300 METAR MROC 200300Z 06011KT 9999 FEW030 SCT270 22/17 A3000
                        NOSIG=
200504200600 METAR MROC 200600Z 10010KT CAVOK 21/17 A2995 NOSIG=
200504200900 METAR MROC 200900Z 09004KT CAVOK 21/16 A2991 NOSIG=
200504201000 METAR MROC 201000Z 08005KT CAVOK 20/16 A2992 NOSIG=
200504201200 METAR MROC 201200Z 05008KT 9999 FEW030 BKN270 20/15 A2995
                        NOSIG=
200504201300 METAR MROC 201300Z 11014KT CAVOK 23/15 A2998=
200504201400 METAR MROC 201400Z 11013KT CAVOK 24/15 A2999=
200504201500 METAR MROC 201500Z 11014KT CAVOK 25/16 A2999=
200504201600 METAR MROC 201600Z 12015KT CAVOK 28/16 A2998=
200504201700 METAR MROC 201700Z 12014KT CAVOK 29/16 A2988=
200504201800 METAR MROC 201800Z 10011KT 9999 FEW040 BKN250 30/16 A2997=
200504201900 METAR MROC 201900Z 10013KT 9999 FEW040 BKN250 30/16 A2994=
200504202000 METAR MROC 202000Z 11011KT 9999 FEW040 BKN250 31/15 A2992=
200504202100 METAR MROC 202100Z 11010KT 9999 FEW040 BKN250 30/16 A2991
                        NOSIG=
200504202200 METAR MROC 202200Z VRB04KT 9999 FEW030TCU BKN250 29/16 A2990
                        TEMPO 24008KT 8000 VCSH=
200504202300 METAR MROC 202300Z 24010KT 9999 FEW040 BKN250 26/17 A2996
                        NOSIG=
200504210000 METAR MROC 210000Z 22005KT 9999 FEW025 BKN250 24/20 A2995
                        NOSIG=
200504210100 METAR MROC 210100Z 24005KT 9999 FEW025 SCT250 22/21 A2998=
200504210200 METAR MROC 210200Z 29003KT 9999 FEW020 22/21 A3001 HZ ARND=
200504210300 METAR MROC 210300Z 07007KT 9999 FEW040 22/18 A3002=
200504210400 METAR MROC 210400Z 07006KT CAVOK 22/17 A3003=
200504210500 METAR MROC 210500Z 08006KT CAVOK 21/16 A3002=
200504210700 METAR MROC 210700Z 07007KT CAVOK 21/16 A2996=
200504210800 METAR MROC 210800Z 08005KT CAVOK 20/16 A2993=
200504210900 METAR MROC 210900Z 05008KT CAVOK 20/16 A2992=
200504211000 METAR MROC 211000Z 05008KT CAVOK 20/15 A2992=
200504211100 METAR MROC 211100Z 06005KT CAVOK 19/15 A2993=
200504211200 METAR MROC 211200Z 06008KT CAVOK 19/15 A2994=
200504211300 METAR MROC 211300Z 09005KT CAVOK 23/16 A2997 NOSIG=
200504211400 METAR MROC 211400Z 14004KT CAVOK 26/16 A2998 TEMPO 24008KT
                        9999 SCT025TCU=
200504211500 METAR MROC 211500Z 26010KT CAVOK 26/19 A2999 NOSIG=
200504211600 METAR MROC 211600Z 24010KT 9999 FEW030 BKN250 27/19 A2998
                        NOSIG=
200504211700 METAR MROC 211700Z 26007KT 9999 FEW035 BKN250 28/19 A2997
                        NOSIG=
200504211800 METAR MROC 211800Z 25010KT 9999 FEW035 BKN250 29/20 A2996
                        NOSIG=
200504211900 METAR MROC 211900Z 24012KT 9999 SCT035 BKN250 28/20 A2993
                        NOSIG=
200504212000 METAR MROC 212000Z 25011KT 9999 SCT030 SCT250 28/20 A2991
                        TEMPO 7000=
200504212100 METAR MROC 212100Z 24011KT 9999 SCT030 BKN250 28/20 A2990
                        RMK TEMPO 6000 VCSH=
200504212200 METAR MROC 212200Z 23009KT 9999 FEW025TCU SCT035 BKN250 27/20
                        A2990 NOSIG=
200504212300 METAR MROC 212300Z 23008KT 9999 FEW025TCU SCT035 SCT250 25/20
                        A2992 NOSIG RMK HZ ARND=
200504220000 METAR MROC 220000Z 25009KT 9999 FEW025TCU SCT035 SCT250 23/21
                        A2994 RMK HZ ARND=
200504220100 METAR MROC 220100Z 22005KT 9999 SCT012 SCT035 BKN250 23/21
                        A2997/NO SIG RMK HZ ARND=
200504220200 METAR MROC 220200Z 29004KT 999 FEW008 SCT030 BKN250 22/21
                        A2997 RMK VIS SW 8KM DUE LOW ST.
                        HZ ARND=
200504220300 METAR MROC 220300Z 32003KT 9999 SCT020 BKN250 22/21 A2999/BECMG
                        06005 CAVOK=
200504220400 METAR MROC 220400Z 00000KT 9999 SCT020 BKN250 22/21 A3000=
200504220500 METAR MROC 220500Z 00000KT 7000 VCFG FEW005 SCT018 BKN250
                        22/20 A3000=
200504220600 METAR MROC 220600Z 00000KT 8000 FEW005 SCT025 BKN250 21/20
                        A2997=
200504220700 METAR MROC 220700Z 07003KT 9999 SCT030 BKN250 20/18 A2994=
200504220800 METAR MROC 220800Z 00000KT 9999 FEW005 SCT030 BKN250 19/17
                        A2993=
200504220900 METAR MROC 220900Z 02005KT 9999 FEW005 SCT035 BKN250 19/17
                        A2993=
200504221000 METAR MROC 221000Z 00000KT 9999 FEW007 SCT035 BKN250 19/17
                        A2995=
200504221100 METAR MROC 221100Z 09003KT CAVOK 18/16 A2995=
200504221200 METAR MROC 221200Z 04003KT CAVOK 18/16 A2997=
200504221300 METAR MROC 221300Z 07003KT CAVOK 21/17 A2997 NOSIG=
200504221400 METAR MROC 221400Z 00000KT CAVOK 26/15 A2999 NOSIG RMK HZ
                        ARND=
200504221500 METAR MROC 221500Z 26007KT CAVOK 26/18 A3001 RMK HZ ARND=
200504221600 METAR MROC 221600Z 24010KT CAVOK 27/17 A2999 NOSIG RMK HZ
                        ARND=
200504221700 METAR MROC 221700Z 22008KT 9999 FEW040 BKN250 28/20 A2998
                        TEMPO 9999 SCT040 RMK HZ ARND=
200504221800 METAR MROC 221800Z 24012KT 9999 FEW040 BKN250 28/20 A2997
                        RMK HZ ARND=
200504221900 METAR MROC 221900Z 24013KT 9999 FEW035 BKN250 28/20 A2995
                        NOSIG RMK HZ ARND=
200504222000 METAR MROC 222000Z 24008KT 9999 SCT035 BKN250 28/20 A2993
                        NOSIG RMK HZ ARND=
200504222100 METAR MROC 222100Z 25010KT 9999 SCT030 BKN280 28/20 A2992
                        NOSIG=
200504222200 METAR MROC 222200Z 26009KT 9999 SCT030 BKN280 27/20 A2990
                        NOSIG=
200504222300 METAR MROC 222300Z 25011KT 9999 FEW025 BKN260 25/21 A2992
                        HZY NOSIG=
200504230000 METAR MROC 230000Z 24006KT 5000 HZ FEW025 SCT280 23/21 A2994
                        TEMPO 3000 BR FEW001 SCT010=
200504230100 METAR MROC 230100Z 28004KT 5000 HZ FEW025 SCT280 22/21 A2998
                        NOSIG=
200504230200 METAR MROC 230200Z 00000KT 5000 HZ FEW020 BKN100 22/20 A2999
                        NOSIG=
200504230300 METAR MROC 230300Z 29004KT 7000 VCFG FEW025 SCT100 22/21
                        A3001 TEMPO 9999=
200504230400 METAR MROC 230400Z 00000KT 8000 FEW005 SCT250 22/21 A3002
                        NOSIG=
200504230500 METAR MROC 230500Z 00000KT 8000 VCFG FEW007 BKN250 22/21
                        A3002 NOSIG=
200504230600 METAR MROC 230600Z 05007KT 9999 SCT020 BKN250 20/16 A3000
                        NOSIG=
200504230700 METAR MROC 230700Z 07007KT 9999 FEW020 SCT120 BKN250 20/17
                        A2997 NOSIG=
200504230800 METAR MROC 230800Z 04007KT 9999 FEW020 SCT120 20/17 A2995=
200504230900 METAR MROC 230900Z 10005KT CAVOK 19/15 A2994=
200504231000 METAR MROC 231000Z 09004KT CAVOK 19/16 A2995=
200504231100 METAR MROC 231100Z 08006KT CAVOK 18/15 A2997=
200504231200 METAR MROC 231200Z 10004KT CAVOK 17/15 A2997 RMK LGT HZ ARND=
200504231300 METAR MROC 231300Z 10004KT CAVOK 21/15 A2998 NOSIG=
200504231400 METAR MROC 231400Z 00000KT CAVOK 26/15 A3001 BECMG 24006KT=
200504231600 METAR MROC 231600Z 29004KT 9999 FEW025 SCT300 30/17 A3000
                        HZY NOSIG=
200504231700 METAR MROC 231700Z 21006KT 9999 FEW025 SCT300 29/18 A2999
                        HZY NOSIG=
200504231800 METAR MROC 231800Z 23011KT 7000 FEW030 SCT280 30/18 A2997
                        HZY NOSIG=
200504231900 METAR MROC 231900Z 23011KT 9999 SCT030 BKN280 29/20 A2995
                        VIS N 6KM DUE HZ=
200504232000 METAR MROC 232000Z 25014KT 6000 -RA SCT025 BKN280 27/20 A2993
                        TEMPO 5000 SHRA SCT020TCU BKN030
                        HZY=
200504232100 METAR MROC 232100Z 34010KT 6000 -RA SCT015 SCT050 22/20 A2994=
200504232200 METAR MROC 232200Z 00000KT 9999 SCT025 SCT100 22/19 A2994
                        RERA=
200504232300 METAR MROC 232300Z 30003KT 9999 FEW025 SCT250 23/19 A2994=
200504240000 METAR MROC 240000Z 33004KT 9999 FEW025 BKN200 23/19 A2996
                        HZ=
200504240100 METAR MROC 240100Z 10004KT 9999 FEW025 21/20 A2996=
200504240200 METAR MROC 240200Z 08004KT 9999 FEW025 21/18 A2998 HZ ARND=
200504240300 METAR MROC 240300Z 11008KT 9999 FEW035 21/18 A3000 NOSIG=
200504240400 METAR MROC 240400Z 07008KT 9999 FEW035 20/17 A3002 NOSIG=
200504240500 METAR MROC 240500Z 08005KT 9999 FEW035 21/18 A3001 NOSIG=
200504240600 METAR MROC 240600Z 06006KT 9999 FEW035 20/17 A3000 NOSIG=
200504240700 METAR MROC 240700Z 06006KT 9999 FEW035 20/17 A2998 NOSIG=
200504240800 METAR MROC 240800Z 07003KT 9999 FEW035 19/16 A2997 NOSIG=
200504240900 METAR MROC 240900Z 00000KT 9999 FEW035 18/16 A2997 NOSIG=
200504241000 METAR MROC 241000Z 13004KT 9999 FEW035 17/15 A2997 NOSIG=
200504241100 METAR MROC 241100Z 08004KT 9999 FEW035 SCT250 17/15 A2997
                        NOSIG=
200504241200 METAR MROC 241200Z 05005KT 9999 FEW035 SCT250 18/15 A3000
                        NOSIG RMK HZ ARND=
200504241300 METAR MROC 241300Z 04003KT 9000 FEW025 SCT250 21/16 A3003
                        HZ=
200504241400 METAR MROC 241400Z VRB03KT 7000 HZ FEW020 SCT250 25/17 A3004
                        VIS RED SW=
200504241500 METAR MROC 241500Z VRB03KT 8000 FEW020 SCT250 27/15 A3002
                        HZ TEMPO 25010KT=
200504241600 METAR MROC 241600Z 25009KT 7000 VCHZ FEW020 SCT250 27/19
                        A3001 NOSIG RMK HZ ARND=
200504241700 METAR MROC 241700Z 21008KT 9000 FEW030 SCT250 28/19 A3001
                        HZ=
200504241800 METAR MROC 241800Z 22009KT 8000 FEW020 SCT250 28/19 A2998
                        HZ=
200504241900 METAR MROC 241900Z 24012KT 9999 FEW025 SCT250 29/20 A2996=
200504242000 METAR MROC 242000Z 23009KT 9000 FEW025 SCT120 29/20 A2995
                        HZ ARND=
200504242100 METAR MROC 242100Z 35010KT 9000 -TSDZ SCT015CB SCT090 24/15
                        A2995=
200504242200 METAR MROC 242200Z 30005KT 9000 SCT025 SCT200 22/16 A2995
                        HZ=
200504242300 METAR MROC 242300Z 32003KT 9000 FEW025 BKN200 22/18 A2996
                        HZ SW=
200504250000 METAR MROC 250000Z 00000KT 9000 SCT025 SCT150 22/18 A2998
                        HZ=
200504250100 METAR MROC 250100Z 07003KT 9999 FEW030 SCT150 21/18 A3000/NO
                        SIG HZ ARND=
200504250200 METAR MROC 250200Z 00000KT CAVOK 21/19 A3000/NO SIG HZ ARND=
200504250300 METAR MROC 250300Z 00000KT CAVOK 20/18 A3002/ HZ ARND/ NO
                        SIG=
200504250400 METAR MROC 250400Z 04003KT CAVOK 19/15 A3003 NOSIG=
200504250600 METAR MROC 250600Z 07007KT CAVOK 18/15 A3001 NOSIG=
200504250700 METAR MROC 250700Z 08004KT CAVOK 18/13 A300 NOSIG=
200504250800 METAR MROC 250800Z 07007KT CAVOK 118/13 A2997 NOSIG=
200504250900 METAR MROC 250900Z 06005KT CAVOK 18/13 A2997 NOSIG=
200504251000 METAR MROC 251000Z 05009KT CAVOK 18/13 A2997 NOSIG=
200504251100 METAR MROC 251100Z 09006KT CAVOK 17/11 A2999 NOSIG=
200504251200 METAR MROC 251200Z 04008KT CAVOK 17/11 A3001 NOSIG=
200504251300 METAR MROC 251300Z 07008KT CAVOK 21/12 A3002=
200504251400 METAR MROC 251400Z 06005KT CAVOK 26/09 A3003=
200504251500 METAR MROC 251500Z 12007KT CAVOK 29/07 A3004=
200504251600 METAR MROC 251600Z 20008KT CAVOK 29/12 A3003=
200504251700 METAR MROC 251700Z 23009KT CAVOK 27/14 A3003=
200504251800 METAR MROC 251800Z 25010KT 9999 FEW040 SCT250 29/16 A3001=
200504251900 METAR MROC 251900Z 21010KT 9999 FEW040 SCT250 29/19 A2998=
200504252000 METAR MROC 252000Z 14013KT 9999 FEW040 SCT250 28/19 A2995=
200504252100 METAR MROC 252100Z 26011KT 9999 FEW035 BKN250 28/20 A2993=
200504252200 METAR MROC 252200Z 24012KT 9999 FEW035 BKN250 27/20 A2993=
200504252300 METAR MROC 252300Z 24011KT 9999 FEW035 BKN250 25/20 A2995=
200504260000 METAR MROC 260000Z 22007KT 9999 FEW035 BKN250 23/20 A2996=
200504260100 METAR MROC 260100Z 26007KT 9999 FEW025 SCT250 23/21 A2998
                        RMK HZ ARND=
200504260200 METAR MROC 260200Z 00000KT 7000 SCT010 22/21 A2999 BR SW=
200504260300 METAR MROC 260300Z 24003KT 7000 SCT015 22/21 A3002 BR SW=
200504260400 METAR MROC 260400Z 00000KT 8000 SCT015 21/20 A3003 BR ARND=
200504260500 METAR MROC 260500Z 00000KT 6000 BR FEW010 SCT025 21/20 A3003
                        VIS RED SW=
200504260600 METAR MROC 260600Z 00000KT 9000 FEW015 SCT070 21/19 A3002
                        BR ARND=
200504260800 METAR MROC 260800Z 04003KT 9999 FEW025 SCT100 21/18 A2999=
200504260900 METAR MROC 260900Z 05005KT 9999 SCT035 20/18 A2999=
200504261100 METAR MROC 261100Z 10003KT 9999 SCT040 18/16 A3000=
200504261200 METAR MROC 261200Z 07006KT 8000 FEW010 SCT250 18/16 A3001
                        HZ ARND=
200504261300 METAR MROC 261300Z 11003KT 7000 SCT250 21/16 A3004 RMK HZ
                        ARND=
200504261400 METAR MROC 261400Z 00000KT 9999 4000SW HZ FEW020 24/17 A3006
                        BECMG 24006KT=
200504261500 METAR MROC 261500Z 24004KT 7000 FEW020 26/19 A3005 RMK HZY=
200504261600 METAR MROC 261600Z 27007KT 7000 FEW035 26/18 A3004 RMK HZY=
200504261700 METAR MROC 261700Z 29008KT 8000 FEW035 SCT250 28/18 A3003
                        RMK HYZ NOSIG=
200504261800 METAR MROC 261800Z 23009KT 9000 FEW035 SCT250 28/20 A3001
                        RMK HZY NOSIG=
200504261900 METAR MROC 261900Z 26009KT 9999 SCT035 SCT250 28/20 A2998
                        RMK HZY=
200504262000 METAR MROC 262000Z 26010KT 9999 SCT035 BKN250 28/20 A2995
                        RMK HZY NOSIG=
200504262100 METAR MROC 262100Z 26012KT 9999 SCT030 BKN250 27/20 A2995
                        NOSIG RMK HZ ARND=
200504262200 METAR MROC 262200Z 23006KT 9999 FEW025 SCT035 BKN250 25/21
                        A2995 NOSIG RMK HZ ARND=
200504262300 METAR MROC 262300Z 24009KT 9999 FEW030 BKN250 24/20 A2995
                        NOSIG RMK HZ ARND=
200504270000 METAR MROC 270000Z 26008KT 9999 FEW015 SCT025 BKN250 23/20
                        A2998 NOSIG RMK HZ ARND=
200504270100 METAR MROC 270100Z 27007KT 9999 FEW025 BKN250 22/20 A3001
                        NOSIG=
200504270200 METAR MROC 270200Z 25005KT 9999 FEW025 SCT035 22/20 A3003
                        NOSIG=
200504270300 METAR MROC 270300Z 24004KT 9999 FEW025 SCT040 22/20 A3004
                        HZ ARND=
200504270400 METAR MROC 270400Z VRB03KT 9999 FEW025 SCT040 21/19 A3006
                        HZ ARND=
200504270500 METAR MROC 270500Z VRB03KT 9999 FEW015 BKN030 21/19 A3005KT
                        HZ ARND=
200504270600 METAR MROC 270600Z VRB03KT 8000 SCT015 BKN030 20/19 A3003
                        ST/HZ SW=
200504270700 METAR MROC 270700Z 00000KT 9999 SCT025 SCT100 20/19 A3003
                        HZ ARND=
200504270800 METAR MROC 270800Z 04003KT 9999 SCT030 21/19 A3001=
200504270900 METAR MROC 270900Z 06005KT 9999 FEW020 SCT100 20/19 A3000=
200504271100 METAR MROC 271100Z 07007KT 9999 FEW020 SCT150 19/16 A3002=
200504271115 METAR MROC 271115Z 06005KT 9999 FEW025 SCT120 19/17 A3001=
200504271200 METAR MROC 271200Z 05005KT 8000 FEW015 SCT250 20/17 A3003
                        HZ SW=
200504271300 METAR MROC 271300Z 09004KT CAVOK 22/17 A3005 TEMPO 24008KT
                        RMK HZ ARND=
200504271400 METAR MROC 271400Z 05004KT CAVOK 26/16 A3006 NOSIG RMK HZ
                        ARND=
200504271500 METAR MROC 271500Z 07004KT CAVOK 29/13 A3005 NOSIG RMK HZ
                        ARND=
200504271600 METAR MROC 271600Z 22003KT CAVOK 31/12 A3005 NOSIG RMK HZ
                        ARND=
200504271700 METAR MROC 271700Z 13007KT CAVOK 31/12 A3003 NOSIG RMK HZ
                        ARND=
200504271800 METAR MROC 271800Z 24013KT 9999 FEW040 BKN300 30/18 A3000
                        NOSIG RMK HZ ARND=
200504272000 METAR MROC 272000Z 26013KT 8000 FEW040 BKN250 27/21 A2998
                        NOSIG RMK HZ ARND=
200504272100 METAR MROC 272100Z 26011KT 5000 HZ FEW035 BKN300 27/21 A2997
                        NOSIG=
200504272200 METAR MROC 272200Z 24008KT 5000 HZ FEW035 BKN300 26/21 A2998
                        NOSIG=
200504272300 METAR MROC 272300Z 24006KT 5000 HZ FEW030 BKN300 25/21 A2999
                        NOSIG=
200504280000 METAR MROC 280000Z 26008KT 5000 HZ FEW008 SCT030 BKN280 23/21
                        A3001 NOSIG=
200504280100 METAR MROC 280100Z 24004KT 5000 HZ FEW010 SCT025 BKN280 23/21
                        A3003. NO SIG=
200504280200 METAR MROC 280200Z 27005KT 4000 HZ FEW008 SCT025 22/21 A3005/
                        NO SIG=
200504280300 METAR MROC 280300Z 00000KT 9999 4000SW BR HZ FEW06 SCT020
                        22/21 A3007 NOSIG=
200504280400 METAR MROC 280400Z 00000KT 7000 FEW012 SCT025 22/21 A3006
                        RMK HZY NOSIG=
200504280500 METAR MROC 280500Z 08003KT 9999 FEW012 SCT250 21/18 A3005
                        RMK HZY NOSIG=
200504280600 METAR MROC 280600Z 01003KT 9999 FEW015 SCT250 21/17 A3004
                        RMK HZY=
200504280700 METAR MROC 280700Z 05005KT CVAOK 19/17 A3003 RNK HZY=
200504280800 METAR MROC 280800Z 06005KT CAVOK 18/16 A3001 NOSIG=
200504280900 METAR MROC 280900Z 08003KT CAVOK 18/15 A2999 RMK HZY NOSIG=
200504281000 METAR MROC 281000Z 04006KT CAVOK 19/14 A3001 NOSIG=
200504281100 METAR MROC 281100Z 05003KT CAVOK 19/13 A3002 NOSIG=
200504281200 METAR MROC 281200Z 05009KT CAVOK 20/13 A3005 RMK HZ SW NOSIG=
200504281300 METAR MROC 281300Z 05012KT CAVOK 23/13 A3005 HZY NOSIG=
200504281400 METAR MROC 281400Z 06004KT CAVOK 26/13 A3005 HZY NOSIG=
200504281500 METAR MROC 281500Z 10008KT CAVOK 28/10 A3005 HZY NOSIG=
200504281600 METAR MROC 281600Z 09010KT CAVOK 31/10 A3006 HZY NOSIG=
200504281700 METAR MROC 281700Z 10003KT CAVOK 32/09 A3004 HZY NOSIG=
200504281800 METAR MROC 281800Z 23009KT CAVOK 29/17 A3002 HZY NOSIG=
200504281900 METAR MROC 281900Z 25009KT 9999 FEW030 SCT300 30/18 A2998
                        HZY NOSIG=
200504282000 METAR MROC 282000Z 23010KT 9999 FEW030 SCT300 30/18 A2996
                        HZY NOSIG=
200504282100 METAR MROC 282100Z 27009KT 9999 SCT030 29/19 A2995 HZ ARND=
200504282200 METAR MROC 282200Z 24010KT 9000 SCT025TCU 28/19 A2994 HZ
                        ARND=
200504282300 METAR MROC 282300Z 22008KT 9999 FEW020 SCT060 26/20 A2996=
200504290000 METAR MROC 290000Z 20007KT 9999 FEW020 SCT250 25/18 A2998
                        HZ ARND=
200504290100 METAR MROC 290100Z 12010KT 9999 FEW035 24/18 A3000 TEMPO
                        CAVOK=
200504290200 METAR MROC 290200Z 11006KT CAVOK 23/17 A3003 RMK HZ LEVE=
200504290300 METAR MROC 290300Z 10006KT 9999 FEW035 23/16 A3005 NOSIG=
200504290400 METAR MROC 290400Z 10008KT 9999 FEW035 22/14 A3005 NOSIG=
200504290500 METAR MROC 290500Z 10004KT CAVOK 22/12 A3006 NOSIG=
200504290600 METAR MROC 290600Z 02009KT CAVOK 21/12 A3004 NOSIG=
200504290700 METAR MROC 290700Z 09006KT CAVOK 21/12 A3003 NOSIG=
200504290900 METAR MROC 290900Z 07008KT CAVOK 19/12 A2999 NOSIG=
200504291000 METAR MROC 291000Z 07010KT CAVOK 20/12 A2998 NOSIG=
200504291100 METAR MROC 291100Z 09006KT CAVOK 20/13 A3000 NOSIG=
200504291200 METAR MROC 291200Z 09005KT CAVOK 21/13 A2999 NOSIG RMK CB
                        DST SW=
200504291300 METAR MROC 291300Z 11011KT CAVOK 24/14 A3001=
200504291500 METAR MROC 291500Z 12016KT CAVOK 27/17 A3002=
200504291600 METAR MROC 291600Z 09012KT 999 FEW030 SCT120 27/17 A3004=
200504291700 METAR MROC 291700Z 09010KT 9999 FEW025 SCT100 27/16 A3004=
200504291800 METAR MROC 291800Z 11014KT 9999 FEW025 SCT100 25/17 A3002=
200504291900 METAR MROC 291900Z 08013KT 9999 FEW025 SCT100 30/16 A2999=
200504292000 METAR MROC 292000Z 10013KT 9999 SCT040 30/15 A2996=
200504292100 METAR MROC 292100Z 11009KT 9999 SCT040 28/16 A2995=
200504292200 METAR MROC 292200Z 13005KT 9999 SCT035 28/16 A2995=
200504292300 METAR MROC 292300Z 11008KT 9999 FEW035 SCT250 27/16 A2997=
200504300000 METAR MROC 300000Z 23010KT 9999 SCT030 SCT250 24/19 A2998=
200504300100 METAR MROC 300100Z 25009KT 9999 SCT030 SCT250 23/20 A3001=
200504300200 METAR MROC 300200Z 30006KT 9999 SCT030 SCT250 22/20 A3003=
200504300300 METAR MROC 300300Z 00000KT 9999 FEW030 SCT280 22/20 A3006
                        HZY NOSIG=
200504300400 METAR MROC 300400Z 06004KT 9999 SCT020 SCT280 22/19 A3007
                        HZY NOSIG=
200504300500 METAR MROC 300500Z 07008KT 9999 FEW020 SCT280 21/18 A3007
                        HZY NOSIG=
200504300600 METAR MROC 300600Z 06007KT CAVOK 21/17 A3005 NOSIG=
200504300700 METAR MROC 300700Z 09005KT CAVOK 20/17 A3003 NOSIG=
200504300800 METAR MROC 300800Z 07006KT CAVOK 19/16 A3001=
200504300900 METAR MROC 300900Z 07010KT CAVOK 19/16 A3000=
200504301000 METAR MROC 301000Z 07009KT CAVOK 20/16 A3000 NOSIG=
200504301100 METAR MROC 301100Z 08008KT CAVOK 20/15 A3000=
200504301200 METAR MROC 301200Z 07010KT CAVOK 20/15 A3001 NOSIG=
200504301300 METAR MROC 301300Z 07006KT CAVOK 24/14 A3004=
200504301400 METAR MROC 301400Z 08006KT CAVOK 27/13 A3006=
200504301500 METAR MROC 301500Z 22004KT CAVOK 27/16 A3005=
200504301600 METAR MROC 301600Z 29005KT CAVOK 30/15 A3004=
200504301700 METAR MROC 301700Z 11009KT CAVOK 31/11 A3002=
200504301800 METAR MROC 301800Z 26008KT 9999 FEW035 SCT250 32/16 A3000=
200504301900 METAR MROC 301900Z 26010KT 9999 SCT030 SCT250 31/17 A2998=
200504302000 METAR MROC 302000Z 24010KT 9999 SCT030 SCT250 29/20 A2997=
200504302100 METAR MROC 302100Z 25011KT 9999 SCT030 29/20 A2996 NOSIG=
200504302200 METAR MROC 302200Z 22010KT 9999 SCT030 SCT300 27/20 A2995
                        NOSIG=
200504302300 METAR MROC 302300Z 23009KT 9999 SCT025 25/20 A2997 NOSIG=

</pre>

</body>
</html>
