<!-- $Id$ -->
<!DOCTYPE HTML PUBLIC "-//W3C//DTD HTML 4.01 Transitional//EN">
<html>
<head>
  <title>Display metars</title>
  <meta http-equiv="Content-Type" content="text/html; charset=utf-8">
  <meta name="Author" content="G. Ballester">
  <meta name="GENERATOR" content="Quanta Plus">
  <meta name="robots" content="index,nofollow">
  <meta name="keywords" content="metar, speci, taf, weather reports">
  <meta name=viewport content="width=device-width, initial-scale=1">  
  <link rel="stylesheet" href="/ogimet.css">
  <link rel="stylesheet" type="text/css" href="//cdnjs.cloudflare.com/ajax/libs/cookieconsent2/3.0.3/cookieconsent.min.css" />
<script src="//cdnjs.cloudflare.com/ajax/libs/cookieconsent2/3.0.3/cookieconsent.min.js"></script>
<script>
window.addEventListener("load", function(){
window.cookieconsent.initialise({
  "palette": {
    "popup": {
      "background": "#eb6c44",
      "text": "#ffffff"
    },
    "button": {
      "background": "#f5d948"
    }
  },
  "theme": "classic",
  "position": "top",
  "content": {
    "message": "Las cookies de este sitio web se usan para personalizar el contenido y los anuncios, ofrecer funciones de redes sociales y analizar el tráfico. Ademas, compartimos el uso que haga del sitio web con nuestros partners de redes sociales, publicidad y análisis web, quienes pueden combinarla con otra información que les haya proporcionado o que hayan recopilado a partir del uso que haya hecho de sus servicios. Si continua navegando en estas páginas consideramos que acepta su uso. ",
    "dismiss": "Entendido",
    "link": "Saber más",
    "href": "/cookiespolicy.phtml"
  }
})});
</script>
</head>
<body>
<pre>
##########################################################
# Consulta realizada a 15/01/2020 07:37:13 UTC
# Periodo: desde 01/01/2005 00:00  a 31/01/2005 23:59  UTC
##########################################################

##########################################################
# MRPV, Tobias Bolanos International (Costa Rica)
# Indicativo sinóptico: -----
# Latitud 09-57N. Longitud 084-09W. Altitud 994 m.
##########################################################

###################################
#  METAR/SPECI de MRPV
###################################
200501010000 METAR MRPV 010000Z NIL=
200501011300 METAR MRPV 011300Z 11010KT 9999 FEW022 21/16 A3008=
200501011400 METAR MRPV 011400Z 08016KT 9999 SCT025 22/16 A3009=
200501011500 METAR MRPV 011500Z 08015KT 9999 SCT035 23/16 A3009=
200501011600 METAR MRPV 011600Z 07015KT 9999 SCT035 25/15 A3009=
200501011700 METAR MRPV 011700Z 08013KT 9999 SCT040 26/15 A3007=
200501011800 METAR MRPV 011800Z 07013KT 9999 FEW032 BKN040 26/16 A3005=
200501011900 METAR MRPV 011900Z 07019KT 9999 FEW032 BKN040 24/16 A3004=
200501012000 METAR MRPV 012000Z 05017KT 9999 FEW035 25/16 A3001=
200501012100 METAR MRPV 012100Z 07016KT 9999 FEW035 26/16 A2999=
200501012200 METAR MRPV 012200Z 06014KT 9999 FEW030 SCT040 24/16 A3000=
200501012300 METAR MRPV 012300Z 06015KT 9999 SCT030 22/15 A3001=
200501021200 METAR MRPV 021200Z 11013KT 9999 -DZ SCT020 20/16 A3005=
200501021300 METAR MRPV 021300Z 11013KT 9999 -DZ FEW020 BKN035 20/16 A3005=
200501021400 METAR MRPV 021400Z 09015KT 9999 FEW025 21/16 A3008=
200501021500 METAR MRPV 021500Z 08018KT 9999 SCT030 BKN100 23/16 A3009=
200501021600 METAR MRPV 021600Z 08023KT 9999 FEW025 BKN100 24/16 A3009=
200501021700 METAR MRPV 021700Z 08018KT 9999 FEW030 BKN100 24/17 A3007=
200501021800 METAR MRPV 021800Z 09022KT 9999 SCT032 24/17 A3004=
200501021900 METAR MRPV 021900Z 07019KT 9999 SCT030 BKN100 24/17 A3003=
200501022000 METAR MRPV 022000Z 07018KT 9999 SCT030 BKN100 24/17 A2999=
200501022100 METAR MRPV 022100Z 09014KT 9999 FEW030 SCT100 24/17 A2998=
200501022200 METAR MRPV 022200Z 07015KT 9999 FEW030 SCT100 23/17 A2998=
200501022300 METAR MRPV 022300Z 08018KT 9999 FEW028 SCT100 22/16 A2999=
200501031200 METAR MRPV 031200Z 10015KT 9999 SCT022 BKN100 21/17 A3000=
200501031300 METAR MRPV 031300Z 09018KT 9999 -RA SCT020 BKN100 20/16 A3003=
200501031400 METAR MRPV 031400Z 11516KT 9999 FEW025 BKN100 21/16 A3006=
200501031500 METAR MRPV 031500Z 08019KT 9999 FEW030 BKN100 22/15 A3006=
200501031600 METAR MRPV 031600Z 09020G30KT 9999 FEW030 BKN100 22/15 A3007=
200501031700 METAR MRPV 031700Z 08022G31KT 9999 SCT030 BKN080 23/16 A3004=
200501031800 METAR MRPV 031800Z 09018KT 9999 FEW030 SCT035 24/17 A3002=
200501031900 METAR MRPV 031900Z 09015KT 9999 FEW020 SCT035 24/16 A2999=
200501032000 METAR MRPV 032000Z 08020KT 9999 SCT020 23/16 A2996=
200501032100 METAR MRPV 032100Z 11016KT 9999 SCT020 24/127 A2996=
200501032200 METAR MRPV 032200Z 08017KT 9999 SCT020 22/16 A2996=
200501032300 METAR MRPV 032300Z 09016KT 9999 SCT020 22/16 A2997=
200501041200 METAR MRPV 041200Z 11020KT 9999 FEW017 20/14 A3001=
200501041300 METAR MRPV 041300Z 12015KT 9999 FEW025 20/15 A3003=
200501041400 METAR MRPV 041400Z 09017KT 9999 FEW030 22/16 A3004=
200501041500 METAR MRPV 041500Z 07019KT 9999 FEW030 BKN070 22/16 A3006=
200501041600 METAR MRPV 041600Z 11014KT 9999 -RA FEW030 BKN060 22/16 A3006=
200501041700 METAR MRPV 041700Z 12012KT 9999 RA SCT025 BKN050 21/16 A3005=
200501041800 METAR MRPV 041800Z 11011KT 9999 -DZ BKN032 23/17 A3002=
200501041900 METAR MRPV 041900Z 08022KT 9999 BKN025 23/16 A2999=
200501042000 METAR MRPV 042000Z 09022KT 9999 BKN025 24/16 A2996=
200501042100 METAR MRPV 042100Z 06016KT 9999 BKN020 22/15 A2995=
200501042200 METAR MRPV 042200Z NIL=
200501042300 METAR MRPV 042300Z 08022KT 9999 SCT020 21/15 A2995=
200501050000 METAR MRPV 050000Z NIL=
200501051200 METAR MRPV 051200Z 11017KT 9999 FEW022 18/14 A2998=
200501051300 METAR MRPV 051300Z 08022KT 9999 FEW027 19/14 A3001=
200501051400 METAR MRPV 051400Z 09018KT 9999 FEW035 21/13 A3002=
200501051500 METAR MRPV 051500Z 08020KT CAVOK 22/13 A3002=
200501051600 METAR MRPV 051600Z 07022KT 9999 FEW040 22/13 A3003=
200501051700 METAR MRPV 051700Z 07015G25KT 9999 FEW045 24/13 A3001=
200501051800 METAR MRPV 051800Z 07018KT 9999 FEW045 25/14 A2999=
200501051900 METAR MRPV 051900Z 09016KT 9999 FEW035 24/14 A2996=
200501052000 METAR MRPV 052000Z 08018KT 9999 FEW035 24/14 A2993=
200501052100 METAR MRPV 052100Z 07015KT 9999 FEW030 25/14 A2991=
200501052200 METAR MRPV 052200Z 08014KT 9999 FEW030 23/14 A2991=
200501052300 METAR MRPV 052300Z 09018KT 9999 FEW025 23/15 A2991=
200501060000 METAR MRPV 060000Z NIL=
200501060900 METAR MRPV NIL=
200501061200 METAR MRPV 061200Z 11018KT CAVOK 18/14 A2996=
200501061300 METAR MRPV 061300Z 12014KT 9999 FEW025 19/14 A2997=
200501061400 METAR MRPV 061400Z 09019KT 9999 FEW030 22/15 A2999=
200501061500 METAR MRPV 061500Z 09022KT 9999 FEW035 22/15 A3000=
200501061600 METAR MRPV 061600Z 09021KT 9999 FEW025 SCT035 22/15 A3000=
200501061700 METAR MRPV 061700Z 08017KT 9999 FEW025 BKN035 23/15 A2999=
200501061800 METAR MRPV 061800Z 08017KT 9999 BKN030 23/15 A2997=
200501061900 METAR MRPV 061900Z 07016KT 9999 BKN030 23/15 A2995=
200501062000 METAR MRPV 062000Z 06013KT 9999 BKN030 23/14 A2994=
200501062100 METAR MRPV 062100Z 06014KT 9999 BKN025 23/14 A2992=
200501062200 METAR MRPV 062200Z 08014KT 9999 SCT030 23/14 A2993=
200501062300 METAR MRPV 062300Z 12014KT 9999 SCT030 23/16 A2993=
200501070000 METAR MRPV 070000Z NIL=
200501071400 METAR MRPV 071400Z 10014KT 9999 BKN025 21/16 A3003=
200501071500 METAR MRPV 071500Z 08017KT 9999 SCT030 22/16 A3003=
200501071600 METAR MRPV 071600Z 08017KT 9999 FEW025 BKN032 22/16 A3003=
200501071700 METAR MRPV 071700Z 09015KT 9999 BKN030 23/16 A3002=
200501071800 METAR MRPV 071800Z 08023KT 9999 FEW025 BKN033 22/15 A3001=
200501071900 METAR MRPV 071900Z 07013KT 9999 BKN030 24/15 A2998=
200501072000 METAR MRPV 072000Z 10020KT 9999 SCT035 23/15 A2997=
200501072100 METAR MRPV 072100Z 07019KT 9999 FEW020 SCT035 23/15 A2995=
200501072200 METAR MRPV 072200Z 09018KT 9999 FEW020 SCT030 22/15 A2995=
200501072300 METAR MRPV 072300Z 11022KT 9999 FEW020 SCT030 21/14 A2996=
200501072355 METAR MRPV 080000Z NIL=
200501080000 METAR MRPV NIL=
200501080700 METAR MRPV NIL=
200501081000 METAR MRPV NIL=
200501081300 METAR MRPV NIL }=
200501081400 METAR MRPV 081400Z 08019KT 9999 FEW030 22/16 A3005=
200501081500 METAR MRPV 081500Z 08022KT 9999 FEW030 23/16 A3006=
200501081600 METAR MRPV 081600Z 09014KT 9999 FEW030 23/16 A3005=
200501081700 METAR MRPV 081700Z 12019KT 9999 SCT030 24/16 A3004=
200501081800 METAR MRPV 081800Z 08019KT 9999 SCT020 BKN035 23/17 A3002=
200501081900 METAR MRPV 081900Z 08017KT 9999 SCT020 BKN040 23/17 A3000=
200501082000 METAR MRPV 082000Z 05018KT 9999 SCT020 BKN080 24/16 A2998=
200501082100 METAR MRPV 082100Z 08027KT 9999 BKN020 24/16 A2996=
200501082200 METAR MRPV 082200Z 09020KT 9999 SCT020 BKN080 23/16 A2996=
200501082300 METAR MRPV 082300Z 10008KT 9999 SCT020 BKN100 22/16 A2997=
200501090000 METAR MRPV 090000Z=
200501091300 METAR MRPV 091300Z 10011KT 9999 -RA FEW020 BKN080 20/16 A3004=
200501091400 METAR MRPV 091400Z 12012KT 9999 -RA FEW020 BKN080 20/16 A3000=
200501091500 METAR MRPV 091500Z 09020KT 9999 -RA FEW020 BKN080 20/17 A3005=
200501091600 METAR MRPV 091600Z 09017G30KT 99999 -RA SCT025 BKN080 22/16
                        A3004=
200501091700 METAR MRPV 091700Z 08021G32KT 9999 -RA FEW030 BKN080 24/17
                        A3002=
200501091800 METAR MRPV 091800Z 09020KT 9999 -DZ FEW030 BKN080 23/17 A3000=
200501091900 METAR MRPV 091900Z 09021KT 9999 -RA FEW030 BKN080 24/16 A2998=
200501092000 METAR MRPV 092000Z 08020KT 9999 SCT035 BKN080 23/16 A2975=
200501092100 METAR MRPV 092100Z 10019KT 9999 -DZ SCT025 OVC080 22/16 A2995=
200501092200 METAR MRPV 092200Z 09019KT 9999 -RA FEW026 SCT080 22/19 A2996=
200501092300 METAR MRPV 092300Z 09019KT 9999 FEW025 BKN080 22/16 A2995=
200501100000 METAR MRPV 100000Z NIL=
200501100600 METAR MRPV NIL=
200501101200 METAR MRPV 101200Z 11018KT 9999 FEW023 OVC080 19/15 A3002=
200501101300 METAR MRPV 101300Z 10016KT 9999 FEW025 BKN080 20/15 A3004=
200501101400 METAR MRPV 101400Z 11014KT 9999 FEW025 BKLN080 20/15 A3006=
200501101500 METAR MRPV 101500Z 09016KT 9999 FEW030 OVC080 21/15 A3000=
200501101600 METAR MRPV 101600Z 10016KT 9999 FEW032 OVC080 22/16 A3006=
200501101700 METAR MRPV 101700Z 09019KT 9999 FEW035 BKN080 23/16 A3004=
200501101800 METAR MRPV 101800Z 09019KT 9999 SCT033 OVC100 23/16 A3003=
200501101900 METAR MRPV 101900Z 08018KT 9999 SCT020 BKN100 23/16 A2998=
200501102000 METAR MRPV 102000Z 10020KT 9999 SCT020 BKN100 23/15 A2996=
200501102100 METAR MRPV 102100Z 10017KT 9999 SCT020 BKN120 23/16 A2996=
200501102200 METAR MRPV 102200Z 09023KT 9999 SCT020 BKN120 21/16 A2995=
200501102300 METAR MRPV 102300Z 10017KT 9999 SCT020 OVC120 21/16 A2995=
200501110000 METAR MRPV 110000Z NIL=
200501111200 METAR MRPV 111200Z 10014KT 9999 FEW018 OVC080 20/16 A2999=
200501111300 METAR MRPV 111300Z 11015KT 9999 FEW020 BKN080 20/16 A3001=
200501111400 METAR MRPV 111400Z 10016KT 9999 FEW025 OVC080 22/16 A3004=
200501111500 METAR MRPV 111500Z 09016KT 9999 FEW030 SCT100 23/17 A3005=
200501111600 METAR MRPV 111600Z 07019KT 9999 FEW032 BKN100 23/17 A3004=
200501111700 METAR MRPV 111700Z 07012KT 9999 FEW030 BKN100 24/17 A3002=
200501111800 METAR MRPV 111800Z 08018KT 9999 SCT030 SCT100 24/17 A3001=
200501111900 METAR MRPV 111900Z 09017KT 9999 SCT020 BKN100 24/16 A3000=
200501112000 METAR MRPV 112000Z 07016KT 9999 BKN030 25/17 A2995=
200501112100 METAR MRPV 112100Z 10016KT 9999 SCT025 BKN100 29/17 A2995=
200501112200 METAR MRPV 112200Z 10013KT 9999 BKN020 22/16 A2996=
200501112300 METAR MRPV 112300Z 10014KT 9999 SCT020 OVC100 22/16 A2997=
200501120000 METAR MRPV NIL=
200501121200 METAR MRPV 121200Z 12009KT CAVOK 20/15 A2997=
200501121300 METAR MRPV 121300Z 11010KT CAVOK 21/16 A3000=
200501121400 METAR MRPV 121400Z 11012KT CAVOK 23/16 A3002=
200501121500 METAR MRPV 121500Z 08017KT 9999 FEW045 24/16 A3004=
200501121600 METAR MRPV 121600Z 07015KT 9999 FEW040 25/16 A3003=
200501121700 METAR MRPV 121700Z 09013KT 9999 SCT040 27/16 A3001=
200501121800 METAR MRPV 121800Z 06013KT 9999 SCT045 27/16 A2998=
200501121900 METAR MRPV 121900Z 08017KT 9999 BKN030 27/17 A2996=
200501122000 METAR MRPV 122000Z 09016KT 9999 SCT030 BKN100 24/17 A2996=
200501122100 METAR MRPV 122100Z 04011KT 9999 SCT025 BKN100 24/16 A2994=
200501122200 METAR MRPV 122200Z 12006KT 9999 SCT025 BKN100 24/16 A2994=
200501122300 METAR MRPV 122300Z 11010KT 9999 SCT025 BKN100 23/17 A2994=
200501130000 METAR MRPV NIL=
200501131200 METAR MRPV 131200Z 09005KT CAVOK 17/15 A3000=
200501131300 METAR MRPV 131300Z 10004KT 9999 SKC 20/15 A3003=
200501131400 METAR MRPV 131400Z 12005KT 9999 SKC 24/21 A3004=
200501131500 METAR MRPV 131500Z 12005KT 9999 SKC 26/15 A3005=
200501131600 METAR MRPV 131600Z 10005KT 9999 FEW040 28/14 A3004=
200501131700 METAR MRPV 131700Z 29007KT 9999 FEW045 28/16 A3002=
200501131800 METAR MRPV 131800Z 28008KT 9999 BKN045 27/18 A2999=
200501131900 METAR MRPV 131900Z 26011KT 9999 BKN030 28/19 A2997=
200501132000 METAR MRPV 132000Z 29010KT 9999 BKN025 26/19 A2996=
200501132100 METAR MRPV 132100Z 29006KT 9999 -RA SCT015 BKN025 25/20 A2996=
200501132200 METAR MRPV NIL=
200501132300 METAR MRPV 132300Z NIL=
200501140000 METAR MRPV 140000Z NIL=
200501141200 METAR MRPV 141200Z 14008KT 9999 FEW035 21/16 A3004=
200501141300 METAR MRPV 141300Z 12008KT CAVOK 21/16 A3002=
200501141400 METAR MRPV 141400Z 13008KT 9999 FEW035 24/16 A3010=
200501141500 METAR MRPV 141500Z 12016KT 9999 FEW035 25/17 A3011=
200501141600 METAR MRPV 141600Z 11014KT 9999 FEW040 26/17 A3011=
200501141700 METAR MRPV 141700Z 09014KT 9999 FEW040 27/17 A3009=
200501141800 METAR MRPV 141800Z 09019KT 9999 BKN045 25/17 A2006=
200501141900 METAR MRPV 141900Z 10017KT 9999 SCT040 26/18 A3003=
200501142000 METAR MRPV 142000Z 10020KT 9999 SCT030 26/17 A3000=
200501142200 METAR MRPV 142200Z 11017KT 9999 BKN030 25/17 A3000=
200501142300 METAR MRPV 142300Z 10018KT 9999 SCT025 BKN120 23/16 A3002=
200501150000 METAR MRPV 150000Z NIL=
200501151300 METAR MRPV 151300Z NIL=
200501151400 METAR MRPV 151400Z 12017KT 9999 SCT020 BKN100 21/16 A3008=
200501151500 METAR MRPV 151500Z 09015KT 9999 BKN020 22/16 A3011=
200501151600 METAR MRPV 151600Z 10017KT 9999 SCT020 BKN120 24/16 A3011=
200501151700 METAR MRPV 151700Z 07025KT 9999 SCT025 BKN250 24/16 A3008=
200501151800 METAR MRPV 151800Z 06021KT 9999 SCT025 BKN250 23/15 A3007=
200501151900 METAR MRPV 151900Z 07018KT 9999 SCT025 24/15 A3004=
200501152000 METAR MRPV 152000Z 04021KT 9999 SCT040 24/15 A3002=
200501152100 METAR MRPV 152100Z 06020KT 9999 SCT020 23/14 A3002=
200501152200 METAR MRPV 152200Z 09015KT 9999 SCT020 23/14 A3002=
200501152300 METAR MRPV 152300Z 06019KT 9999 SCT020 22/15 A3003=
200501160000 METAR MRPV 160000Z NIL=
200501161200 METAR MRPV 161200Z 11009KT 9999 FEW025 SCT070 20/15 A3007=
200501161300 METAR MRPV 161300Z 10013KT 9999 FEW030 BKN070 21/15 A3008=
200501161400 METAR MRPV 161400Z 13012KT 9999 -DZ SCT028 BKN080 21/15 A3010=
200501161500 METAR MRPV 161500Z 11013KT 9999 -DZ SCT022 BKN080 21/16 A3011=
200501161600 METAR MRPV 161600Z 09017KT 9999 -DZ BKN030 SCT080 22/16 A3012=
200501161700 METAR MRPV 161700Z 10016KT 999 DZ SCT025 BKN070 21/16 A3011=
200501161800 METAR MRPV 161800Z 07019G29KT 9999 SCT025 BKN070 23/16 A3009=
200501161900 METAR MRPV 161900Z 09018KT 9999 DZ SCT030 BKN070 22/16 A3006=
200501162000 METAR MRPV 162000Z 09019KT 9999 -DZ SCT028 BKN070 21/15 A3004=
200501162100 METAR MRPV 162100Z 08019KT 9999 -DZ SCT030 BKN070 22/15 A3002=
200501162200 METAR MRPV 162200Z 09016KT 9999 FEW030 BKN070 20/15 A3003=
200501162300 METAR MRPV 162300Z 11016KT 9999 FEW028 BKN250 21/15 A3004=
200501162350 METAR MRPV 170000Z NIL=
200501171200 METAR MRPV 171200Z 11016G27KT 9999 -DZ SCT025 17/12 A3010=
200501171300 METAR MRPV 171300Z 11017KT 9999 -DZ SCT025 BKN250 17/12 A3011=
200501171400 METAR MRPV 171400Z 10017G27KT 9999 -DZ SCT030 BKN250 19/12
                        A3013=
200501171500 METAR MRPV 171500Z 11019KT 9999 -DZ SCT030 19/13 A3015=
200501171600 METAR MRPV 171600Z 10018KT 9999 SCT032 21/14 A3013=
200501171700 METAR MRPV 171700Z 11017G28KT 9999 SCT035 22/14 A3012=
200501171800 METAR MRPV 171800Z 10021G31KT 9999 SCT030 22/14 A3006=
200501171900 METAR MRPV 171900Z 10024G35KT 9999 SCT020 20/13 A3006=
200501172000 METAR MRPV 172000Z 08019G30KT 9999 SCT025 19/12 A3006=
200501172100 METAR MRPV 172100Z 12023G33KT 9999 SCT025 20/12 A3006=
200501172200 METAR MRPV 172200Z 10021KT 9999 SCT020 20/13 A3005=
200501172300 METAR MRPV 172300Z 11023KT 9999 FEW020 SCT270 18/13 A3006=
200501180000 METAR MRPV NIL=
200501181200 METAR MRPV 181200Z 12013KT 9999 FEW025 18/13 A3008=
200501181300 METAR MRPV 181300Z 11018KT 9999 FEW025 18/14 A3010=
200501181400 METAR MRPV 181400Z 10016KT 9999 FEW025 29/14 A3014=
200501181500 METAR MRPV 181500Z 10017KT 9999 FEW025 20/14 A3014=
200501181600 METAR MRPV 181600Z 09020G29KT 9999 FEW025 SCT035 21/14 A3013=
200501181700 METAR MRPV 181700Z 10019G28KT 9999 FEW025 SCT035 22/15 A3012=
200501181800 METAR MRPV 181800Z 09021G29KT 9999 FEW025 SCT035 22/15 A3010=
200501181900 METAR MRPV 181900Z 10027KT 9999 SCT025 22/15 A3006=
200501182000 METAR MRPV 182000Z 09022KT 9999 FEW020 22/15 A3006=
200501182100 METAR MRPV 182100Z 09022KT 9999 SCT020 22/14 A3004=
200501182200 METAR MRPV 182200Z 12018G30KT 9999 FEW020 20/13 A3004=
200501182300 METAR MRPV 182300Z 08015G25KT 9999 FEW020 19/13 A3006=
200501190000 METAR MRPV 190000Z NIL=
200501190600 METAR MRPV NIL=
200501191200 METAR MRPV 191200Z 12018KT 9999 FEW020 17/13 A3008=
200501191300 METAR MRPV 191300Z 09019KT 9999 FEW020 17/12 A3010=
200501191400 METAR MRPV 191400Z 09020KT 9999 FEW025 18/13 A3012=
200501191500 METAR MRPV 191500Z 09021KT 9999 FEW025 20/13 A3015=
200501191600 METAR MRPV 191600Z 10021G32KT 9999 FEW030 20/13 A3013=
200501191700 METAR MRPV 191700Z 09024KT 9999 FEW032 21/13 A3009=
200501191800 METAR MRPV 191800Z 09024KT 9999 SCT035 22/14 A3007=
200501191900 METAR MRPV 191900Z 10024KT 9999 SCT025 22/14 A3004=
200501192000 METAR MRPV 192000Z 12016KT 9999 SCT030 22/14 A3000=
200501192100 METAR MRPV 192100Z 09028KT 9999 SCT020 21/14 A2998=
200501192200 METAR MRPV 192200Z 12023KT 9999 SCT020 21/14 A2999=
200501192300 METAR MRPV 192300Z 11020KT 9999 SCT020 20/14 A3001=
200501200000 METAR MRPV 200000Z NIL=
200501200300 METAR MRPV 200300Z 11018KT 9999 SCT020 21/13 A3005=
200501201300 METAR MRPV NIL=
200501201400 METAR MRPV 201400Z 09018KT 9999 FEW025 19/13 A3012=
200501201500 METAR MRPV 201500Z 09022KT 9999 FEW035 20/13 A3013=
200501201600 METAR MRPV 201600Z 09022KT 9999 FEW035 22/12 A3015=
200501201700 METAR MRPV 201700Z 09022KT 9999 FEW035 20/13 A3013=
200501201800 METAR MRPV 201800Z 10018KT 9999 FEW035 21/13 A3011=
200501201900 METAR MRPV 201900Z 10020KT 9999 SCT020 22/14 A3010=
200501202000 METAR MRPV 202000Z 09014KT 9999 SCT020 21/13 A3007=
200501202100 METAR MRPV 202100Z 11018KT 9999 SCT020 21/13 A3005=
200501202200 METAR MRPV 202200Z 10019KT 9999 SCT020 20/13 A3005=
200501202300 METAR MRPV 202300Z 11014KT 9999 FEW020 19/13 A3006=
200501211200 METAR MRPV 211200Z 12019KT 9999 FEW020 SCT100 18/14 A2007=
200501211300 METAR MRPV 211300Z 12018KT 9999 FEW023 BKN080 19/14 A3009=
200501211400 METAR MRPV 211400Z 11017KT 9999 FEW025 BKN090 19/14 A3012=
200501211500 METAR MRPV 211500Z 11018KT 9999 FEW025 BKN090 20/14 A3013=
200501211600 METAR MRPV 211600Z 12017KT 9999 FEW025 BKN100 21/15 A3014=
200501211700 METAR MRPV 211700Z 11016KT 9999 FEW030 BKN100 21/15 A3012=
200501211800 METAR MRPV 211800Z 09015KT 9999 FEW025 SCT040 BKN100 23/15
                        A3009=
200501211900 METAR MRPV 211900Z 10014KT 9999 FEW020 SCT040 22/14 A3007=
200501212000 METAR MRPV 212000Z 12010KT 9999 SCT020 BKN080 22/15 A3005=
200501212200 METAR MRPV 212200Z 09018KT 9999 SCT020 BKN080 22/14 A3003=
200501220000 METAR MRPV 220000Z NIL=
200501221300 METAR MRPV 221300Z 13014KT 9999 FEW020 19/14 A3010=
200501221400 METAR MRPV 221400Z 12013KT 9999 FEW020 21/14 A3013=
200501221500 METAR MRPV 221500Z 13010KT 9999 FEW020 22/14 A3014=
200501221600 METAR MRPV 221600Z 08016KT 9999 FEW025 23/14 A3013=
200501221700 METAR MRPV 221700Z 08020KT 9999 FEW030 23/15 A3012=
200501221800 METAR MRPV 221800Z 07014KT 9999 FEW040 24/15 A3009=
200501221900 METAR MRPV 221900Z 10007KT 9999 SCT040 25/15 A3008=
200501222000 METAR MRPV 222000Z 09012KT 9999 SCT045 25/15 A3004=
200501222100 METAR MRPV 222100Z 08012KT 9999 SCT040 24/15 A3004=
200501222200 METAR MRPV 222200Z 09015KT 9999 SCT030 BKN250 23/15 A3003=
200501222300 METAR MRPV 222300Z 10013KT 9999 SCT040 BKN250 22/15 A3004=
200501230000 METAR MRPV NIL=
200501231300 METAR MRPV 231300Z 13012KT CAVOK 20/13 A3010=
200501231400 METAR MRPV 231400Z 12014KT CAVOK 22/14 A3013=
200501231500 METAR MRPV 231500Z 11013KT 9999 FEW035 23/14 A3013=
200501231600 METAR MRPV 231600Z 11014KT 9999 FEW040 24/14 A3013=
200501231700 METAR MRPV 231700Z 10015KT 9999 FEW045 24/14 A3012=
200501231800 METAR MRPV 231800Z 08013KT 9999 FEW045 26/14 A3009=
200501231900 METAR MRPV 231900Z 07014KT 9999 FEW045 25/14 A3006=
200501232000 METAR MRPV 232000Z 07013KT 9999 SCT045 26/14 A3004=
200501232100 METAR MRPV 232100Z 08012KT 9999 SCT045 27/14 A3003=
200501232200 METAR MRPV 232200Z 08016KT 9999 FEW045 SCT080 25/14 A3000=
200501232300 METAR MRPV 232300Z 09013KT 9999 SCT045 24/15 A3004=
200501240000 METAR MRPV 240000Z NIL=
200501241200 METAR MRPV 241200Z 12009KT 9999 SCT030 19/14 A3014=
200501241300 METAR MRPV 241300Z 12014KT 9999 FEW025 BKN060 20/14 A3015=
200501241400 METAR MRPV 241400Z 12012KT 9999 SCT030 21/15 A3017=
200501241500 METAR MRPV 241500Z 12014KT 9999 SCT030 BKN0670 21/15 A3018=
200501241600 METAR MRPV 241600Z 09022KT 9999 FEW030 SCT080 22/14 A3017=
200501241700 METAR MRPV 241700Z 08020G30KT 9999 FEW032 22/13 A3016=
200501241800 METAR MRPV 241800Z 08022KT 9999 SCT035 21/13 A3014=
200501241900 METAR MRPV 241900Z 07018KT 9999 SCT025 22/13 A3011=
200501242000 METAR MRPV 242000Z 09018KT 9999 FEW020 SCT040 20/12 A3009=
200501242100 METAR MRPV 242100Z 12014KT 9999 FEW020 SCT035 21/12 A3009=
200501242200 METAR MRPV 242200Z 09020KT 9999 SCT020 20/11 A3008=
200501242300 METAR MRPV 242300Z 11013KT 9999 SCT020 19/11 A3009=
200501251200 METAR MRPV 251200Z 10021KT 9999 FEW030 17/11 A3007=
200501251300 METAR MRPV 251300Z 11014KT 9999 FEW025 17/12 A3009=
200501251400 METAR MRPV 251400Z 12018KT 9999 FEW025 19/12 A3012=
200501251500 METAR MRPV 251500Z 10019KT 9999 FEW028 21/12 A3012=
200501251600 METAR MRPV 251600Z 08022KT 9999 FEW030 22/12 A3012=
200501251700 METAR MRPV 251700Z 09019G29KT 9999 FEW032 22/13 A3010=
200501251800 METAR MRPV 251800Z 08020KT 9999 SCT040 22/14 A3008=
200501251900 METAR MRPV 251900Z 09014KT 9999 SCT030 22/14 A3005=
200501252100 METAR MRPV 252100Z 08012KT 9999 SCT025 22/14 A3001=
200501252200 METAR MRPV 252200Z 10016KT 9999 SCT025 20/14 A3000=
200501252300 METAR MRPV 252300Z 08017KT 9999 SCT025 20/13 A3002=
200501261200 METAR MRPV 261200Z 12013KT 9999 FEW025 17/12 A3002=
200501261300 METAR MRPV 261300Z 12012KT 9999 FEW025 18/13 A3003=
200501261400 METAR MRPV 261400Z 10018KT 9999 FEW030 20/14 A3004=
200501261500 METAR MRPV 261500Z 09021KT 9999 FEW030 21/15 A3006=
200501261600 METAR MRPV 261600Z 08020KT 9999 FEW025 21/15 A3007=
200501261700 METAR MRPV 261700Z 08022KT 9999 SCT030 22/15 A3005=
200501261800 METAR MRPV 261800Z 10016KT 9999 BKN030 22/15 A3004=
200501261900 METAR MRPV 261900Z 10019KT 9999 SCT025 22/14 A3000=
200501262000 METAR MRPV 262000Z 09019KT 9999 SCT025 23/14 A2998=
200501262100 METAR MRPV 262100Z 09019KT 9999 BKN025 21/15 A2997=
200501262200 METAR MRPV 262200Z 06024KT 9999 SCT025 21/15 A2996=
200501262300 METAR MRPV 262300Z 09014KT 9999 SCT020 21/15 A2997=
200501270000 METAR MRPV 270000Z NIL=
200501271300 METAR MRPV 271300Z 12014KT 9999 FEW020 19/15 A3003=
200501271500 METAR MRPV 271500Z 11013KT 9999 FEW030 22/15 A3007=
200501271600 METAR MRPV 271600Z 11011KT 9999 BKN030 23/15 A3007=
200501271700 METAR MRPV 271700Z 10012KT 9999 BKN030 23/15 A3005=
200501271800 METAR MRPV 271800Z 08017KT 9999 SCT035 25/15 A3003=
200501271900 METAR MRPV 271900Z 08012KT 9999 SCT035 26/15 A3001=
200501272000 METAR MRPV 272000Z 08010KT 9999 SCT030 26/16 A2998=
200501272300 METAR MRPV 272300Z 12014KT 9999 FEW030 23/15 A2996=
200501280000 METAR MRPV NIL=
200501281200 METAR MRPV 281200Z 12013KT 9999 FEW020 21/16 A3003=
200501281300 METAR MRPV 281300Z 11011KT 9999 FEW025 21/16 A3004=
200501281400 METAR MRPV 281400Z 10015G25KT 9999 FEW030 23/16 A3005=
200501281500 METAR MRPV 281500Z 10016KT 9999 FEW030 23/17 A3007=
200501281600 METAR MRPV 281600Z 07020KT 9999 SCT035 25/17 A3005=
200501281700 METAR MRPV 281700Z 08019KT 9999 SCT035 25/17 A3004=
200501281800 METAR MRPV 281800Z 08018G28KT 9999 SCT030 24/16 A3001=
200501281900 METAR MRPV 281900Z 10017KT 9999 SCT025 26/16 A2999=
200501282000 METAR MRPV 282000Z 08022KT 9999 BKN025 25/16 A2996=
200501282100 METAR MRPV 282100Z 06016KT 9999 SCT025 25/17 A2995=
200501282200 METAR MRPV 282200Z 07015KT 9999 SCT020 25/16 A2995=
200501282300 METAR MRPV 282300Z 07017KT 9999 SCT020 23/17 A2996=
200501291300 METAR MRPV 291300Z 12020KT CAVOK 20/14 A3001=
200501291400 METAR MRPV 291400Z 10017KT CAVOK 21/14 A3003=
200501291500 METAR MRPV 291500Z 08018KT CAVOK 23/14 A3004=
200501291700 METAR MRPV 291700Z 07023KT 9999 FEW020 SCT250 24/15 A3002=
200501291800 METAR MRPV 291800Z 04021KT 9999 FEW030 SCT270 24/15 A3001=
200501291900 METAR MRPV 291900Z 08015KT 9999 SCT030 BKN270 25/15 A2997=
200501292000 METAR MRPV 292000Z 08018KT 9999 SCT030 BKN250 24/14 A2986=
200501292100 METAR MRPV 292100Z 09014KT 9999 SCT030 BKN250 24/14 A2995=
200501292200 METAR MRPV 292200Z 08016KT 9999 SCT030 BKN250 24/15 A2995=
200501292300 METAR MRPV 292300Z 06015KT 9999 SCT030 BKN250 23/15 A2999=
200501300000 METAR MRPV 300000Z NIL=
200501300600 METAR MRPV NIL=
200501301200 METAR MRPV NIL=
200501301300 METAR MRPV 301300Z 11015KT 9999 FEW025 19/14 A2998=
200501301400 METAR MRPV 301400Z 09018KT 9999 FEW035 21/14 A3000=
200501301500 METAR MRPV 301500Z 08017KT 9999 FEW035 23/13 A3001=
200501301600 METAR MRPV 301600Z 07018KT 9999 FEW040 24/13 A3000=
200501301700 METAR MRPV 301700Z 07017KT 9999 FEW040 25/14 A3000=
200501301800 METAR MRPV 301800Z 06017KT 9999 FEW040 26/17 A2997=
200501301900 METAR MRPV 301900Z 06015KT 9999 FEW040 26/13 A2994=
200501302000 METAR MRPV 302000Z 05015KT 9999 FEW045 26/13 A2992=
200501302100 METAR MRPV 302100Z 07023KT 9999 FEW045 25/14 A2991=
200501302200 METAR MRPV 302200Z 07018KT 9999 FEW045 25/15 A2990=
200501302300 METAR MRPV 302300Z 07019KT 9999 FEW035 22/14 A2991=
200501310000 METAR MRPV 310000Z NIL=
200501311200 METAR MRPV 311200Z 10010KT 9999 FEW025 19/13 A2996=
200501311300 METAR MRPV 311300Z 11008KT 9999 FEW030 SCT070 19/14 A2999=
200501311400 METAR MRPV 311400Z 10015KT 9999 FEW035 21/14 A2999=
200501311500 METAR MRPV 311500Z 08018KT 9999 SCT035 22/15 A3001=
200501311600 METAR MRPV 311600Z 09015KT 9999 BKN035 SCT080 23/15 A2999=
200501311700 METAR MRPV 311700Z 09015KT 9999 BKN035 SCT080 23/15 A2999=
200501311800 METAR MRPV 311800Z 08019KT 9999 BKN032 22/15 A2998=
200501311900 METAR MRPV 311900Z 08018G28KT 9999 BKN025 23/16 A2994=
200501312000 METAR MRPV 312000Z 09019KT 9999 FEW020 SCT040 24/15 A2992=
200501312100 METAR MRPV 312100Z 09017KT 9999 FEW020 SCT040 23/15 A2990=
200501312200 METAR MRPV 312200Z 08014KT 9999 BKN020 22/15 A2989=
200501312300 METAR MRPV 312300Z 10018KT 9999 SCT020 22/15 A2999=

</pre>

</body>
</html>
